{
"type": "FeatureCollection",
"name": "geo_03_特定施設入居者生活介護（軽費老人ホーム）",
"crs": { "type": "name", "properties": { "name": "urn:ogc:def:crs:OGC:1.3:CRS84" } },
"features": [
{ "type": "Feature", "properties": { "内容": "軽費老人ホームケアハウスさんさ物語【特定施設入居者生活介護（軽費老人ホーム）】岩手県盛岡市厨川四丁目10番1号", "url2": "https://www.kaigokensaku.mhlw.go.jp/03/index.php?action_kouhyou_detail_004_kani=true&JigyosyoCd=0370108169-00&ServiceCd=332&Type=search" }, "geometry": { "type": "Point", "coordinates": [ 141.129982899999959, 39.749866300000015 ] } },
{ "type": "Feature", "properties": { "内容": "軽費老人ホームケアガーデン高松公園【特定施設入居者生活介護（軽費老人ホーム）】岩手県盛岡市上田字毛無森２番地７", "url2": "https://www.kaigokensaku.mhlw.go.jp/03/index.php?action_kouhyou_detail_004_kani=true&JigyosyoCd=0370103376-00&ServiceCd=332&Type=search" }, "geometry": { "type": "Point", "coordinates": [ 141.145472700000028, 39.7297524 ] } },
{ "type": "Feature", "properties": { "内容": "ケアハウスおでんせ特定施設入居者生活介護【特定施設入居者生活介護（軽費老人ホーム）】岩手県盛岡市上厨川字横長根76番地1", "url2": "https://www.kaigokensaku.mhlw.go.jp/03/index.php?action_kouhyou_detail_004_kani=true&JigyosyoCd=0370103889-00&ServiceCd=332&Type=search" }, "geometry": { "type": "Point", "coordinates": [ 141.08466210000006, 39.7072948 ] } },
{ "type": "Feature", "properties": { "内容": "軽費老人ホームケアハウス麗沢【特定施設入居者生活介護（軽費老人ホーム）】岩手県盛岡市猪去三枚橋21番地", "url2": "https://www.kaigokensaku.mhlw.go.jp/03/index.php?action_kouhyou_detail_004_kani=true&JigyosyoCd=0370105058-00&ServiceCd=332&Type=search" }, "geometry": { "type": "Point", "coordinates": [ 141.065858400000025, 39.6901378 ] } },
{ "type": "Feature", "properties": { "内容": "ケアハウス金矢【特定施設入居者生活介護（軽費老人ホーム）】岩手県花巻市湯本第19地割408番地ケアハウス金矢", "url2": "https://www.kaigokensaku.mhlw.go.jp/03/index.php?action_kouhyou_detail_004_kani=true&JigyosyoCd=0370501132-00&ServiceCd=332&Type=search" }, "geometry": { "type": "Point", "coordinates": [ 141.079214399999955, 39.438168500000039 ] } },
{ "type": "Feature", "properties": { "内容": "ケアハウス千鳥苑【特定施設入居者生活介護（軽費老人ホーム）】岩手県花巻市石鳥谷町大瀬川8-10-1", "url2": "https://www.kaigokensaku.mhlw.go.jp/03/index.php?action_kouhyou_detail_004_kani=true&JigyosyoCd=0370501561-00&ServiceCd=332&Type=search" }, "geometry": { "type": "Point", "coordinates": [ 141.096385, 39.5014246 ] } },
{ "type": "Feature", "properties": { "内容": "ケアハウス北星荘【特定施設入居者生活介護（軽費老人ホーム）】岩手県北上市下鬼柳１７地割１２７番地５", "url2": "https://www.kaigokensaku.mhlw.go.jp/03/index.php?action_kouhyou_detail_004_kani=true&JigyosyoCd=0370600934-00&ServiceCd=332&Type=search" }, "geometry": { "type": "Point", "coordinates": [ 141.089785300000017, 39.2675327 ] } },
{ "type": "Feature", "properties": { "内容": "一関ロイヤルハウス【特定施設入居者生活介護（軽費老人ホーム）】岩手県一関市真柴字吉ヶ沢20-81", "url2": "https://www.kaigokensaku.mhlw.go.jp/03/index.php?action_kouhyou_detail_004_kani=true&JigyosyoCd=0370901282-00&ServiceCd=332&Type=search" }, "geometry": { "type": "Point", "coordinates": [ 141.137915, 38.8805137 ] } },
{ "type": "Feature", "properties": { "内容": "ケアハウスにのへ【特定施設入居者生活介護（軽費老人ホーム）】岩手県二戸市堀野字馬場50-14", "url2": "https://www.kaigokensaku.mhlw.go.jp/03/index.php?action_kouhyou_detail_004_kani=true&JigyosyoCd=0371300401-00&ServiceCd=332&Type=search" }, "geometry": { "type": "Point", "coordinates": [ 141.29806659999997, 40.296601 ] } },
{ "type": "Feature", "properties": { "内容": "ケアハウスまべち川【特定施設入居者生活介護（軽費老人ホーム）】岩手県二戸市金田一字上田面301番地1", "url2": "https://www.kaigokensaku.mhlw.go.jp/03/index.php?action_kouhyou_detail_004_kani=true&JigyosyoCd=0371300476-00&ServiceCd=332&Type=search" }, "geometry": { "type": "Point", "coordinates": [ 141.305829266270393, 40.304346044283854 ] } },
{ "type": "Feature", "properties": { "内容": "ケアハウスアーベイン八幡平【特定施設入居者生活介護（軽費老人ホーム）】岩手県八幡平市柏台二丁目9番3号", "url2": "https://www.kaigokensaku.mhlw.go.jp/03/index.php?action_kouhyou_detail_004_kani=true&JigyosyoCd=0371400052-00&ServiceCd=332&Type=search" }, "geometry": { "type": "Point", "coordinates": [ 140.984105707934503, 39.915877360898449 ] } },
{ "type": "Feature", "properties": { "内容": "介護付軽費老人ホームケアハウス巣子【特定施設入居者生活介護（軽費老人ホーム）】岩手県滝沢市巣子732番地2", "url2": "https://www.kaigokensaku.mhlw.go.jp/03/index.php?action_kouhyou_detail_004_kani=true&JigyosyoCd=0372101816-00&ServiceCd=332&Type=search" }, "geometry": { "type": "Point", "coordinates": [ 141.138920341200219, 39.782808752898816 ] } }
]
}
