{
"type": "FeatureCollection",
"name": "geo_03_介護老人保健施設",
"crs": { "type": "name", "properties": { "name": "urn:ogc:def:crs:OGC:1.3:CRS84" } },
"features": [
{ "type": "Feature", "properties": { "内容": "介護老人保健施設イーハトーブ【介護老人保健施設】岩手県盛岡市本宮一丁目6番12号", "url": "https://www.kaigokensaku.mhlw.go.jp/03/index.php?action_kouhyou_detail_004_kani=true&JigyosyoCd=0350180022-00&ServiceCd=520&Type=search", "url2": "http://www.oginohospital.jp" }, "geometry": { "type": "Point", "coordinates": [ 141.140838199999962, 39.6904567 ] } },
{ "type": "Feature", "properties": { "内容": "介護老人保健施設ケアホームやすみ【介護老人保健施設】岩手県盛岡市好摩字夏間木70－190", "url": "https://www.kaigokensaku.mhlw.go.jp/03/index.php?action_kouhyou_detail_004_kani=true&JigyosyoCd=0352180012-00&ServiceCd=520&Type=search", "url2": "http://www.nisshindo-g.com/" }, "geometry": { "type": "Point", "coordinates": [ 141.166338699999983, 39.8752669 ] } },
{ "type": "Feature", "properties": { "内容": "介護老人保健施設ハートフルもりおか【介護老人保健施設】岩手県盛岡市永井１４地割１５番地１", "url": "https://www.kaigokensaku.mhlw.go.jp/03/index.php?action_kouhyou_detail_004_kani=true&JigyosyoCd=0350180006-00&ServiceCd=520&Type=search", "url2": "http://www.ja-iwatekouseiren.or.jp/" }, "geometry": { "type": "Point", "coordinates": [ 141.138817300000028, 39.6599046 ] } },
{ "type": "Feature", "properties": { "内容": "介護老人保健施設アルテンハイム青山【介護老人保健施設】岩手県盛岡市青山二丁目12-33", "url": "https://www.kaigokensaku.mhlw.go.jp/03/index.php?action_kouhyou_detail_004_kani=true&JigyosyoCd=0350180014-00&ServiceCd=520&Type=search", "url2": "http://www.toyama-byouin.jp/jacility/altenheim-aoyama/" }, "geometry": { "type": "Point", "coordinates": [ 141.113109, 39.7261523 ] } },
{ "type": "Feature", "properties": { "内容": "介護老人保健施設銀楊【介護老人保健施設】岩手県盛岡市本宮２－２０－１０", "url": "https://www.kaigokensaku.mhlw.go.jp/03/index.php?action_kouhyou_detail_004_kani=true&JigyosyoCd=0350180055-00&ServiceCd=520&Type=search", "url2": "https://www.kuonkai.com/ginyou/" }, "geometry": { "type": "Point", "coordinates": [ 141.137643359524532, 39.688451449279029 ] } },
{ "type": "Feature", "properties": { "内容": "介護療養型老人保健施設圭友【介護老人保健施設】岩手県盛岡市津志田西２丁目１９番１号", "url": "https://www.kaigokensaku.mhlw.go.jp/03/index.php?action_kouhyou_detail_004_kani=true&JigyosyoCd=0350180089-00&ServiceCd=520&Type=search", "url2": "https://syouseikai.jp" }, "geometry": { "type": "Point", "coordinates": [ 141.147944300000063, 39.6602381 ] } },
{ "type": "Feature", "properties": { "内容": "介護老人保健施設ケアコートもりおか【介護老人保健施設】岩手県盛岡市青山1-25-25", "url": "https://www.kaigokensaku.mhlw.go.jp/03/index.php?action_kouhyou_detail_004_kani=true&JigyosyoCd=0350180105-00&ServiceCd=520&Type=search", "url2": "https://sg-seijukai.com/carecourt-morioka/" }, "geometry": { "type": "Point", "coordinates": [ 141.109995499999968, 39.7239607 ] } },
{ "type": "Feature", "properties": { "内容": "介護老人保健施設ヴィラ加賀野【介護老人保健施設】岩手県盛岡市加賀野三丁目１番６号", "url": "https://www.kaigokensaku.mhlw.go.jp/03/index.php?action_kouhyou_detail_004_kani=true&JigyosyoCd=0350180113-00&ServiceCd=520&Type=search", "url2": "http://www.sg-kumiai.or.jp/" }, "geometry": { "type": "Point", "coordinates": [ 141.1666186, 39.7051417 ] } },
{ "type": "Feature", "properties": { "内容": "介護老人保健施設康楽苑【介護老人保健施設】岩手県盛岡市手代森9地割64番地2", "url": "https://www.kaigokensaku.mhlw.go.jp/03/index.php?action_kouhyou_detail_004_kani=true&JigyosyoCd=0350180048-00&ServiceCd=520&Type=search", "url2": "http://www.i-korakuen.com/" }, "geometry": { "type": "Point", "coordinates": [ 141.184607699999987, 39.6582721 ] } },
{ "type": "Feature", "properties": { "内容": "介護老人保健施設ほほえみの里【介護老人保健施設】岩手県宮古市崎鍬ヶ崎第９地割３９番地２７", "url": "https://www.kaigokensaku.mhlw.go.jp/03/index.php?action_kouhyou_detail_004_kani=true&JigyosyoCd=0370200560-00&ServiceCd=520&Type=search", "url2": "http://www.hohoeminosato.jp/" }, "geometry": { "type": "Point", "coordinates": [ 141.957528300000035, 39.6683752 ] } },
{ "type": "Feature", "properties": { "内容": "宮古介護老人保健施設桜ヶ丘【介護老人保健施設】岩手県宮古市山口五丁目5番10号", "url": "https://www.kaigokensaku.mhlw.go.jp/03/index.php?action_kouhyou_detail_004_kani=true&JigyosyoCd=0350280012-00&ServiceCd=520&Type=search", "url2": "https://www.shinwa-kai.jp" }, "geometry": { "type": "Point", "coordinates": [ 141.930778, 39.6576202 ] } },
{ "type": "Feature", "properties": { "内容": "介護老人保健施設気仙苑【介護老人保健施設】岩手県大船渡市大船渡町字山馬越188番地", "url": "https://www.kaigokensaku.mhlw.go.jp/03/index.php?action_kouhyou_detail_004_kani=true&JigyosyoCd=0350380010-00&ServiceCd=520&Type=search", "url2": "http://www.shokyukai.or.jp" }, "geometry": { "type": "Point", "coordinates": [ 141.71006639999996, 39.0710219 ] } },
{ "type": "Feature", "properties": { "内容": "介護老人保健施設サンホーム【介護老人保健施設】岩手県花巻市東宮野目１３－９５－１", "url": "https://www.kaigokensaku.mhlw.go.jp/03/index.php?action_kouhyou_detail_004_kani=true&JigyosyoCd=0350580015-00&ServiceCd=520&Type=search", "url2": "http://www.hogaraka.gr.jp" }, "geometry": { "type": "Point", "coordinates": [ 141.12303529999997, 39.4082178 ] } },
{ "type": "Feature", "properties": { "内容": "介護老人保健施設サンシャイン【介護老人保健施設】岩手県花巻市本館189", "url": "https://www.kaigokensaku.mhlw.go.jp/03/index.php?action_kouhyou_detail_004_kani=true&JigyosyoCd=0350580023-00&ServiceCd=520&Type=search", "url2": "http://hogaraka.gr.jp/sunshine/" }, "geometry": { "type": "Point", "coordinates": [ 141.120105, 39.4101981 ] } },
{ "type": "Feature", "properties": { "内容": "介護老人保健施設ゆうゆうの里【介護老人保健施設】岩手県花巻市石鳥谷町松林寺第3地割82番地1", "url": "https://www.kaigokensaku.mhlw.go.jp/03/index.php?action_kouhyou_detail_004_kani=true&JigyosyoCd=0352380000-00&ServiceCd=520&Type=search", "url2": null }, "geometry": { "type": "Point", "coordinates": [ 141.0956698, 39.4749144 ] } },
{ "type": "Feature", "properties": { "内容": "介護老人保健施設はやちねの里【介護老人保健施設】岩手県花巻市大迫町大迫４－１９－１", "url": "https://www.kaigokensaku.mhlw.go.jp/03/index.php?action_kouhyou_detail_004_kani=true&JigyosyoCd=0352380018-00&ServiceCd=520&Type=search", "url2": "https://www.hayachinenosato.jp/" }, "geometry": { "type": "Point", "coordinates": [ 141.287047499999971, 39.4692866 ] } },
{ "type": "Feature", "properties": { "内容": "花巻市老人保健施設華の苑【介護老人保健施設】岩手県花巻市東和町安俵6区75番地１", "url": "https://www.kaigokensaku.mhlw.go.jp/03/index.php?action_kouhyou_detail_004_kani=true&JigyosyoCd=0352480008-00&ServiceCd=520&Type=search", "url2": null }, "geometry": { "type": "Point", "coordinates": [ 141.224241799999959, 39.3844338 ] } },
{ "type": "Feature", "properties": { "内容": "イーハトーブ介護リハビリセンター【介護老人保健施設】岩手県花巻市湯口字志戸平１４番１号", "url": "https://www.kaigokensaku.mhlw.go.jp/03/index.php?action_kouhyou_detail_004_kani=true&JigyosyoCd=0370501009-00&ServiceCd=520&Type=search", "url2": null }, "geometry": { "type": "Point", "coordinates": [ 141.012232199999971, 39.4192447 ] } },
{ "type": "Feature", "properties": { "内容": "介護老人保健施設まつみ【介護老人保健施設】岩手県北上市和賀町長沼5-350-1", "url": "https://www.kaigokensaku.mhlw.go.jp/03/index.php?action_kouhyou_detail_004_kani=true&JigyosyoCd=0350680039-00&ServiceCd=520&Type=search", "url2": "http://www.keiwakai.info/" }, "geometry": { "type": "Point", "coordinates": [ 141.0282277, 39.299589 ] } },
{ "type": "Feature", "properties": { "内容": "介護老人保健施設リハビリパーク北上【介護老人保健施設】岩手県北上市大通り一丁目1番22号", "url": "https://www.kaigokensaku.mhlw.go.jp/03/index.php?action_kouhyou_detail_004_kani=true&JigyosyoCd=0350680047-00&ServiceCd=520&Type=search", "url2": "http://rehabili-park.com/sisetu/kitakami.html" }, "geometry": { "type": "Point", "coordinates": [ 141.12150410000001, 39.2818912 ] } },
{ "type": "Feature", "properties": { "内容": "介護老人保健施設みさと【介護老人保健施設】岩手県北上市和賀町煤孫10-14-1", "url": "https://www.kaigokensaku.mhlw.go.jp/03/index.php?action_kouhyou_detail_004_kani=true&JigyosyoCd=0370601007-00&ServiceCd=520&Type=search", "url2": "http://www.keiwakai.info/" }, "geometry": { "type": "Point", "coordinates": [ 141.000508299999979, 39.2894554 ] } },
{ "type": "Feature", "properties": { "内容": "介護老人保健施設たいわ【介護老人保健施設】岩手県北上市北鬼柳20-20", "url": "https://www.kaigokensaku.mhlw.go.jp/03/index.php?action_kouhyou_detail_004_kani=true&JigyosyoCd=0350690010-00&ServiceCd=520&Type=search", "url2": "http://www.keiwakai.info/" }, "geometry": { "type": "Point", "coordinates": [ 141.089377988589632, 39.293511001829835 ] } },
{ "type": "Feature", "properties": { "内容": "介護老人保健施設リハビリタウンくじ【介護老人保健施設】岩手県久慈市旭町第8地割100番地2", "url": "https://www.kaigokensaku.mhlw.go.jp/03/index.php?action_kouhyou_detail_004_kani=true&JigyosyoCd=0350780003-00&ServiceCd=520&Type=search", "url2": "http://rehabilitown-kuji.jimdofree.com" }, "geometry": { "type": "Point", "coordinates": [ 141.774629299999987, 40.2003286 ] } },
{ "type": "Feature", "properties": { "内容": "介護老人保健施設リハビリタウンくじユニット館【介護老人保健施設】岩手県久慈市旭町第8地割100番地2", "url": "https://www.kaigokensaku.mhlw.go.jp/03/index.php?action_kouhyou_detail_004_kani=true&JigyosyoCd=0350780029-00&ServiceCd=520&Type=search", "url2": "http://rehabilitown-kuji.jimdofree.com" }, "geometry": { "type": "Point", "coordinates": [ 141.774668996660722, 40.200301271064674 ] } },
{ "type": "Feature", "properties": { "内容": "介護老人保健施設欅の里【介護老人保健施設】岩手県久慈市小久慈町１６－１２－１", "url": "https://www.kaigokensaku.mhlw.go.jp/03/index.php?action_kouhyou_detail_004_kani=true&JigyosyoCd=0350780011-00&ServiceCd=520&Type=search", "url2": "https://www.keyakinosato.jp/" }, "geometry": { "type": "Point", "coordinates": [ 141.74527399629514, 40.165674994563183 ] } },
{ "type": "Feature", "properties": { "内容": "介護老人保健施設やまゆりの里【介護老人保健施設】岩手県遠野市宮守町達曽部27地割20番地11", "url": "https://www.kaigokensaku.mhlw.go.jp/03/index.php?action_kouhyou_detail_004_kani=true&JigyosyoCd=0352980015-00&ServiceCd=520&Type=search", "url2": "http://www.yamayurinosato.jp" }, "geometry": { "type": "Point", "coordinates": [ 141.346711499999969, 39.3805009 ] } },
{ "type": "Feature", "properties": { "内容": "介護老人保健施設とおの【介護老人保健施設】岩手県遠野市松崎町白岩１３－３０－２", "url": "https://www.kaigokensaku.mhlw.go.jp/03/index.php?action_kouhyou_detail_004_kani=true&JigyosyoCd=0350880019-00&ServiceCd=520&Type=search", "url2": "https://www.roukentono.com/top" }, "geometry": { "type": "Point", "coordinates": [ 141.5410386, 39.3437294 ] } },
{ "type": "Feature", "properties": { "内容": "介護老人保健施設華松苑【介護老人保健施設】岩手県一関市花泉町涌津字悪法師３８－３１", "url": "https://www.kaigokensaku.mhlw.go.jp/03/index.php?action_kouhyou_detail_004_kani=true&JigyosyoCd=0352680011-00&ServiceCd=520&Type=search", "url2": null }, "geometry": { "type": "Point", "coordinates": [ 141.1909968, 38.800511 ] } },
{ "type": "Feature", "properties": { "内容": "介護老人保健施設さいき【介護老人保健施設】岩手県一関市東山町松川字卯入道１２１", "url": "https://www.kaigokensaku.mhlw.go.jp/03/index.php?action_kouhyou_detail_004_kani=true&JigyosyoCd=0350910518-00&ServiceCd=520&Type=search", "url2": null }, "geometry": { "type": "Point", "coordinates": [ 141.24936839999998, 38.961580600000019 ] } },
{ "type": "Feature", "properties": { "内容": "介護老人保健施設ほうらい【介護老人保健施設】岩手県一関市大東町渋民字大洞地５５－１", "url": "https://www.kaigokensaku.mhlw.go.jp/03/index.php?action_kouhyou_detail_004_kani=true&JigyosyoCd=0352780035-00&ServiceCd=520&Type=search", "url2": "https://www.hourai-kaigo.com" }, "geometry": { "type": "Point", "coordinates": [ 141.338896400000067, 39.020970800000015 ] } },
{ "type": "Feature", "properties": { "内容": "老健ふじさわ【介護老人保健施設】岩手県一関市藤沢町藤沢字町裏５２番地２", "url": "https://www.kaigokensaku.mhlw.go.jp/03/index.php?action_kouhyou_detail_004_kani=true&JigyosyoCd=0350980033-00&ServiceCd=520&Type=search", "url2": "https://fmhe.net/segment/roken/" }, "geometry": { "type": "Point", "coordinates": [ 141.349916900000039, 38.8586455 ] } },
{ "type": "Feature", "properties": { "内容": "介護老人保健施設やまゆり【介護老人保健施設】岩手県一関市千厩町千厩字宮敷４５番地１", "url": "https://www.kaigokensaku.mhlw.go.jp/03/index.php?action_kouhyou_detail_004_kani=true&JigyosyoCd=0372700658-00&ServiceCd=520&Type=search", "url2": "http://i3syukai.com" }, "geometry": { "type": "Point", "coordinates": [ 141.339411599999949, 38.9230737 ] } },
{ "type": "Feature", "properties": { "内容": "介護老人保健施設シルバーヘルス一関【介護老人保健施設】岩手県一関市字沢298番地2", "url": "https://www.kaigokensaku.mhlw.go.jp/03/index.php?action_kouhyou_detail_004_kani=true&JigyosyoCd=0350980025-00&ServiceCd=520&Type=search", "url2": null }, "geometry": { "type": "Point", "coordinates": [ 141.1517103, 38.902228200000025 ] } },
{ "type": "Feature", "properties": { "内容": "介護老人保健施設一関ナーシングホーム【介護老人保健施設】岩手県一関市真柴字吉ケ沢20番地52", "url": "https://www.kaigokensaku.mhlw.go.jp/03/index.php?action_kouhyou_detail_004_kani=true&JigyosyoCd=0350980017-00&ServiceCd=520&Type=search", "url2": "https://jinaikai-nursing.jp/service" }, "geometry": { "type": "Point", "coordinates": [ 141.138317700000016, 38.8812192 ] } },
{ "type": "Feature", "properties": { "内容": "介護老人保健施設松原苑【介護老人保健施設】岩手県陸前高田市高田町字中田69-2", "url": "https://www.kaigokensaku.mhlw.go.jp/03/index.php?action_kouhyou_detail_004_kani=true&JigyosyoCd=0351080007-00&ServiceCd=520&Type=search", "url2": "http://www.shokyukai.or.jp/" }, "geometry": { "type": "Point", "coordinates": [ 141.648759499999983, 39.0147213 ] } },
{ "type": "Feature", "properties": { "内容": "介護老人保健施設はまゆりケアセンター【介護老人保健施設】岩手県釜石市小佐野町4丁目3-7", "url": "https://www.kaigokensaku.mhlw.go.jp/03/index.php?action_kouhyou_detail_004_kani=true&JigyosyoCd=0351180013-00&ServiceCd=520&Type=search", "url2": "http://www.rakuzankai.jp/" }, "geometry": { "type": "Point", "coordinates": [ 141.83584350000001, 39.2617334 ] } },
{ "type": "Feature", "properties": { "内容": "介護老人保健施設フレールはまゆり【介護老人保健施設】岩手県釜石市小佐野町３丁目９番１号", "url": "https://www.kaigokensaku.mhlw.go.jp/03/index.php?action_kouhyou_detail_004_kani=true&JigyosyoCd=0351180021-00&ServiceCd=520&Type=search", "url2": "http://www.rakuzankai.jp/" }, "geometry": { "type": "Point", "coordinates": [ 141.837871100000029, 39.2621334 ] } },
{ "type": "Feature", "properties": { "内容": "湯の里にのへ【介護老人保健施設】岩手県二戸市金田一字湯田24番地", "url": "https://www.kaigokensaku.mhlw.go.jp/03/index.php?action_kouhyou_detail_004_kani=true&JigyosyoCd=0351380019-00&ServiceCd=520&Type=search", "url2": "http://www.reitakukai.net/" }, "geometry": { "type": "Point", "coordinates": [ 141.320321, 40.3205541 ] } },
{ "type": "Feature", "properties": { "内容": "介護老人保健施設希望（のぞみ）【介護老人保健施設】岩手県八幡平市柏台二丁目８番３号", "url": "https://www.kaigokensaku.mhlw.go.jp/03/index.php?action_kouhyou_detail_004_kani=true&JigyosyoCd=0351480017-00&ServiceCd=520&Type=search", "url2": "http://www.mairin.jp/" }, "geometry": { "type": "Point", "coordinates": [ 140.981943523278801, 39.915405493445718 ] } },
{ "type": "Feature", "properties": { "内容": "介護老人保健施設岩鷲苑【介護老人保健施設】岩手県八幡平市大更18地割88番地102", "url": "https://www.kaigokensaku.mhlw.go.jp/03/index.php?action_kouhyou_detail_004_kani=true&JigyosyoCd=0352180079-00&ServiceCd=520&Type=search", "url2": null }, "geometry": { "type": "Point", "coordinates": [ 141.092642699999942, 39.8981091 ] } },
{ "type": "Feature", "properties": { "内容": "介護老人保健施設あしろ苑【介護老人保健施設】岩手県八幡平市川原１２９番", "url": "https://www.kaigokensaku.mhlw.go.jp/03/index.php?action_kouhyou_detail_004_kani=true&JigyosyoCd=0353280001-00&ServiceCd=520&Type=search", "url2": "http://www.syouseikai.jp/" }, "geometry": { "type": "Point", "coordinates": [ 141.058045, 40.1136471 ] } },
{ "type": "Feature", "properties": { "内容": "介護老人保健施設清和苑【介護老人保健施設】岩手県奥州市水沢東大通り1丁目5番30号", "url": "https://www.kaigokensaku.mhlw.go.jp/03/index.php?action_kouhyou_detail_004_kani=true&JigyosyoCd=0350480018-00&ServiceCd=520&Type=search", "url2": "https://www.seiwakai-med.or.jp" }, "geometry": { "type": "Point", "coordinates": [ 141.148079300000063, 39.1398322 ] } },
{ "type": "Feature", "properties": { "内容": "水沢老人保健施設興生園【介護老人保健施設】岩手県奥州市水沢佐倉河字慶徳27番地１", "url": "https://www.kaigokensaku.mhlw.go.jp/03/index.php?action_kouhyou_detail_004_kani=true&JigyosyoCd=0350410329-00&ServiceCd=520&Type=search", "url2": "http://www.rnac.ne.jp/~otomegawahp/" }, "geometry": { "type": "Point", "coordinates": [ 141.148662713600146, 39.14357305881132 ] } },
{ "type": "Feature", "properties": { "内容": "老人保健施設ハイム・ベルク【介護老人保健施設】岩手県奥州市水沢羽田町字水無沢４９６番地", "url": "https://www.kaigokensaku.mhlw.go.jp/03/index.php?action_kouhyou_detail_004_kani=true&JigyosyoCd=0350480034-00&ServiceCd=520&Type=search", "url2": "http://www.kihp.jp/" }, "geometry": { "type": "Point", "coordinates": [ 141.211265599999933, 39.129137900000011 ] } },
{ "type": "Feature", "properties": { "内容": "介護老人保健施設サンライフえさし【介護老人保健施設】岩手県奥州市江刺岩谷堂字下惣田２９０番地の３", "url": "https://www.kaigokensaku.mhlw.go.jp/03/index.php?action_kouhyou_detail_004_kani=true&JigyosyoCd=0351280003-00&ServiceCd=520&Type=search", "url2": "https://sg-seijukai.com/sunlife-esashi/" }, "geometry": { "type": "Point", "coordinates": [ 141.182063800000037, 39.1813143 ] } },
{ "type": "Feature", "properties": { "内容": "老人保健施設ハイム・アザレア【介護老人保健施設】岩手県奥州市前沢古城字丑沢上野１００番地", "url": "https://www.kaigokensaku.mhlw.go.jp/03/index.php?action_kouhyou_detail_004_kani=true&JigyosyoCd=0352580005-00&ServiceCd=520&Type=search", "url2": null }, "geometry": { "type": "Point", "coordinates": [ 141.12720539999998, 39.070716599999983 ] } },
{ "type": "Feature", "properties": { "内容": "介護老人保健施設ホスピー滝沢【介護老人保健施設】岩手県滝沢市鵜飼狐洞1番地139", "url": "https://www.kaigokensaku.mhlw.go.jp/03/index.php?action_kouhyou_detail_004_kani=true&JigyosyoCd=0352180020-00&ServiceCd=520&Type=search", "url2": "http://syouseikai.jp" }, "geometry": { "type": "Point", "coordinates": [ 141.087891500000069, 39.7370505 ] } },
{ "type": "Feature", "properties": { "内容": "介護老人保健施設カルモナ【介護老人保健施設】岩手県滝沢市高屋敷平11-39", "url": "https://www.kaigokensaku.mhlw.go.jp/03/index.php?action_kouhyou_detail_004_kani=true&JigyosyoCd=0352180038-00&ServiceCd=520&Type=search", "url2": "https://care-net.biz/03/karumona/" }, "geometry": { "type": "Point", "coordinates": [ 141.091799199999969, 39.7481465 ] } },
{ "type": "Feature", "properties": { "内容": "介護老人保健施設はーとぽーと雫石【介護老人保健施設】岩手県岩手郡雫石町板橋3-7", "url": "https://www.kaigokensaku.mhlw.go.jp/03/index.php?action_kouhyou_detail_004_kani=true&JigyosyoCd=0352180046-00&ServiceCd=520&Type=search", "url2": null }, "geometry": { "type": "Point", "coordinates": [ 141.019636699999978, 39.7018823 ] } },
{ "type": "Feature", "properties": { "内容": "介護老人保健施設はーとぽーと雫石２号館【介護老人保健施設】岩手県岩手郡雫石町板橋３－７", "url": "https://www.kaigokensaku.mhlw.go.jp/03/index.php?action_kouhyou_detail_004_kani=true&JigyosyoCd=0372101907-00&ServiceCd=520&Type=search", "url2": null }, "geometry": { "type": "Point", "coordinates": [ 141.019636699999978, 39.7018823 ] } },
{ "type": "Feature", "properties": { "内容": "介護老人保健施設おうしゅく【介護老人保健施設】岩手県岩手郡雫石町南畑第32地割字南桝沢265番地", "url": "https://www.kaigokensaku.mhlw.go.jp/03/index.php?action_kouhyou_detail_004_kani=true&JigyosyoCd=0352180087-00&ServiceCd=520&Type=search", "url2": "http://www.ohshuku.or.jp" }, "geometry": { "type": "Point", "coordinates": [ 140.950902, 39.6481616 ] } },
{ "type": "Feature", "properties": { "内容": "介護老人保健施設アットホームくずまき【介護老人保健施設】岩手県岩手郡葛巻町江刈5-155-7", "url": "https://www.kaigokensaku.mhlw.go.jp/03/index.php?action_kouhyou_detail_004_kani=true&JigyosyoCd=0352180004-00&ServiceCd=520&Type=search", "url2": "http://www.athome-kuzumaki.or.jp" }, "geometry": { "type": "Point", "coordinates": [ 141.461494499999958, 40.0336446 ] } },
{ "type": "Feature", "properties": { "内容": "介護老人保健施設ケアホーム川口【介護老人保健施設】岩手県岩手郡岩手町大字川口第13地割26番地6", "url": "https://www.kaigokensaku.mhlw.go.jp/03/index.php?action_kouhyou_detail_004_kani=true&JigyosyoCd=0352180061-00&ServiceCd=520&Type=search", "url2": "http://nisshindo-g.com/" }, "geometry": { "type": "Point", "coordinates": [ 141.203514199999972, 39.9135773 ] } },
{ "type": "Feature", "properties": { "内容": "介護老人保健施設敬愛荘【介護老人保健施設】岩手県紫波郡矢巾町大字広宮沢第1地割2番181", "url": "https://www.kaigokensaku.mhlw.go.jp/03/index.php?action_kouhyou_detail_004_kani=true&JigyosyoCd=0352280010-00&ServiceCd=520&Type=search", "url2": "https://kikodo.or.jp" }, "geometry": { "type": "Point", "coordinates": [ 141.086860399999978, 39.6220545 ] } },
{ "type": "Feature", "properties": { "内容": "介護老人保健施設博愛荘【介護老人保健施設】岩手県紫波郡矢巾町又兵エ新田第５地割３３５番地医療福祉多機能ビル　ケアセンター南昌", "url": "https://www.kaigokensaku.mhlw.go.jp/03/index.php?action_kouhyou_detail_004_kani=true&JigyosyoCd=0372200816-00&ServiceCd=520&Type=search", "url2": "http://www.ccnansyou.com/" }, "geometry": { "type": "Point", "coordinates": [ 141.146978600000011, 39.6133917 ] } },
{ "type": "Feature", "properties": { "内容": "介護老人保健施設シェーンハイムやはば【介護老人保健施設】岩手県紫波郡矢巾町土橋第11地割35-1", "url": "https://www.kaigokensaku.mhlw.go.jp/03/index.php?action_kouhyou_detail_004_kani=true&JigyosyoCd=0372201004-00&ServiceCd=520&Type=search", "url2": "http://www.s-souseikai.jp" }, "geometry": { "type": "Point", "coordinates": [ 141.172142300000019, 39.5831119 ] } },
{ "type": "Feature", "properties": { "内容": "介護老人保健施設清水苑【介護老人保健施設】岩手県和賀郡西和賀町清水ヶ野18地割167番地1", "url": "https://www.kaigokensaku.mhlw.go.jp/03/index.php?action_kouhyou_detail_004_kani=true&JigyosyoCd=0352410040-00&ServiceCd=520&Type=search", "url2": "https://www.kouseikai2.jp/" }, "geometry": { "type": "Point", "coordinates": [ 140.762761100000034, 39.3591657 ] } },
{ "type": "Feature", "properties": { "内容": "介護老人保健施設快老苑金ヶ崎【介護老人保健施設】岩手県胆沢郡金ヶ崎町西根鑓水１０３－１", "url": "https://www.kaigokensaku.mhlw.go.jp/03/index.php?action_kouhyou_detail_004_kani=true&JigyosyoCd=0352580013-00&ServiceCd=520&Type=search", "url2": "https://kairouen.jp/" }, "geometry": { "type": "Point", "coordinates": [ 141.11116370000002, 39.1947671 ] } },
{ "type": "Feature", "properties": { "内容": "介護老人保健施設さわなり苑【介護老人保健施設】岩手県西磐井郡平泉町長島字砂子沢６番１", "url": "https://www.kaigokensaku.mhlw.go.jp/03/index.php?action_kouhyou_detail_004_kani=true&JigyosyoCd=0352680003-00&ServiceCd=520&Type=search", "url2": "https://i3syukai.com" }, "geometry": { "type": "Point", "coordinates": [ 141.145296700000017, 38.9960844 ] } },
{ "type": "Feature", "properties": { "内容": "介護老人保健施設ケアプラザおおつち【介護老人保健施設】岩手県上閉伊郡大槌町小鎚第14地割字蕨打直82番1", "url": "https://www.kaigokensaku.mhlw.go.jp/03/index.php?action_kouhyou_detail_004_kani=true&JigyosyoCd=0352980007-00&ServiceCd=520&Type=search", "url2": "http://careplazaotsuchi.webnode.jp" }, "geometry": { "type": "Point", "coordinates": [ 141.845225277695448, 39.379437424477601 ] } },
{ "type": "Feature", "properties": { "内容": "介護老人保健施設さくら山【介護老人保健施設】岩手県下閉伊郡山田町飯岡9-23-1", "url": "https://www.kaigokensaku.mhlw.go.jp/03/index.php?action_kouhyou_detail_004_kani=true&JigyosyoCd=0373000934-00&ServiceCd=520&Type=search", "url2": null }, "geometry": { "type": "Point", "coordinates": [ 141.945942626875279, 39.466417334513032 ] } },
{ "type": "Feature", "properties": { "内容": "介護老人保健施設ふれんどりー岩泉【介護老人保健施設】岩手県下閉伊郡岩泉町乙茂字上９番地１２", "url": "https://www.kaigokensaku.mhlw.go.jp/03/index.php?action_kouhyou_detail_004_kani=true&JigyosyoCd=0353080026-00&ServiceCd=520&Type=search", "url2": "https://www.f-iwaizumi.com/" }, "geometry": { "type": "Point", "coordinates": [ 141.858892400000059, 39.8400444 ] } },
{ "type": "Feature", "properties": { "内容": "介護老人保健施設花の里かるまい【介護老人保健施設】岩手県九戸郡軽米町大字軽米第6地割89番地1", "url": "https://www.kaigokensaku.mhlw.go.jp/03/index.php?action_kouhyou_detail_004_kani=true&JigyosyoCd=0353180011-00&ServiceCd=520&Type=search", "url2": "http://www.reitakukai.net/" }, "geometry": { "type": "Point", "coordinates": [ 141.458119399999987, 40.3150302 ] } },
{ "type": "Feature", "properties": { "内容": "介護老人保健施設ユートピア白滝【介護老人保健施設】岩手県九戸郡洋野町中野第３地割３８－１８２", "url": "https://www.kaigokensaku.mhlw.go.jp/03/index.php?action_kouhyou_detail_004_kani=true&JigyosyoCd=0353180003-00&ServiceCd=520&Type=search", "url2": null }, "geometry": { "type": "Point", "coordinates": [ 141.7818264, 40.3065066 ] } },
{ "type": "Feature", "properties": { "内容": "介護療養型老人保健施設たねいち【介護老人保健施設】岩手県九戸郡洋野町種市第23地割27番地2", "url": "https://www.kaigokensaku.mhlw.go.jp/03/index.php?action_kouhyou_detail_004_kani=true&JigyosyoCd=0353180029-00&ServiceCd=520&Type=search", "url2": null }, "geometry": { "type": "Point", "coordinates": [ 141.718873979098504, 40.410544957413208 ] } },
{ "type": "Feature", "properties": { "内容": "介護老人保健施設こずやサンブルク【介護老人保健施設】岩手県二戸郡一戸町小鳥谷字野中２１", "url": "https://www.kaigokensaku.mhlw.go.jp/03/index.php?action_kouhyou_detail_004_kani=true&JigyosyoCd=0353280019-00&ServiceCd=520&Type=search", "url2": "https://kozuya-sunburg.jp/" }, "geometry": { "type": "Point", "coordinates": [ 141.305057300000044, 40.1813898 ] } }
]
}
