{
"type": "FeatureCollection",
"name": "geo_03_小規模多機能型居宅介護",
"crs": { "type": "name", "properties": { "name": "urn:ogc:def:crs:OGC:1.3:CRS84" } },
"features": [
{ "type": "Feature", "properties": { "内容": "サテライト型小規模多機能施設たかまつ【小規模多機能型居宅介護】岩手県盛岡市高松４丁目３番６号", "url2": "https://www.kaigokensaku.mhlw.go.jp/03/index.php?action_kouhyou_detail_004_kani=true&JigyosyoCd=0390100899-00&ServiceCd=730&Type=search" }, "geometry": { "type": "Point", "coordinates": [ 141.136615299999988, 39.7266852 ] } },
{ "type": "Feature", "properties": { "内容": "小規模多機能型居宅介護あい長橋町【小規模多機能型居宅介護】岩手県盛岡市長橋町17-35", "url2": "https://www.kaigokensaku.mhlw.go.jp/03/index.php?action_kouhyou_detail_004_kani=true&JigyosyoCd=0390100550-00&ServiceCd=730&Type=search" }, "geometry": { "type": "Point", "coordinates": [ 141.102949099999933, 39.7168334 ] } },
{ "type": "Feature", "properties": { "内容": "小規模多機能型「なごみ館」向中野【小規模多機能型居宅介護】岩手県盛岡市向中野５丁目23-27小規模多機能型「なごみ館」向中野", "url2": "https://www.kaigokensaku.mhlw.go.jp/03/index.php?action_kouhyou_detail_004_kani=true&JigyosyoCd=0390100824-00&ServiceCd=730&Type=search" }, "geometry": { "type": "Point", "coordinates": [ 141.1411977, 39.6776978 ] } },
{ "type": "Feature", "properties": { "内容": "小規模多機能ホームふきのとう小鳥沢【小規模多機能型居宅介護】岩手県盛岡市小鳥沢一丁目31番10号小規模多機能ホームふきのとう小鳥沢", "url2": "https://www.kaigokensaku.mhlw.go.jp/03/index.php?action_kouhyou_detail_004_kani=true&JigyosyoCd=0390100428-00&ServiceCd=730&Type=search" }, "geometry": { "type": "Point", "coordinates": [ 141.163936211045097, 39.763081476394945 ] } },
{ "type": "Feature", "properties": { "内容": "小規模多機能型居宅介護施設与願寿【小規模多機能型居宅介護】岩手県盛岡市北山１丁目１６番１５号", "url2": "https://www.kaigokensaku.mhlw.go.jp/03/index.php?action_kouhyou_detail_004_kani=true&JigyosyoCd=0390100337-00&ServiceCd=730&Type=search" }, "geometry": { "type": "Point", "coordinates": [ 141.150453842991624, 39.715706486173495 ] } },
{ "type": "Feature", "properties": { "内容": "あお空小規模多機能センター手代森【小規模多機能型居宅介護】岩手県盛岡市手代森１４地割１６－４５５", "url2": "https://www.kaigokensaku.mhlw.go.jp/03/index.php?action_kouhyou_detail_004_kani=true&JigyosyoCd=0390100212-00&ServiceCd=730&Type=search" }, "geometry": { "type": "Point", "coordinates": [ 141.183444099999946, 39.6567111 ] } },
{ "type": "Feature", "properties": { "内容": "小規模多機能ホームやちだもの家青山駅前【小規模多機能型居宅介護】岩手県盛岡市上堂二丁目３番１３号ケアタウンやちだもの家青山駅前A棟", "url2": "https://www.kaigokensaku.mhlw.go.jp/03/index.php?action_kouhyou_detail_004_kani=true&JigyosyoCd=0390100295-00&ServiceCd=730&Type=search" }, "geometry": { "type": "Point", "coordinates": [ 141.120765570569546, 39.725613486727639 ] } },
{ "type": "Feature", "properties": { "内容": "小規模多機能ホームやちだもの家つつじが丘【小規模多機能型居宅介護】岩手県盛岡市つつじが丘15-38", "url2": "https://www.kaigokensaku.mhlw.go.jp/03/index.php?action_kouhyou_detail_004_kani=true&JigyosyoCd=0390100519-00&ServiceCd=730&Type=search" }, "geometry": { "type": "Point", "coordinates": [ 141.1796286, 39.7090001 ] } },
{ "type": "Feature", "properties": { "内容": "小規模多機能ホームやちだもの家加賀野【小規模多機能型居宅介護】岩手県盛岡市加賀野1丁目18-5", "url2": "https://www.kaigokensaku.mhlw.go.jp/03/index.php?action_kouhyou_detail_004_kani=true&JigyosyoCd=0390100618-00&ServiceCd=730&Type=search" }, "geometry": { "type": "Point", "coordinates": [ 141.1635119, 39.7062282 ] } },
{ "type": "Feature", "properties": { "内容": "小規模多機能型居宅介護事業所あすなろ【小規模多機能型居宅介護】岩手県宮古市茂市第１地割１１５番地１", "url2": "https://www.kaigokensaku.mhlw.go.jp/03/index.php?action_kouhyou_detail_004_kani=true&JigyosyoCd=0390200095-00&ServiceCd=730&Type=search" }, "geometry": { "type": "Point", "coordinates": [ 141.787545248241855, 39.628598112264832 ] } },
{ "type": "Feature", "properties": { "内容": "かのん小規模多機能センター【小規模多機能型居宅介護】岩手県宮古市実田一丁目７番２８号", "url2": "https://www.kaigokensaku.mhlw.go.jp/03/index.php?action_kouhyou_detail_004_kani=true&JigyosyoCd=0390200038-00&ServiceCd=730&Type=search" }, "geometry": { "type": "Point", "coordinates": [ 141.954945599999974, 39.6251138 ] } },
{ "type": "Feature", "properties": { "内容": "小規模多機能ホームあすも【小規模多機能型居宅介護】岩手県宮古市田の神二丁目4番28号", "url2": "https://www.kaigokensaku.mhlw.go.jp/03/index.php?action_kouhyou_detail_004_kani=true&JigyosyoCd=0390200285-00&ServiceCd=730&Type=search" }, "geometry": { "type": "Point", "coordinates": [ 141.93798849999996, 39.6480577 ] } },
{ "type": "Feature", "properties": { "内容": "介護多機能ホームあすも【小規模多機能型居宅介護】岩手県宮古市大通三丁目6番51号", "url2": "https://www.kaigokensaku.mhlw.go.jp/03/index.php?action_kouhyou_detail_004_kani=true&JigyosyoCd=0390200384-00&ServiceCd=730&Type=search" }, "geometry": { "type": "Point", "coordinates": [ 141.9495518, 39.6404085 ] } },
{ "type": "Feature", "properties": { "内容": "おもえ小規模多機能支援センター【小規模多機能型居宅介護】岩手県宮古市重茂1-35-1", "url2": "https://www.kaigokensaku.mhlw.go.jp/03/index.php?action_kouhyou_detail_004_kani=true&JigyosyoCd=0390200087-00&ServiceCd=730&Type=search" }, "geometry": { "type": "Point", "coordinates": [ 142.022283600000037, 39.5801462 ] } },
{ "type": "Feature", "properties": { "内容": "小規模多機能センターさくらつつみ【小規模多機能型居宅介護】岩手県宮古市田鎖第５地割３３－４", "url2": "https://www.kaigokensaku.mhlw.go.jp/03/index.php?action_kouhyou_detail_004_kani=true&JigyosyoCd=0390200145-00&ServiceCd=730&Type=search" }, "geometry": { "type": "Point", "coordinates": [ 141.906639499999983, 39.6177326 ] } },
{ "type": "Feature", "properties": { "内容": "小規模多機能ホーム「綾の里」【小規模多機能型居宅介護】岩手県大船渡市三陸町綾里字清水125番地2", "url2": "https://www.kaigokensaku.mhlw.go.jp/03/index.php?action_kouhyou_detail_004_kani=true&JigyosyoCd=0390300127-00&ServiceCd=730&Type=search" }, "geometry": { "type": "Point", "coordinates": [ 141.797115482417325, 39.05464003308888 ] } },
{ "type": "Feature", "properties": { "内容": "小規模多機能型居宅介護施設ひころいちの郷【小規模多機能型居宅介護】岩手県大船渡市日頃市町字上宿17-4ひころいちの郷", "url2": "https://www.kaigokensaku.mhlw.go.jp/03/index.php?action_kouhyou_detail_004_kani=true&JigyosyoCd=0390300143-00&ServiceCd=730&Type=search" }, "geometry": { "type": "Point", "coordinates": [ 141.681011630896847, 39.129812732325057 ] } },
{ "type": "Feature", "properties": { "内容": "小規模多機能ホーム「ひまわり」【小規模多機能型居宅介護】岩手県大船渡市大船渡町字山馬越196番地", "url2": "https://www.kaigokensaku.mhlw.go.jp/03/index.php?action_kouhyou_detail_004_kani=true&JigyosyoCd=0390300218-00&ServiceCd=730&Type=search" }, "geometry": { "type": "Point", "coordinates": [ 141.7113478, 39.0706142 ] } },
{ "type": "Feature", "properties": { "内容": "多機能ホームさんりく【小規模多機能型居宅介護】岩手県大船渡市三陸町越喜来字所通９１番地", "url2": "https://www.kaigokensaku.mhlw.go.jp/03/index.php?action_kouhyou_detail_004_kani=true&JigyosyoCd=0390300036-00&ServiceCd=730&Type=search" }, "geometry": { "type": "Point", "coordinates": [ 141.806373470686367, 39.124935290249752 ] } },
{ "type": "Feature", "properties": { "内容": "小規模多機能ホーム「後ノ入」【小規模多機能型居宅介護】岩手県大船渡市赤崎町字後ノ入73番地3", "url2": "https://www.kaigokensaku.mhlw.go.jp/03/index.php?action_kouhyou_detail_004_kani=true&JigyosyoCd=0390300028-00&ServiceCd=730&Type=search" }, "geometry": { "type": "Point", "coordinates": [ 141.746641, 39.0770862 ] } },
{ "type": "Feature", "properties": { "内容": "小規模多機能ホーム「平」【小規模多機能型居宅介護】岩手県大船渡市大船渡町字下平24-1", "url2": "https://www.kaigokensaku.mhlw.go.jp/03/index.php?action_kouhyou_detail_004_kani=true&JigyosyoCd=0390300069-00&ServiceCd=730&Type=search" }, "geometry": { "type": "Point", "coordinates": [ 141.717324700000063, 39.0428422 ] } },
{ "type": "Feature", "properties": { "内容": "小規模多機能ホーム「つばきの丘」【小規模多機能型居宅介護】岩手県大船渡市末崎町字中野157-1", "url2": "https://www.kaigokensaku.mhlw.go.jp/03/index.php?action_kouhyou_detail_004_kani=true&JigyosyoCd=0390300101-00&ServiceCd=730&Type=search" }, "geometry": { "type": "Point", "coordinates": [ 141.708401500000036, 39.0107624 ] } },
{ "type": "Feature", "properties": { "内容": "小規模多機能ホーム「森と海のまなびやよしはま」【小規模多機能型居宅介護】岩手県大船渡市三陸町吉浜字扇洞７", "url2": "https://www.kaigokensaku.mhlw.go.jp/03/index.php?action_kouhyou_detail_004_kani=true&JigyosyoCd=0390300184-00&ServiceCd=730&Type=search" }, "geometry": { "type": "Point", "coordinates": [ 141.843221, 39.1557545 ] } },
{ "type": "Feature", "properties": { "内容": "小規模多機能型居宅介護ぽっかぽか花巻西【小規模多機能型居宅介護】岩手県花巻市大畑１－６２－４", "url2": "https://www.kaigokensaku.mhlw.go.jp/03/index.php?action_kouhyou_detail_004_kani=true&JigyosyoCd=0390500072-00&ServiceCd=730&Type=search" }, "geometry": { "type": "Point", "coordinates": [ 141.076536499999946, 39.4497142 ] } },
{ "type": "Feature", "properties": { "内容": "小規模多機能ホームほしめぐり【小規模多機能型居宅介護】岩手県花巻市石鳥谷町好地第14地割9番地3", "url2": "https://www.kaigokensaku.mhlw.go.jp/03/index.php?action_kouhyou_detail_004_kani=true&JigyosyoCd=0390500361-00&ServiceCd=730&Type=search" }, "geometry": { "type": "Point", "coordinates": [ 141.159934991926576, 39.503382799546735 ] } },
{ "type": "Feature", "properties": { "内容": "小規模多機能ホームいづな【小規模多機能型居宅介護】岩手県花巻市東和町土沢8区203", "url2": "https://www.kaigokensaku.mhlw.go.jp/03/index.php?action_kouhyou_detail_004_kani=true&JigyosyoCd=0390500197-00&ServiceCd=730&Type=search" }, "geometry": { "type": "Point", "coordinates": [ 141.233217426597548, 39.383567310273754 ] } },
{ "type": "Feature", "properties": { "内容": "なごみホームうきた【小規模多機能型居宅介護】岩手県花巻市東和町下浮田1区136番地", "url2": "https://www.kaigokensaku.mhlw.go.jp/03/index.php?action_kouhyou_detail_004_kani=true&JigyosyoCd=0390500213-00&ServiceCd=730&Type=search" }, "geometry": { "type": "Point", "coordinates": [ 141.237998100000027, 39.335404 ] } },
{ "type": "Feature", "properties": { "内容": "小規模多機能ホームうえのまち【小規模多機能型居宅介護】岩手県北上市上野町一丁目7-1", "url2": "https://www.kaigokensaku.mhlw.go.jp/03/index.php?action_kouhyou_detail_004_kani=true&JigyosyoCd=0390600054-00&ServiceCd=730&Type=search" }, "geometry": { "type": "Point", "coordinates": [ 141.125497799999948, 39.296766400000017 ] } },
{ "type": "Feature", "properties": { "内容": "小規模多機能ホームおにやなぎ【小規模多機能型居宅介護】岩手県北上市鬼柳町新井田45小規模多機能ホームおにやなぎ", "url2": "https://www.kaigokensaku.mhlw.go.jp/03/index.php?action_kouhyou_detail_004_kani=true&JigyosyoCd=0390600278-00&ServiceCd=730&Type=search" }, "geometry": { "type": "Point", "coordinates": [ 141.0811688, 39.2787064 ] } },
{ "type": "Feature", "properties": { "内容": "小規模多機能ホームわが家【小規模多機能型居宅介護】岩手県北上市和賀町煤孫１０－１４－５", "url2": "https://www.kaigokensaku.mhlw.go.jp/03/index.php?action_kouhyou_detail_004_kani=true&JigyosyoCd=0390600021-00&ServiceCd=730&Type=search" }, "geometry": { "type": "Point", "coordinates": [ 141.000508299999979, 39.2894554 ] } },
{ "type": "Feature", "properties": { "内容": "JAいわて花巻小規模多機能ホームえんで【小規模多機能型居宅介護】岩手県北上市飯豊22地割45番地1", "url2": "https://www.kaigokensaku.mhlw.go.jp/03/index.php?action_kouhyou_detail_004_kani=true&JigyosyoCd=0390600070-00&ServiceCd=730&Type=search" }, "geometry": { "type": "Point", "coordinates": [ 141.101284599999985, 39.3479718 ] } },
{ "type": "Feature", "properties": { "内容": "小規模多機能ホーム横川目【小規模多機能型居宅介護】岩手県北上市和賀町横川目11地割161番地1", "url2": "https://www.kaigokensaku.mhlw.go.jp/03/index.php?action_kouhyou_detail_004_kani=true&JigyosyoCd=0390600302-00&ServiceCd=730&Type=search" }, "geometry": { "type": "Point", "coordinates": [ 140.977945699999964, 39.3066165 ] } },
{ "type": "Feature", "properties": { "内容": "小規模多機能型居宅介護しらかば園【小規模多機能型居宅介護】岩手県久慈市山形町川井10－55－1", "url2": "https://www.kaigokensaku.mhlw.go.jp/03/index.php?action_kouhyou_detail_004_kani=true&JigyosyoCd=0390700102-00&ServiceCd=730&Type=search" }, "geometry": { "type": "Point", "coordinates": [ 141.566053701474743, 40.144580347554722 ] } },
{ "type": "Feature", "properties": { "内容": "小規模多機能ホームひなたぼっこ【小規模多機能型居宅介護】岩手県久慈市栄町32地割37番地９", "url2": "https://www.kaigokensaku.mhlw.go.jp/03/index.php?action_kouhyou_detail_004_kani=true&JigyosyoCd=0390700037-00&ServiceCd=730&Type=search" }, "geometry": { "type": "Point", "coordinates": [ 141.759485899999959, 40.1956014 ] } },
{ "type": "Feature", "properties": { "内容": "小規模多機能ホームあさひ【小規模多機能型居宅介護】岩手県久慈市旭町第10地割66番地1", "url2": "https://www.kaigokensaku.mhlw.go.jp/03/index.php?action_kouhyou_detail_004_kani=true&JigyosyoCd=0390700045-00&ServiceCd=730&Type=search" }, "geometry": { "type": "Point", "coordinates": [ 141.7789957, 40.1987205 ] } },
{ "type": "Feature", "properties": { "内容": "小規模多機能ホームときわ苑【小規模多機能型居宅介護】岩手県久慈市湊町第14地割103番地", "url2": "https://www.kaigokensaku.mhlw.go.jp/03/index.php?action_kouhyou_detail_004_kani=true&JigyosyoCd=0390700011-00&ServiceCd=730&Type=search" }, "geometry": { "type": "Point", "coordinates": [ 141.785345499999949, 40.198509400000013 ] } },
{ "type": "Feature", "properties": { "内容": "小規模多機能型居宅介護事業所長寿庵【小規模多機能型居宅介護】岩手県遠野市材木町２－２２", "url2": "https://www.kaigokensaku.mhlw.go.jp/03/index.php?action_kouhyou_detail_004_kani=true&JigyosyoCd=0390800027-00&ServiceCd=730&Type=search" }, "geometry": { "type": "Point", "coordinates": [ 141.53007249999996, 39.3335342 ] } },
{ "type": "Feature", "properties": { "内容": "あお空小規模多機能センター青笹【小規模多機能型居宅介護】岩手県遠野市青笹町青笹11地割3の11", "url2": "https://www.kaigokensaku.mhlw.go.jp/03/index.php?action_kouhyou_detail_004_kani=true&JigyosyoCd=0390800076-00&ServiceCd=730&Type=search" }, "geometry": { "type": "Point", "coordinates": [ 141.571643429534561, 39.319924928509515 ] } },
{ "type": "Feature", "properties": { "内容": "地域密着型サービス事業所柔（YAWARA）【小規模多機能型居宅介護】岩手県遠野市綾織町新里28-54-1", "url2": "https://www.kaigokensaku.mhlw.go.jp/03/index.php?action_kouhyou_detail_004_kani=true&JigyosyoCd=0390800100-00&ServiceCd=730&Type=search" }, "geometry": { "type": "Point", "coordinates": [ 141.480716499999971, 39.3313051 ] } },
{ "type": "Feature", "properties": { "内容": "クリニック小規模多機能型居宅介護【小規模多機能型居宅介護】岩手県一関市中央町二丁目４番２号", "url2": "https://www.kaigokensaku.mhlw.go.jp/03/index.php?action_kouhyou_detail_004_kani=true&JigyosyoCd=0390900314-00&ServiceCd=730&Type=search" }, "geometry": { "type": "Point", "coordinates": [ 141.12907789999997, 38.9372539 ] } },
{ "type": "Feature", "properties": { "内容": "あったかホームちゃごみ【小規模多機能型居宅介護】岩手県一関市赤荻字荻野330番地1", "url2": "https://www.kaigokensaku.mhlw.go.jp/03/index.php?action_kouhyou_detail_004_kani=true&JigyosyoCd=0390900017-00&ServiceCd=730&Type=search" }, "geometry": { "type": "Point", "coordinates": [ 141.0936745, 38.9364505 ] } },
{ "type": "Feature", "properties": { "内容": "ケアビレッジ一関ケアサービスステーション小規模多機能型居宅介護事業所【小規模多機能型居宅介護】岩手県一関市赤荻字月町176番地", "url2": "https://www.kaigokensaku.mhlw.go.jp/03/index.php?action_kouhyou_detail_004_kani=true&JigyosyoCd=0390900397-00&ServiceCd=730&Type=search" }, "geometry": { "type": "Point", "coordinates": [ 141.10199080000001, 38.9408433 ] } },
{ "type": "Feature", "properties": { "内容": "小規模多機能ホーム「厨」【小規模多機能型居宅介護】岩手県陸前高田市高田町字中田76番地1", "url2": "https://www.kaigokensaku.mhlw.go.jp/03/index.php?action_kouhyou_detail_004_kani=true&JigyosyoCd=0391000031-00&ServiceCd=730&Type=search" }, "geometry": { "type": "Point", "coordinates": [ 141.649658322090119, 39.017061311383095 ] } },
{ "type": "Feature", "properties": { "内容": "小規模多機能ホーム「小百合」【小規模多機能型居宅介護】岩手県陸前高田市小友町字谷地館５１", "url2": "https://www.kaigokensaku.mhlw.go.jp/03/index.php?action_kouhyou_detail_004_kani=true&JigyosyoCd=0391000049-00&ServiceCd=730&Type=search" }, "geometry": { "type": "Point", "coordinates": [ 141.710190900000043, 38.9873537 ] } },
{ "type": "Feature", "properties": { "内容": "小規模多機能ホーム玉山【小規模多機能型居宅介護】岩手県陸前高田市竹駒町字相川73-30", "url2": "https://www.kaigokensaku.mhlw.go.jp/03/index.php?action_kouhyou_detail_004_kani=true&JigyosyoCd=0391000056-00&ServiceCd=730&Type=search" }, "geometry": { "type": "Point", "coordinates": [ 141.621403, 39.033271 ] } },
{ "type": "Feature", "properties": { "内容": "なごみの家指定小規模多機能型居宅介護事業所【小規模多機能型居宅介護】岩手県陸前高田市高田町字中和野87番1", "url2": "https://www.kaigokensaku.mhlw.go.jp/03/index.php?action_kouhyou_detail_004_kani=true&JigyosyoCd=0391000106-00&ServiceCd=730&Type=search" }, "geometry": { "type": "Point", "coordinates": [ 141.636767489024351, 39.026137636979769 ] } },
{ "type": "Feature", "properties": { "内容": "小規模多機能センター善【小規模多機能型居宅介護】岩手県釜石市大字平田第３地割２９番地１０", "url2": "https://www.kaigokensaku.mhlw.go.jp/03/index.php?action_kouhyou_detail_004_kani=true&JigyosyoCd=0371100777-00&ServiceCd=730&Type=search" }, "geometry": { "type": "Point", "coordinates": [ 141.885695299999952, 39.2465751 ] } },
{ "type": "Feature", "properties": { "内容": "あお空小規模多機能センター釜石【小規模多機能型居宅介護】岩手県釜石市片岸町第2地割13-28", "url2": "https://www.kaigokensaku.mhlw.go.jp/03/index.php?action_kouhyou_detail_004_kani=true&JigyosyoCd=0391100039-00&ServiceCd=730&Type=search" }, "geometry": { "type": "Point", "coordinates": [ 141.8886817, 39.3349057 ] } },
{ "type": "Feature", "properties": { "内容": "小規模多機能型居宅まいにち館【小規模多機能型居宅介護】岩手県二戸市浄法寺町浄法寺84番地", "url2": "https://www.kaigokensaku.mhlw.go.jp/03/index.php?action_kouhyou_detail_004_kani=true&JigyosyoCd=0391300050-00&ServiceCd=730&Type=search" }, "geometry": { "type": "Point", "coordinates": [ 141.157834, 40.183375 ] } },
{ "type": "Feature", "properties": { "内容": "小規模多機能ホームくるまっこ【小規模多機能型居宅介護】岩手県八幡平市田頭12-94-1", "url2": "https://www.kaigokensaku.mhlw.go.jp/03/index.php?action_kouhyou_detail_004_kani=true&JigyosyoCd=0391400082-00&ServiceCd=730&Type=search" }, "geometry": { "type": "Point", "coordinates": [ 141.062507019573786, 39.927933723290131 ] } },
{ "type": "Feature", "properties": { "内容": "陽だまりの家平舘【小規模多機能型居宅介護】岩手県八幡平市堀切14地割49番地１", "url2": "https://www.kaigokensaku.mhlw.go.jp/03/index.php?action_kouhyou_detail_004_kani=true&JigyosyoCd=0391400033-00&ServiceCd=730&Type=search" }, "geometry": { "type": "Point", "coordinates": [ 141.098453065081827, 39.954211589424531 ] } },
{ "type": "Feature", "properties": { "内容": "小規模多機能ホームゆたか【小規模多機能型居宅介護】岩手県奥州市水沢秋葉町67番地2", "url2": "https://www.kaigokensaku.mhlw.go.jp/03/index.php?action_kouhyou_detail_004_kani=true&JigyosyoCd=0391500410-00&ServiceCd=730&Type=search" }, "geometry": { "type": "Point", "coordinates": [ 141.144604571827671, 39.150025979011446 ] } },
{ "type": "Feature", "properties": { "内容": "小規模多機能ホームゆたかみずさわ南【小規模多機能型居宅介護】岩手県奥州市水沢桜屋敷485番地", "url2": "https://www.kaigokensaku.mhlw.go.jp/03/index.php?action_kouhyou_detail_004_kani=true&JigyosyoCd=0391500469-00&ServiceCd=730&Type=search" }, "geometry": { "type": "Point", "coordinates": [ 141.1302001, 39.1238227 ] } },
{ "type": "Feature", "properties": { "内容": "小規模多機能型居宅あすも【小規模多機能型居宅介護】岩手県奥州市前沢字山下１４９－１", "url2": "https://www.kaigokensaku.mhlw.go.jp/03/index.php?action_kouhyou_detail_004_kani=true&JigyosyoCd=0391500071-00&ServiceCd=730&Type=search" }, "geometry": { "type": "Point", "coordinates": [ 141.125319900000022, 39.0630424 ] } },
{ "type": "Feature", "properties": { "内容": "奥州壱番館【小規模多機能型居宅介護】岩手県奥州市水沢字大町５７番地", "url2": "https://www.kaigokensaku.mhlw.go.jp/03/index.php?action_kouhyou_detail_004_kani=true&JigyosyoCd=0391500048-00&ServiceCd=730&Type=search" }, "geometry": { "type": "Point", "coordinates": [ 141.1412415767212, 39.141905470485341 ] } },
{ "type": "Feature", "properties": { "内容": "小規模多機能ホーム見分けの森【小規模多機能型居宅介護】岩手県奥州市胆沢小山字森下52番地23", "url2": "https://www.kaigokensaku.mhlw.go.jp/03/index.php?action_kouhyou_detail_004_kani=true&JigyosyoCd=0391500188-00&ServiceCd=730&Type=search" }, "geometry": { "type": "Point", "coordinates": [ 141.108689, 39.1194445 ] } },
{ "type": "Feature", "properties": { "内容": "小規模多機能ホームみんなの居場所「吉小路」【小規模多機能型居宅介護】岩手県奥州市水沢吉小路26番地8", "url2": "https://www.kaigokensaku.mhlw.go.jp/03/index.php?action_kouhyou_detail_004_kani=true&JigyosyoCd=0391500394-00&ServiceCd=730&Type=search" }, "geometry": { "type": "Point", "coordinates": [ 141.1371842, 39.1434257 ] } },
{ "type": "Feature", "properties": { "内容": "小規模多機能型居宅介護施設ベルヴェーレの里【小規模多機能型居宅介護】岩手県滝沢市大釜風林445番地1複合型福祉施設　ベルヴェーレの里", "url2": "https://www.kaigokensaku.mhlw.go.jp/03/index.php?action_kouhyou_detail_004_kani=true&JigyosyoCd=0391600012-00&ServiceCd=730&Type=search" }, "geometry": { "type": "Point", "coordinates": [ 141.021930500000053, 39.7153252 ] } },
{ "type": "Feature", "properties": { "内容": "小規模多機能型居宅介護事業所おはな【小規模多機能型居宅介護】岩手県滝沢市鵜飼狐洞1番地162松実会複合型福祉施設", "url2": "https://www.kaigokensaku.mhlw.go.jp/03/index.php?action_kouhyou_detail_004_kani=true&JigyosyoCd=0391600020-00&ServiceCd=730&Type=search" }, "geometry": { "type": "Point", "coordinates": [ 141.087712960188355, 39.736522366020679 ] } },
{ "type": "Feature", "properties": { "内容": "小規模多機能型居宅介護支援施設マイホームくずまき【小規模多機能型居宅介護】岩手県岩手郡葛巻町江刈5-59-5", "url2": "https://www.kaigokensaku.mhlw.go.jp/03/index.php?action_kouhyou_detail_004_kani=true&JigyosyoCd=0392100053-00&ServiceCd=730&Type=search" }, "geometry": { "type": "Point", "coordinates": [ 141.478575699999965, 40.0065484 ] } },
{ "type": "Feature", "properties": { "内容": "えんどり小規模多機能型居宅介護事業所【小規模多機能型居宅介護】岩手県紫波郡紫波町二日町字山子３６－２", "url2": "https://www.kaigokensaku.mhlw.go.jp/03/index.php?action_kouhyou_detail_004_kani=true&JigyosyoCd=0392200036-00&ServiceCd=730&Type=search" }, "geometry": { "type": "Point", "coordinates": [ 141.166587899999968, 39.5640835 ] } },
{ "type": "Feature", "properties": { "内容": "小規模多機能ホームひなたぼっこ【小規模多機能型居宅介護】岩手県和賀郡西和賀町上野々３９地割１８０番地", "url2": "https://www.kaigokensaku.mhlw.go.jp/03/index.php?action_kouhyou_detail_004_kani=true&JigyosyoCd=0392400032-00&ServiceCd=730&Type=search" }, "geometry": { "type": "Point", "coordinates": [ 140.776088699999946, 39.3126043 ] } },
{ "type": "Feature", "properties": { "内容": "介護ステーションゆいっこ小規模多機能ホーム【小規模多機能型居宅介護】岩手県和賀郡西和賀町沢内字新町４地割３２番地１", "url2": "https://www.kaigokensaku.mhlw.go.jp/03/index.php?action_kouhyou_detail_004_kani=true&JigyosyoCd=0392400024-00&ServiceCd=730&Type=search" }, "geometry": { "type": "Point", "coordinates": [ 140.756240012303124, 39.396443363826272 ] } },
{ "type": "Feature", "properties": { "内容": "小規模多機能ホーム雪つばきの里【小規模多機能型居宅介護】岩手県和賀郡西和賀町越中畑64-1-20", "url2": "https://www.kaigokensaku.mhlw.go.jp/03/index.php?action_kouhyou_detail_004_kani=true&JigyosyoCd=0392400057-00&ServiceCd=730&Type=search" }, "geometry": { "type": "Point", "coordinates": [ 140.728666048009046, 39.29692350440839 ] } },
{ "type": "Feature", "properties": { "内容": "交流ステーション友愛園【小規模多機能型居宅介護】岩手県胆沢郡金ヶ崎町西根矢来５番地", "url2": "https://www.kaigokensaku.mhlw.go.jp/03/index.php?action_kouhyou_detail_004_kani=true&JigyosyoCd=0392500047-00&ServiceCd=730&Type=search" }, "geometry": { "type": "Point", "coordinates": [ 141.1172378, 39.1988751 ] } },
{ "type": "Feature", "properties": { "内容": "介護予防施設西光荘【小規模多機能型居宅介護】岩手県胆沢郡金ケ崎町西根和光５４４番地２", "url2": "https://www.kaigokensaku.mhlw.go.jp/03/index.php?action_kouhyou_detail_004_kani=true&JigyosyoCd=0392500039-00&ServiceCd=730&Type=search" }, "geometry": { "type": "Point", "coordinates": [ 141.003750599999989, 39.1889111 ] } },
{ "type": "Feature", "properties": { "内容": "ほっとおおつち【小規模多機能型居宅介護】岩手県上閉伊郡大槌町大槌12-71-2ほっと　おおつち", "url2": "https://www.kaigokensaku.mhlw.go.jp/03/index.php?action_kouhyou_detail_004_kani=true&JigyosyoCd=0392900023-00&ServiceCd=730&Type=search" }, "geometry": { "type": "Point", "coordinates": [ 141.885554158044414, 39.38090532751913 ] } },
{ "type": "Feature", "properties": { "内容": "小規模多機能型居宅介護事業所ハイスこづち【小規模多機能型居宅介護】岩手県上閉伊郡大槌町小鎚第２３地割８３番地１", "url2": "https://www.kaigokensaku.mhlw.go.jp/03/index.php?action_kouhyou_detail_004_kani=true&JigyosyoCd=0392900064-00&ServiceCd=730&Type=search" }, "geometry": { "type": "Point", "coordinates": [ 141.880816525336201, 39.357334758182851 ] } },
{ "type": "Feature", "properties": { "内容": "小規模多機能センター絆の里やすらぎ【小規模多機能型居宅介護】岩手県下閉伊郡山田町船越9-26-18", "url2": "https://www.kaigokensaku.mhlw.go.jp/03/index.php?action_kouhyou_detail_004_kani=true&JigyosyoCd=0393000039-00&ServiceCd=730&Type=search" }, "geometry": { "type": "Point", "coordinates": [ 141.983926682739849, 39.435866601999393 ] } },
{ "type": "Feature", "properties": { "内容": "小規模多機能型居宅介護事業所恵みの里眺望【小規模多機能型居宅介護】岩手県下閉伊郡山田町山田第1地割11番地3", "url2": "https://www.kaigokensaku.mhlw.go.jp/03/index.php?action_kouhyou_detail_004_kani=true&JigyosyoCd=0393000104-00&ServiceCd=730&Type=search" }, "geometry": { "type": "Point", "coordinates": [ 141.959558820901492, 39.477128137736905 ] } },
{ "type": "Feature", "properties": { "内容": "小規模多機能センターあお空【小規模多機能型居宅介護】岩手県下閉伊郡岩泉町小本字南中野２８９", "url2": "https://www.kaigokensaku.mhlw.go.jp/03/index.php?action_kouhyou_detail_004_kani=true&JigyosyoCd=0393000021-00&ServiceCd=730&Type=search" }, "geometry": { "type": "Point", "coordinates": [ 141.9688109, 39.8440322 ] } },
{ "type": "Feature", "properties": { "内容": "くろさき小規模多機能ホーム【小規模多機能型居宅介護】岩手県下閉伊郡普代村第1地割字上村4番地1", "url2": "https://www.kaigokensaku.mhlw.go.jp/03/index.php?action_kouhyou_detail_004_kani=true&JigyosyoCd=0393000112-00&ServiceCd=730&Type=search" }, "geometry": { "type": "Point", "coordinates": [ 141.929968499999973, 39.9984746 ] } },
{ "type": "Feature", "properties": { "内容": "小規模多機能ホーム花の里かるまい【小規模多機能型居宅介護】岩手県九戸郡軽米町大字軽米第２２地割４２", "url2": "https://www.kaigokensaku.mhlw.go.jp/03/index.php?action_kouhyou_detail_004_kani=true&JigyosyoCd=0393100086-00&ServiceCd=730&Type=search" }, "geometry": { "type": "Point", "coordinates": [ 141.4568557, 40.3147163 ] } },
{ "type": "Feature", "properties": { "内容": "「青い空」小規模多機能ホーム【小規模多機能型居宅介護】岩手県九戸郡九戸村大字江刺家第４地割１５番地１", "url2": "https://www.kaigokensaku.mhlw.go.jp/03/index.php?action_kouhyou_detail_004_kani=true&JigyosyoCd=0393100235-00&ServiceCd=730&Type=search" }, "geometry": { "type": "Point", "coordinates": [ 141.4120763, 40.2449662 ] } },
{ "type": "Feature", "properties": { "内容": "小規模多機能ホームくじひら【小規模多機能型居宅介護】岩手県九戸郡洋野町大野第63地割7番地2", "url2": "https://www.kaigokensaku.mhlw.go.jp/03/index.php?action_kouhyou_detail_004_kani=true&JigyosyoCd=0393100201-00&ServiceCd=730&Type=search" }, "geometry": { "type": "Point", "coordinates": [ 141.630754799999977, 40.2833048 ] } },
{ "type": "Feature", "properties": { "内容": "小規模多機能ホームカッケロ【小規模多機能型居宅介護】岩手県九戸郡洋野町中野第５地割６２番地８", "url2": "https://www.kaigokensaku.mhlw.go.jp/03/index.php?action_kouhyou_detail_004_kani=true&JigyosyoCd=0393100029-00&ServiceCd=730&Type=search" }, "geometry": { "type": "Point", "coordinates": [ 141.77273809999997, 40.3049787 ] } },
{ "type": "Feature", "properties": { "内容": "小規模多機能ホームくるみ【小規模多機能型居宅介護】岩手県九戸郡洋野町帯島7地割44番地3", "url2": "https://www.kaigokensaku.mhlw.go.jp/03/index.php?action_kouhyou_detail_004_kani=true&JigyosyoCd=0393100078-00&ServiceCd=730&Type=search" }, "geometry": { "type": "Point", "coordinates": [ 141.6994135, 40.2503969 ] } },
{ "type": "Feature", "properties": { "内容": "小規模多機能ホームまごころ【小規模多機能型居宅介護】岩手県九戸郡洋野町種市第４１地割１５番地２", "url2": "https://www.kaigokensaku.mhlw.go.jp/03/index.php?action_kouhyou_detail_004_kani=true&JigyosyoCd=0393100102-00&ServiceCd=730&Type=search" }, "geometry": { "type": "Point", "coordinates": [ 141.678190200000017, 40.4449052 ] } }
]
}
