{
"type": "FeatureCollection",
"name": "geo_03_特定福祉用具販売",
"crs": { "type": "name", "properties": { "name": "urn:ogc:def:crs:OGC:1.3:CRS84" } },
"features": [
{ "type": "Feature", "properties": { "内容": "ウエルネス生活研究所【特定福祉用具販売】岩手県盛岡市本宮六丁目1番48号", "url": "https://www.kaigokensaku.mhlw.go.jp/03/index.php?action_kouhyou_detail_004_kani=true&JigyosyoCd=0370103798-00&ServiceCd=410&Type=search", "url2": "http://kaigonomori.net" }, "geometry": { "type": "Point", "coordinates": [ 141.124811899999941, 39.6881426 ] } },
{ "type": "Feature", "properties": { "内容": "エム指定福祉用具センター【特定福祉用具販売】岩手県盛岡市本宮三丁目29番1号", "url": "https://www.kaigokensaku.mhlw.go.jp/03/index.php?action_kouhyou_detail_004_kani=true&JigyosyoCd=0370103731-00&ServiceCd=410&Type=search", "url2": null }, "geometry": { "type": "Point", "coordinates": [ 141.132975, 39.6908064 ] } },
{ "type": "Feature", "properties": { "内容": "福祉用具事業所　すがわら【特定福祉用具販売】岩手県盛岡市湯沢東三丁目17番13号", "url": "https://www.kaigokensaku.mhlw.go.jp/03/index.php?action_kouhyou_detail_004_kani=true&JigyosyoCd=0370105736-00&ServiceCd=410&Type=search", "url2": "http://itp.ne.jp/ap/0196322525/" }, "geometry": { "type": "Point", "coordinates": [ 141.100694774868742, 39.640367978947374 ] } },
{ "type": "Feature", "properties": { "内容": "ツカサコーポレーション【特定福祉用具販売】岩手県盛岡市羽場10-1-9", "url": "https://www.kaigokensaku.mhlw.go.jp/03/index.php?action_kouhyou_detail_004_kani=true&JigyosyoCd=0370100158-00&ServiceCd=410&Type=search", "url2": null }, "geometry": { "type": "Point", "coordinates": [ 141.1261022, 39.6532079 ] } },
{ "type": "Feature", "properties": { "内容": "けんこう【特定福祉用具販売】津志田町1-14-25ノーブル津志田101号", "url": "https://www.kaigokensaku.mhlw.go.jp/03/index.php?action_kouhyou_detail_004_kani=true&JigyosyoCd=0370106551-00&ServiceCd=410&Type=search", "url2": "http://kenkou-asa.com" }, "geometry": { "type": "Point", "coordinates": [ 141.15365989999998, 39.6685736 ] } },
{ "type": "Feature", "properties": { "内容": "フォレスト福祉用具サービス盛岡【特定福祉用具販売】岩手県盛岡市本宮六丁目1-6101", "url": "https://www.kaigokensaku.mhlw.go.jp/03/index.php?action_kouhyou_detail_004_kani=true&JigyosyoCd=0370106817-00&ServiceCd=410&Type=search", "url2": null }, "geometry": { "type": "Point", "coordinates": [ 141.126011799999986, 39.6879538 ] } },
{ "type": "Feature", "properties": { "内容": "DCM盛南店【特定福祉用具販売】岩手県盛岡市向中野7丁目16番77号DCM盛南店", "url": "https://www.kaigokensaku.mhlw.go.jp/03/index.php?action_kouhyou_detail_004_kani=true&JigyosyoCd=0370107575-00&ServiceCd=410&Type=search", "url2": "https://www.dcm-hc.co.jp/homac-fukushi/" }, "geometry": { "type": "Point", "coordinates": [ 141.1365238, 39.6745414 ] } },
{ "type": "Feature", "properties": { "内容": "株式会社サンメディカル肴町店【特定福祉用具販売】岩手県盛岡市肴町２番３１号", "url": "https://www.kaigokensaku.mhlw.go.jp/03/index.php?action_kouhyou_detail_004_kani=true&JigyosyoCd=0370103665-00&ServiceCd=410&Type=search", "url2": "https://sunme.jp/" }, "geometry": { "type": "Point", "coordinates": [ 141.152553600000033, 39.6978673 ] } },
{ "type": "Feature", "properties": { "内容": "スマイルサポート株式会社【特定福祉用具販売】岩手県盛岡市天昌寺町9-62-202", "url": "https://www.kaigokensaku.mhlw.go.jp/03/index.php?action_kouhyou_detail_004_kani=true&JigyosyoCd=0370108003-00&ServiceCd=410&Type=search", "url2": null }, "geometry": { "type": "Point", "coordinates": [ 141.119414299999988, 39.7106901 ] } },
{ "type": "Feature", "properties": { "内容": "コ－プ介護・福祉センタ－【特定福祉用具販売】岩手県盛岡市長橋町17-35", "url": "https://www.kaigokensaku.mhlw.go.jp/03/index.php?action_kouhyou_detail_004_kani=true&JigyosyoCd=0370102063-00&ServiceCd=410&Type=search", "url2": null }, "geometry": { "type": "Point", "coordinates": [ 141.102792979339256, 39.717017095406682 ] } },
{ "type": "Feature", "properties": { "内容": "第一商事株式会社レディーズ・アイ事業部【特定福祉用具販売】岩手県盛岡市加賀野1-19-29", "url": "https://www.kaigokensaku.mhlw.go.jp/03/index.php?action_kouhyou_detail_004_kani=true&JigyosyoCd=0370100166-00&ServiceCd=410&Type=search", "url2": "https://ladyseye.dai-ichi.com/" }, "geometry": { "type": "Point", "coordinates": [ 141.163985599999933, 39.7071721 ] } },
{ "type": "Feature", "properties": { "内容": "株式会社ライフプラス【特定福祉用具販売】岩手県盛岡市津志田町三丁目3－20", "url": "https://www.kaigokensaku.mhlw.go.jp/03/index.php?action_kouhyou_detail_004_kani=true&JigyosyoCd=0370108094-00&ServiceCd=410&Type=search", "url2": null }, "geometry": { "type": "Point", "coordinates": [ 141.1531043, 39.6652181 ] } },
{ "type": "Feature", "properties": { "内容": "株式会社サンメディックス　シルバーレンタルサービス盛岡【特定福祉用具販売】岩手県盛岡市上田１丁目1-30", "url": "https://www.kaigokensaku.mhlw.go.jp/03/index.php?action_kouhyou_detail_004_kani=true&JigyosyoCd=0372101154-00&ServiceCd=410&Type=search", "url2": null }, "geometry": { "type": "Point", "coordinates": [ 141.147835482803316, 39.713374227892018 ] } },
{ "type": "Feature", "properties": { "内容": "株式会社小田島アクティ介護用品部岩手営業所【特定福祉用具販売】岩手県盛岡市津志田町1丁目11番15号", "url": "https://www.kaigokensaku.mhlw.go.jp/03/index.php?action_kouhyou_detail_004_kani=true&JigyosyoCd=0370101545-00&ServiceCd=410&Type=search", "url2": "http://www.odashima-acty.co.jp" }, "geometry": { "type": "Point", "coordinates": [ 141.15414880000003, 39.6681264 ] } },
{ "type": "Feature", "properties": { "内容": "株式会社かんきょう盛岡支店【特定福祉用具販売】い岩手県盛岡市向中野八丁目３番２号", "url": "https://www.kaigokensaku.mhlw.go.jp/03/index.php?action_kouhyou_detail_004_kani=true&JigyosyoCd=0370108102-00&ServiceCd=410&Type=search", "url2": "https://www.kankyonet.co.jp/" }, "geometry": { "type": "Point", "coordinates": [ 141.1399452, 39.6711163 ] } },
{ "type": "Feature", "properties": { "内容": "株式会社ケア・テック【特定福祉用具販売】岩手県盛岡市湯沢16地割15番地8", "url": "https://www.kaigokensaku.mhlw.go.jp/03/index.php?action_kouhyou_detail_004_kani=true&JigyosyoCd=0370100141-00&ServiceCd=410&Type=search", "url2": "http://www.caretec.co.jp/" }, "geometry": { "type": "Point", "coordinates": [ 141.114428415258772, 39.652548216670731 ] } },
{ "type": "Feature", "properties": { "内容": "ダスキンヘルスレント盛岡ステーション【特定福祉用具販売】岩手県盛岡市上堂１丁目４番３８号", "url": "https://www.kaigokensaku.mhlw.go.jp/03/index.php?action_kouhyou_detail_004_kani=true&JigyosyoCd=0370100935-00&ServiceCd=410&Type=search", "url2": "http://healthrent.duskin.jp/" }, "geometry": { "type": "Point", "coordinates": [ 141.125621799999976, 39.7243555 ] } },
{ "type": "Feature", "properties": { "内容": "パナソニックエイジフリーショップ盛岡【特定福祉用具販売】岩手県盛岡市乙部28地割25番地2", "url": "https://www.kaigokensaku.mhlw.go.jp/03/index.php?action_kouhyou_detail_004_kani=true&JigyosyoCd=0370104168-00&ServiceCd=410&Type=search", "url2": "https://www.kaigoshop.net/morioka/" }, "geometry": { "type": "Point", "coordinates": [ 141.201627499999972, 39.6061908 ] } },
{ "type": "Feature", "properties": { "内容": "株式会社ケア・テック　宮古営業所【特定福祉用具販売】岩手県宮古市崎鍬ヶ崎第１地割１１番２６号", "url": "https://www.kaigokensaku.mhlw.go.jp/03/index.php?action_kouhyou_detail_004_kani=true&JigyosyoCd=0370200313-00&ServiceCd=410&Type=search", "url2": "http://www.caretec.co.jp/" }, "geometry": { "type": "Point", "coordinates": [ 141.9487514, 39.6590067 ] } },
{ "type": "Feature", "properties": { "内容": "ツカサ介護サービス　宮古センター【特定福祉用具販売】岩手県宮古市田の神1-2-26", "url": "https://www.kaigokensaku.mhlw.go.jp/03/index.php?action_kouhyou_detail_004_kani=true&JigyosyoCd=0370200172-00&ServiceCd=410&Type=search", "url2": "http://www.rnac.ne.jp/~tsukasaa/" }, "geometry": { "type": "Point", "coordinates": [ 141.939146700000038, 39.647019 ] } },
{ "type": "Feature", "properties": { "内容": "有限会社介護リフォームセンター宮古営業所【特定福祉用具販売】岩手県宮古市板屋3丁目3番3号", "url": "https://www.kaigokensaku.mhlw.go.jp/03/index.php?action_kouhyou_detail_004_kani=true&JigyosyoCd=0370200677-00&ServiceCd=410&Type=search", "url2": null }, "geometry": { "type": "Point", "coordinates": [ 141.914729699999953, 39.6344031 ] } },
{ "type": "Feature", "properties": { "内容": "株式会社TAKUMIコーポレーション【特定福祉用具販売】岩手県宮古市藤原一丁目8番8号", "url": "https://www.kaigokensaku.mhlw.go.jp/03/index.php?action_kouhyou_detail_004_kani=true&JigyosyoCd=0370201022-00&ServiceCd=410&Type=search", "url2": "https://takumi-sanriku.com" }, "geometry": { "type": "Point", "coordinates": [ 141.959354968370008, 39.637842891962173 ] } },
{ "type": "Feature", "properties": { "内容": "株式会社サンメディカル宮古店【特定福祉用具販売】岩手県宮古市長根2丁目6-4", "url": "https://www.kaigokensaku.mhlw.go.jp/03/index.php?action_kouhyou_detail_004_kani=true&JigyosyoCd=0370200735-00&ServiceCd=410&Type=search", "url2": "http://sunme.co.jp/" }, "geometry": { "type": "Point", "coordinates": [ 141.93181214681772, 39.64001664818111 ] } },
{ "type": "Feature", "properties": { "内容": "株式会社ケア・テック大船渡出張所【特定福祉用具販売】岩手県大船渡市大船渡町字地ノ森27-11", "url": "https://www.kaigokensaku.mhlw.go.jp/03/index.php?action_kouhyou_detail_004_kani=true&JigyosyoCd=0370300584-00&ServiceCd=410&Type=search", "url2": "http://www.caretec.co.jp" }, "geometry": { "type": "Point", "coordinates": [ 141.715568299999973, 39.0760937 ] } },
{ "type": "Feature", "properties": { "内容": "株式会社サンメディカル大船渡店【特定福祉用具販売】岩手県大船渡市赤崎町字佐野83", "url": "https://www.kaigokensaku.mhlw.go.jp/03/index.php?action_kouhyou_detail_004_kani=true&JigyosyoCd=0370300295-00&ServiceCd=410&Type=search", "url2": "https://sunme.co.jp" }, "geometry": { "type": "Point", "coordinates": [ 141.723965159292248, 39.079468588908227 ] } },
{ "type": "Feature", "properties": { "内容": "クレール【特定福祉用具販売】岩手県大船渡市大船渡町字茶屋前56-5", "url": "https://www.kaigokensaku.mhlw.go.jp/03/index.php?action_kouhyou_detail_004_kani=true&JigyosyoCd=0370300337-00&ServiceCd=410&Type=search", "url2": null }, "geometry": { "type": "Point", "coordinates": [ 141.7184867, 39.0635299 ] } },
{ "type": "Feature", "properties": { "内容": "介護レンタルショップ三光【特定福祉用具販売】岩手県花巻市二枚橋町大通り２丁目１８－２", "url": "https://www.kaigokensaku.mhlw.go.jp/03/index.php?action_kouhyou_detail_004_kani=true&JigyosyoCd=0370500811-00&ServiceCd=410&Type=search", "url2": null }, "geometry": { "type": "Point", "coordinates": [ 141.131722399999944, 39.4417641 ] } },
{ "type": "Feature", "properties": { "内容": "福祉用具センターぼだいじゅ【特定福祉用具販売】岩手県花巻市東町1番5号", "url": "https://www.kaigokensaku.mhlw.go.jp/03/index.php?action_kouhyou_detail_004_kani=true&JigyosyoCd=0370500787-00&ServiceCd=410&Type=search", "url2": "http://www.odashima-acty.co.jp" }, "geometry": { "type": "Point", "coordinates": [ 141.119320199999947, 39.3857371 ] } },
{ "type": "Feature", "properties": { "内容": "サカモト介護レンタル【特定福祉用具販売】岩手県花巻市末広町9番16号", "url": "https://www.kaigokensaku.mhlw.go.jp/03/index.php?action_kouhyou_detail_004_kani=true&JigyosyoCd=0370500829-00&ServiceCd=410&Type=search", "url2": null }, "geometry": { "type": "Point", "coordinates": [ 141.113773600000059, 39.3859342 ] } },
{ "type": "Feature", "properties": { "内容": "秋田基準寝具株式会社北上営業所【特定福祉用具販売】岩手県北上市鬼柳町川原小屋26-3", "url": "https://www.kaigokensaku.mhlw.go.jp/03/index.php?action_kouhyou_detail_004_kani=true&JigyosyoCd=0370600785-00&ServiceCd=410&Type=search", "url2": "https://akitakijunshingu.co.jp/" }, "geometry": { "type": "Point", "coordinates": [ 141.111018896130474, 39.269051028236674 ] } },
{ "type": "Feature", "properties": { "内容": "シルバーサポート「きずな」【特定福祉用具販売】岩手県北上市北鬼柳19地割68", "url": "https://www.kaigokensaku.mhlw.go.jp/03/index.php?action_kouhyou_detail_004_kani=true&JigyosyoCd=0370601247-00&ServiceCd=410&Type=search", "url2": "http://www.t-biltec.com" }, "geometry": { "type": "Point", "coordinates": [ 141.093581299999983, 39.2936581 ] } },
{ "type": "Feature", "properties": { "内容": "ダスキンヘルスレント北上ステーション【特定福祉用具販売】岩手県北上市有田町９番５１号", "url": "https://www.kaigokensaku.mhlw.go.jp/03/index.php?action_kouhyou_detail_004_kani=true&JigyosyoCd=0370600835-00&ServiceCd=410&Type=search", "url2": null }, "geometry": { "type": "Point", "coordinates": [ 141.105227499999955, 39.2937387 ] } },
{ "type": "Feature", "properties": { "内容": "株式会社メディケアエコネット【特定福祉用具販売】岩手県北上市相去町西裏1番地41", "url": "https://www.kaigokensaku.mhlw.go.jp/03/index.php?action_kouhyou_detail_004_kani=true&JigyosyoCd=0370600777-00&ServiceCd=410&Type=search", "url2": "http://www.medicare-econet.co.jp" }, "geometry": { "type": "Point", "coordinates": [ 141.11233059999995, 39.2639227 ] } },
{ "type": "Feature", "properties": { "内容": "株式会社東北メディケアサービス日高見福祉用具センター【特定福祉用具販売】岩手県北上市上江釣子16-62-1", "url": "https://www.kaigokensaku.mhlw.go.jp/03/index.php?action_kouhyou_detail_004_kani=true&JigyosyoCd=0370601254-00&ServiceCd=410&Type=search", "url2": null }, "geometry": { "type": "Point", "coordinates": [ 141.095690563926723, 39.291305369773056 ] } },
{ "type": "Feature", "properties": { "内容": "有限会社幸和産業【特定福祉用具販売】岩手県北上市村崎野15地割354番地1", "url": "https://www.kaigokensaku.mhlw.go.jp/03/index.php?action_kouhyou_detail_004_kani=true&JigyosyoCd=0370600827-00&ServiceCd=410&Type=search", "url2": "https://kaigowakouwa.jp" }, "geometry": { "type": "Point", "coordinates": [ 141.10283789999994, 39.3233522 ] } },
{ "type": "Feature", "properties": { "内容": "メディカルサービス久慈【特定福祉用具販売】岩手県久慈市本町２－４４", "url": "https://www.kaigokensaku.mhlw.go.jp/03/index.php?action_kouhyou_detail_004_kani=true&JigyosyoCd=0370700338-00&ServiceCd=410&Type=search", "url2": null }, "geometry": { "type": "Point", "coordinates": [ 141.7695913, 40.1878246 ] } },
{ "type": "Feature", "properties": { "内容": "有限会社ケア・サポートホソタ【特定福祉用具販売】岩手県久慈市旭町10-63", "url": "https://www.kaigokensaku.mhlw.go.jp/03/index.php?action_kouhyou_detail_004_kani=true&JigyosyoCd=0370700320-00&ServiceCd=410&Type=search", "url2": null }, "geometry": { "type": "Point", "coordinates": [ 141.778740299999981, 40.1989927 ] } },
{ "type": "Feature", "properties": { "内容": "ツカサ介護サービス遠野センター【特定福祉用具販売】岩手県遠野市中央通り8-2", "url": "https://www.kaigokensaku.mhlw.go.jp/03/index.php?action_kouhyou_detail_004_kani=true&JigyosyoCd=0370800500-00&ServiceCd=410&Type=search", "url2": null }, "geometry": { "type": "Point", "coordinates": [ 141.532786399999964, 39.3292043 ] } },
{ "type": "Feature", "properties": { "内容": "有限会社介護リフォームセンター遠野営業所【特定福祉用具販売】岩手県遠野市松崎町白岩4-22-18", "url": "https://www.kaigokensaku.mhlw.go.jp/03/index.php?action_kouhyou_detail_004_kani=true&JigyosyoCd=0370800351-00&ServiceCd=410&Type=search", "url2": null }, "geometry": { "type": "Point", "coordinates": [ 141.525369899999987, 39.3394112 ] } },
{ "type": "Feature", "properties": { "内容": "有限会社　永澤家具店【特定福祉用具販売】一関市千厩町千厩字北方25", "url": "https://www.kaigokensaku.mhlw.go.jp/03/index.php?action_kouhyou_detail_004_kani=true&JigyosyoCd=0372700559-00&ServiceCd=410&Type=search", "url2": null }, "geometry": { "type": "Point", "coordinates": [ 141.3313432, 38.9183492 ] } },
{ "type": "Feature", "properties": { "内容": "あおいケアサービス【特定福祉用具販売】岩手県一関市藤沢町新沼字中ノ沢80", "url": "https://www.kaigokensaku.mhlw.go.jp/03/index.php?action_kouhyou_detail_004_kani=true&JigyosyoCd=0370901597-00&ServiceCd=410&Type=search", "url2": null }, "geometry": { "type": "Point", "coordinates": [ 141.3485329, 38.8766186 ] } },
{ "type": "Feature", "properties": { "内容": "福祉用具さくら【特定福祉用具販売】岩手県一関市東山町長坂字町325", "url": "https://www.kaigokensaku.mhlw.go.jp/03/index.php?action_kouhyou_detail_004_kani=true&JigyosyoCd=0370902108-00&ServiceCd=410&Type=search", "url2": "https://www.akasi.info" }, "geometry": { "type": "Point", "coordinates": [ 141.251987980426037, 38.991519359111408 ] } },
{ "type": "Feature", "properties": { "内容": "有限会社和光商事【特定福祉用具販売】岩手県一関市山目町三丁目7番2号", "url": "https://www.kaigokensaku.mhlw.go.jp/03/index.php?action_kouhyou_detail_004_kani=true&JigyosyoCd=0370900417-00&ServiceCd=410&Type=search", "url2": null }, "geometry": { "type": "Point", "coordinates": [ 141.12704789999998, 38.938581 ] } },
{ "type": "Feature", "properties": { "内容": "株式会社サンメディカル一関店【特定福祉用具販売】岩手県一関市萩荘字金ヶ崎18-1", "url": "https://www.kaigokensaku.mhlw.go.jp/03/index.php?action_kouhyou_detail_004_kani=true&JigyosyoCd=0370900680-00&ServiceCd=410&Type=search", "url2": "http://sunme.co.jp/" }, "geometry": { "type": "Point", "coordinates": [ 141.110254299999951, 38.9215557 ] } },
{ "type": "Feature", "properties": { "内容": "株式会社ライフケア幸成堂【特定福祉用具販売】岩手県一関市大町4-23", "url": "https://www.kaigokensaku.mhlw.go.jp/03/index.php?action_kouhyou_detail_004_kani=true&JigyosyoCd=0370900151-00&ServiceCd=410&Type=search", "url2": "http://www.koseido-kaigo.com" }, "geometry": { "type": "Point", "coordinates": [ 141.136802499999959, 38.928832900000018 ] } },
{ "type": "Feature", "properties": { "内容": "株式会社小田島アクティぼだいじゅ一関店【特定福祉用具販売】岩手県一関市山目字中野188番地1", "url": "https://www.kaigokensaku.mhlw.go.jp/03/index.php?action_kouhyou_detail_004_kani=true&JigyosyoCd=0370900557-00&ServiceCd=410&Type=search", "url2": "http://www.odashima-acty.co.jp" }, "geometry": { "type": "Point", "coordinates": [ 141.115148335520871, 38.932662880479327 ] } },
{ "type": "Feature", "properties": { "内容": "株式会社アルプスビジネスクリエーション一関営業所【特定福祉用具販売】一関市滝沢字鶴ヶ沢7番地62", "url": "https://www.kaigokensaku.mhlw.go.jp/03/index.php?action_kouhyou_detail_004_kani=true&JigyosyoCd=0370901373-00&ServiceCd=410&Type=search", "url2": "http://www.alpsbc.co.jp" }, "geometry": { "type": "Point", "coordinates": [ 141.160902218571124, 38.905957975089486 ] } },
{ "type": "Feature", "properties": { "内容": "福祉用具ケアリー東北【特定福祉用具販売】岩手県一関市中里字舟場64番1", "url": "https://www.kaigokensaku.mhlw.go.jp/03/index.php?action_kouhyou_detail_004_kani=true&JigyosyoCd=0370902280-00&ServiceCd=410&Type=search", "url2": "https://ichinoseki.carely-home.com" }, "geometry": { "type": "Point", "coordinates": [ 141.1511765, 38.9359861 ] } },
{ "type": "Feature", "properties": { "内容": "有限会社宍戸家具部【特定福祉用具販売】岩手県一関市大東町摺沢字新右ェ門土手６番地２", "url": "https://www.kaigokensaku.mhlw.go.jp/03/index.php?action_kouhyou_detail_004_kani=true&JigyosyoCd=0372700476-00&ServiceCd=410&Type=search", "url2": "http://sisido.ec-net.jp/company.html" }, "geometry": { "type": "Point", "coordinates": [ 141.324968500000068, 38.996446 ] } },
{ "type": "Feature", "properties": { "内容": "株式会社ユースフル【特定福祉用具販売】岩手県一関市青葉1-8-20鈴木ビル2階", "url": "https://www.kaigokensaku.mhlw.go.jp/03/index.php?action_kouhyou_detail_004_kani=true&JigyosyoCd=0370902090-00&ServiceCd=410&Type=search", "url2": "https://usefulcoltd.com/" }, "geometry": { "type": "Point", "coordinates": [ 141.125442060049437, 38.929921604672842 ] } },
{ "type": "Feature", "properties": { "内容": "フォレスト福祉用具サービス【特定福祉用具販売】岩手県一関市萩荘字打ノ目255-1", "url": "https://www.kaigokensaku.mhlw.go.jp/03/index.php?action_kouhyou_detail_004_kani=true&JigyosyoCd=0370901381-00&ServiceCd=410&Type=search", "url2": null }, "geometry": { "type": "Point", "coordinates": [ 141.095887400000038, 38.9184412 ] } },
{ "type": "Feature", "properties": { "内容": "株式会社小田島アクティ介護用品部高田営業所【特定福祉用具販売】岩手県陸前高田市高田町字鳴石210番地1", "url": "https://www.kaigokensaku.mhlw.go.jp/03/index.php?action_kouhyou_detail_004_kani=true&JigyosyoCd=0371000209-00&ServiceCd=410&Type=search", "url2": "http://www.odashima-acty.co.jp" }, "geometry": { "type": "Point", "coordinates": [ 141.621140299999979, 39.0151704 ] } },
{ "type": "Feature", "properties": { "内容": "ツカサ介護サービス　釜石センター【特定福祉用具販売】岩手県釜石市中妻町1-18-17", "url": "https://www.kaigokensaku.mhlw.go.jp/03/index.php?action_kouhyou_detail_004_kani=true&JigyosyoCd=0371100124-00&ServiceCd=410&Type=search", "url2": "http://www.rnac.ne.jp/~tsukasaa/" }, "geometry": { "type": "Point", "coordinates": [ 141.861429600000065, 39.2711189 ] } },
{ "type": "Feature", "properties": { "内容": "ウェルネスコーポレーション釜石【特定福祉用具販売】岩手県釜石市大町二丁目2番２４号", "url": "https://www.kaigokensaku.mhlw.go.jp/03/index.php?action_kouhyou_detail_004_kani=true&JigyosyoCd=0371100835-00&ServiceCd=410&Type=search", "url2": null }, "geometry": { "type": "Point", "coordinates": [ 141.880847200000062, 39.2739075 ] } },
{ "type": "Feature", "properties": { "内容": "有限会社介護リフォームセンター【特定福祉用具販売】岩手県釜石市定内町３丁目10-23", "url": "https://www.kaigokensaku.mhlw.go.jp/03/index.php?action_kouhyou_detail_004_kani=true&JigyosyoCd=0371100348-00&ServiceCd=410&Type=search", "url2": null }, "geometry": { "type": "Point", "coordinates": [ 141.831845182972756, 39.25706043183353 ] } },
{ "type": "Feature", "properties": { "内容": "株式会社小田島アクティ介護用品部釜石営業所【特定福祉用具販売】岩手県釜石市鵜住居町10-30-8-2", "url": "https://www.kaigokensaku.mhlw.go.jp/03/index.php?action_kouhyou_detail_004_kani=true&JigyosyoCd=0371100512-00&ServiceCd=410&Type=search", "url2": "http://www.odashima-acty.co.jp" }, "geometry": { "type": "Point", "coordinates": [ 141.876212727552797, 39.336156054410701 ] } },
{ "type": "Feature", "properties": { "内容": "株式会社ケア・テック二戸営業所【特定福祉用具販売】岩手県二戸市福岡字上町８", "url": "https://www.kaigokensaku.mhlw.go.jp/03/index.php?action_kouhyou_detail_004_kani=true&JigyosyoCd=0371300195-00&ServiceCd=410&Type=search", "url2": "http://www.caretec.co.jp/" }, "geometry": { "type": "Point", "coordinates": [ 141.300611500000059, 40.2725547 ] } },
{ "type": "Feature", "properties": { "内容": "株式会社サンメディカル県北営業所【特定福祉用具販売】岩手県二戸市金田一字上田面222番地8", "url": "https://www.kaigokensaku.mhlw.go.jp/03/index.php?action_kouhyou_detail_004_kani=true&JigyosyoCd=0373200344-00&ServiceCd=410&Type=search", "url2": "http://sunme.co.jp/" }, "geometry": { "type": "Point", "coordinates": [ 141.298948520680597, 40.299854705654269 ] } },
{ "type": "Feature", "properties": { "内容": "有限会社コミュニティワークス介護センターカシオペア【特定福祉用具販売】岩手県二戸市堀野字大川原毛92番地9", "url": "https://www.kaigokensaku.mhlw.go.jp/03/index.php?action_kouhyou_detail_004_kani=true&JigyosyoCd=0371300211-00&ServiceCd=410&Type=search", "url2": null }, "geometry": { "type": "Point", "coordinates": [ 141.304471164418004, 40.299099021456115 ] } },
{ "type": "Feature", "properties": { "内容": "株式会社かんきょう二戸営業所【特定福祉用具販売】岩手県二戸市金田一字八ツ長125番地1", "url": "https://www.kaigokensaku.mhlw.go.jp/03/index.php?action_kouhyou_detail_004_kani=true&JigyosyoCd=0371300567-00&ServiceCd=410&Type=search", "url2": "https://www.kankyonet.co.jp/" }, "geometry": { "type": "Point", "coordinates": [ 141.298952500000041, 40.2998922 ] } },
{ "type": "Feature", "properties": { "内容": "株式会社ケアネット　岩手サービスセンター【特定福祉用具販売】岩手県奥州市水沢区花園町一丁目19番16号", "url": "https://www.kaigokensaku.mhlw.go.jp/03/index.php?action_kouhyou_detail_004_kani=true&JigyosyoCd=0371500364-00&ServiceCd=410&Type=search", "url2": null }, "geometry": { "type": "Point", "coordinates": [ 141.147945899999968, 39.1414708 ] } },
{ "type": "Feature", "properties": { "内容": "シルバーサポート水沢店【特定福祉用具販売】岩手県奥州市水沢区真城字迎畑９０－２", "url": "https://www.kaigokensaku.mhlw.go.jp/03/index.php?action_kouhyou_detail_004_kani=true&JigyosyoCd=0371500398-00&ServiceCd=410&Type=search", "url2": null }, "geometry": { "type": "Point", "coordinates": [ 141.155915300000061, 39.1182044 ] } },
{ "type": "Feature", "properties": { "内容": "ケアネット・アテルイ有限会社【特定福祉用具販売】岩手県奥州市水沢区字立町30番地", "url": "https://www.kaigokensaku.mhlw.go.jp/03/index.php?action_kouhyou_detail_004_kani=true&JigyosyoCd=0370400525-00&ServiceCd=410&Type=search", "url2": "http://www.citydo.com/prf/iwate/guide/sg/105000725.html" }, "geometry": { "type": "Point", "coordinates": [ 141.142624, 39.1467424 ] } },
{ "type": "Feature", "properties": { "内容": "有限会社ハセメディカルサービス【特定福祉用具販売】岩手県奥州市水沢区星ガ丘町7-6", "url": "https://www.kaigokensaku.mhlw.go.jp/03/index.php?action_kouhyou_detail_004_kani=true&JigyosyoCd=0370400202-00&ServiceCd=410&Type=search", "url2": null }, "geometry": { "type": "Point", "coordinates": [ 141.13095880000003, 39.1333963 ] } },
{ "type": "Feature", "properties": { "内容": "株式会社ケア・テック水沢営業所【特定福祉用具販売】岩手県奥州市水沢区中田町４番３８号", "url": "https://www.kaigokensaku.mhlw.go.jp/03/index.php?action_kouhyou_detail_004_kani=true&JigyosyoCd=0370400459-00&ServiceCd=410&Type=search", "url2": "http://www.caretec.co.jp/" }, "geometry": { "type": "Point", "coordinates": [ 141.1517569, 39.1323915 ] } },
{ "type": "Feature", "properties": { "内容": "株式会社かんきょう岩手南営業所【特定福祉用具販売】岩手県奥州市水沢真城字南塩加羅5番地1", "url": "https://www.kaigokensaku.mhlw.go.jp/03/index.php?action_kouhyou_detail_004_kani=true&JigyosyoCd=0371501008-00&ServiceCd=410&Type=search", "url2": "https://www.kankyonet.co.jp/" }, "geometry": { "type": "Point", "coordinates": [ 141.148779500000046, 39.1292556 ] } },
{ "type": "Feature", "properties": { "内容": "株式会社ナカノメ【特定福祉用具販売】岩手県奥州市水沢字吉小路46-2", "url": "https://www.kaigokensaku.mhlw.go.jp/03/index.php?action_kouhyou_detail_004_kani=true&JigyosyoCd=0371500034-00&ServiceCd=410&Type=search", "url2": null }, "geometry": { "type": "Point", "coordinates": [ 141.139991699197367, 39.142783133713998 ] } },
{ "type": "Feature", "properties": { "内容": "ダスキンヘルスレント奥州ステーション【特定福祉用具販売】岩手県奥州市水沢内匠田３０", "url": "https://www.kaigokensaku.mhlw.go.jp/03/index.php?action_kouhyou_detail_004_kani=true&JigyosyoCd=0371500943-00&ServiceCd=410&Type=search", "url2": "http://healthrent.duskin.jp/" }, "geometry": { "type": "Point", "coordinates": [ 141.125056734254485, 39.143158471027888 ] } },
{ "type": "Feature", "properties": { "内容": "ウェルネスコーポレーション特定福祉用具販売事業所【特定福祉用具販売】岩手県滝沢市篠木黒畑137-1", "url": "https://www.kaigokensaku.mhlw.go.jp/03/index.php?action_kouhyou_detail_004_kani=true&JigyosyoCd=0372101675-00&ServiceCd=410&Type=search", "url2": null }, "geometry": { "type": "Point", "coordinates": [ 141.073820899999987, 39.7113052 ] } },
{ "type": "Feature", "properties": { "内容": "株式会社アルプスビジネスクリエーション盛岡営業所【特定福祉用具販売】岩手県滝沢市外山170-6", "url": "https://www.kaigokensaku.mhlw.go.jp/03/index.php?action_kouhyou_detail_004_kani=true&JigyosyoCd=0372101832-00&ServiceCd=410&Type=search", "url2": "http://www.alpsbc.co.jp/kaigo" }, "geometry": { "type": "Point", "coordinates": [ 141.095059799999945, 39.7553708 ] } },
{ "type": "Feature", "properties": { "内容": "ライブケアメイトいわてまち【特定福祉用具販売】岩手県岩手郡岩手町大字江刈内１０－５０－１５", "url": "https://www.kaigokensaku.mhlw.go.jp/03/index.php?action_kouhyou_detail_004_kani=true&JigyosyoCd=0372101998-00&ServiceCd=410&Type=search", "url2": null }, "geometry": { "type": "Point", "coordinates": [ 141.220901300000037, 39.966402 ] } },
{ "type": "Feature", "properties": { "内容": "株式会社アルプスビジネスクリエーション紫波営業所【特定福祉用具販売】岩手県紫波郡紫波町二日町字北七久保232番地１", "url": "https://www.kaigokensaku.mhlw.go.jp/03/index.php?action_kouhyou_detail_004_kani=true&JigyosyoCd=0372200824-00&ServiceCd=410&Type=search", "url2": "http://www.alpsbc.co.jp/kaigo" }, "geometry": { "type": "Point", "coordinates": [ 141.165721299999973, 39.5635196 ] } },
{ "type": "Feature", "properties": { "内容": "フランスベッド株式会社メディカル盛岡営業所【特定福祉用具販売】岩手県紫波郡矢巾町大字広宮沢第１１地割５０１－１１", "url": "https://www.kaigokensaku.mhlw.go.jp/03/index.php?action_kouhyou_detail_004_kani=true&JigyosyoCd=0370103749-00&ServiceCd=410&Type=search", "url2": "http://www.francebed.co.jp/medical/index.html" }, "geometry": { "type": "Point", "coordinates": [ 141.115670899999941, 39.63351 ] } },
{ "type": "Feature", "properties": { "内容": "株式会社サンメディカル【特定福祉用具販売】岩手県紫波郡矢巾町流通センター南1丁目7-8", "url": "https://www.kaigokensaku.mhlw.go.jp/03/index.php?action_kouhyou_detail_004_kani=true&JigyosyoCd=0370100497-00&ServiceCd=410&Type=search", "url2": "https://sunme.co.jp/" }, "geometry": { "type": "Point", "coordinates": [ 141.111495900000023, 39.6404479 ] } },
{ "type": "Feature", "properties": { "内容": "株式会社アルプスビジネスクリエーション金ケ崎営業所【特定福祉用具販売】岩手県胆沢郡金ヶ崎町西根揚場後22番地11", "url": "https://www.kaigokensaku.mhlw.go.jp/03/index.php?action_kouhyou_detail_004_kani=true&JigyosyoCd=0372500702-00&ServiceCd=410&Type=search", "url2": "https://www.alpsbc.co.jp/kaigo" }, "geometry": { "type": "Point", "coordinates": [ 141.106227499999989, 39.1866804 ] } },
{ "type": "Feature", "properties": { "内容": "株式会社サンメディカル金ケ崎【特定福祉用具販売】岩手県胆沢郡金ケ崎町西根本宮後15番地", "url": "https://www.kaigokensaku.mhlw.go.jp/03/index.php?action_kouhyou_detail_004_kani=true&JigyosyoCd=0372500538-00&ServiceCd=410&Type=search", "url2": "https://sunme.co.jp/" }, "geometry": { "type": "Point", "coordinates": [ 141.108878, 39.2037464 ] } }
]
}
