{
"type": "FeatureCollection",
"name": "geo_03_特定施設入居者生活介護（有料老人ホーム（サービス付き高齢者向け住宅））",
"crs": { "type": "name", "properties": { "name": "urn:ogc:def:crs:OGC:1.3:CRS84" } },
"features": [
{ "type": "Feature", "properties": { "内容": "サービス付き高齢者向け住宅ゆうあいの街【特定施設入居者生活介護（有料老人ホーム（サービス付き高齢者向け住宅））】岩手県盛岡市北飯岡1丁目2-25", "url": "https://www.kaigokensaku.mhlw.go.jp/03/index.php?action_kouhyou_detail_004_kani=true&JigyosyoCd=0370105231-00&ServiceCd=&Type=search", "url2": "http://www.yu-ai.net" }, "geometry": { "type": "Point", "coordinates": [ 141.133203200000025, 39.6792493 ] } },
{ "type": "Feature", "properties": { "内容": "エイジングホーム健寿庵【特定施設入居者生活介護（有料老人ホーム（サービス付き高齢者向け住宅））】岩手県盛岡市太田六丁目16番3号エイジングホーム健寿庵", "url": "https://www.kaigokensaku.mhlw.go.jp/03/index.php?action_kouhyou_detail_004_kani=true&JigyosyoCd=0370106684-00&ServiceCd=&Type=search", "url2": "https://airinkai.net" }, "geometry": { "type": "Point", "coordinates": [ 141.113562364418073, 39.698761682365834 ] } },
{ "type": "Feature", "properties": { "内容": "サービス付き高齢者向け住宅反町の郷【特定施設入居者生活介護（有料老人ホーム（サービス付き高齢者向け住宅））】岩手県奥州市江刺岩谷堂字反町361番地1反町福祉パーク反町の郷", "url": "https://www.kaigokensaku.mhlw.go.jp/03/index.php?action_kouhyou_detail_004_kani=true&JigyosyoCd=0371501248-00&ServiceCd=&Type=search", "url2": "http://www.esashijyuseikai.or.jp" }, "geometry": { "type": "Point", "coordinates": [ 141.184472, 39.1823755 ] } }
]
}
