{
"type": "FeatureCollection",
"name": "geo_3_4",
"crs": { "type": "name", "properties": { "name": "urn:ogc:def:crs:OGC:1.3:CRS84" } },
"features": [
{ "type": "Feature", "properties": { "ID": 3403400005, "正式名称": "マタニティ相談室くろさわ", "機関区分": 4, "都道府県コード": 3, "市区町村コード": 209, "所在地": "岩手県一関市八幡町３番２７号", "緯度": 38.925318, "経度": 141.13219, "url": "https://www.iryou.teikyouseido.mhlw.go.jp/znk-web/juminkanja/S2430/initialize?prefCd=03&kikanCd=03400005&kikanKbn=4", "url2": "https://maternity-kurosawa.shopinfo.jp/", "内容": "マタニティ相談室くろさわ【4:助産院】岩手県一関市八幡町３番２７号" }, "geometry": { "type": "Point", "coordinates": [ 141.13219, 38.925318 ] } },
{ "type": "Feature", "properties": { "ID": 3403400013, "正式名称": "紫波エンゼル助産院", "機関区分": 4, "都道府県コード": 3, "市区町村コード": 321, "所在地": "岩手県紫波郡紫波町高水寺字田中２５ー７", "緯度": 39.5705, "経度": 141.162935, "url": "https://www.iryou.teikyouseido.mhlw.go.jp/znk-web/juminkanja/S2430/initialize?prefCd=03&kikanCd=03400013&kikanKbn=4", "url2": null, "内容": "紫波エンゼル助産院【4:助産院】岩手県紫波郡紫波町高水寺字田中２５ー７" }, "geometry": { "type": "Point", "coordinates": [ 141.162935, 39.5705 ] } },
{ "type": "Feature", "properties": { "ID": 3403400017, "正式名称": "産前産後ケアハウス　まんまるぽっと", "機関区分": 4, "都道府県コード": 3, "市区町村コード": 205, "所在地": "岩手県花巻市下幅２１－３６", "緯度": 39.4002252, "経度": 141.114359, "url": "https://www.iryou.teikyouseido.mhlw.go.jp/znk-web/juminkanja/S2430/initialize?prefCd=03&kikanCd=03400017&kikanKbn=4", "url2": "https://manmaru.org/", "内容": "産前産後ケアハウス　まんまるぽっと【4:助産院】岩手県花巻市下幅２１－３６" }, "geometry": { "type": "Point", "coordinates": [ 141.114359, 39.4002252 ] } },
{ "type": "Feature", "properties": { "ID": 3403400018, "正式名称": "遠野市助産院", "機関区分": 4, "都道府県コード": 3, "市区町村コード": 208, "所在地": "岩手県遠野市中央通り９番１号", "緯度": 39.331882, "経度": 141.5308, "url": "https://www.iryou.teikyouseido.mhlw.go.jp/znk-web/juminkanja/S2430/initialize?prefCd=03&kikanCd=03400018&kikanKbn=4", "url2": "http://www.city.tono.iwate.jp/", "内容": "遠野市助産院【4:助産院】岩手県遠野市中央通り９番１号" }, "geometry": { "type": "Point", "coordinates": [ 141.5308, 39.331882 ] } },
{ "type": "Feature", "properties": { "ID": 3403400020, "正式名称": "にこにこ助産婦", "機関区分": 4, "都道府県コード": 3, "市区町村コード": 206, "所在地": "岩手県北上市二子町５２", "緯度": 39.322196, "経度": 141.151606, "url": "https://www.iryou.teikyouseido.mhlw.go.jp/znk-web/juminkanja/S2430/initialize?prefCd=03&kikanCd=03400020&kikanKbn=4", "url2": null, "内容": "にこにこ助産婦【4:助産院】岩手県北上市二子町５２" }, "geometry": { "type": "Point", "coordinates": [ 141.151606, 39.322196 ] } },
{ "type": "Feature", "properties": { "ID": 3403400021, "正式名称": "ママドゥール助産院", "機関区分": 4, "都道府県コード": 3, "市区町村コード": 215, "所在地": "岩手県奥州市水沢高屋敷３７５番地２７", "緯度": 39.135222, "経度": 141.124517, "url": "https://www.iryou.teikyouseido.mhlw.go.jp/znk-web/juminkanja/S2430/initialize?prefCd=03&kikanCd=03400021&kikanKbn=4", "url2": null, "内容": "ママドゥール助産院【4:助産院】岩手県奥州市水沢高屋敷３７５番地２７" }, "geometry": { "type": "Point", "coordinates": [ 141.124517, 39.135222 ] } },
{ "type": "Feature", "properties": { "ID": 3403400024, "正式名称": "助産院　Ｆｕｒａｈａ", "機関区分": 4, "都道府県コード": 3, "市区町村コード": 216, "所在地": "岩手県滝沢市大釜土井尻１２０ー１４", "緯度": 39.70397, "経度": 141.06961, "url": "https://www.iryou.teikyouseido.mhlw.go.jp/znk-web/juminkanja/S2430/initialize?prefCd=03&kikanCd=03400024&kikanKbn=4", "url2": null, "内容": "助産院　Ｆｕｒａｈａ【4:助産院】岩手県滝沢市大釜土井尻１２０ー１４" }, "geometry": { "type": "Point", "coordinates": [ 141.06961, 39.70397 ] } },
{ "type": "Feature", "properties": { "ID": 3403400025, "正式名称": "小名助産所", "機関区分": 4, "都道府県コード": 3, "市区町村コード": 202, "所在地": "岩手県宮古市金浜２ー８ー３１", "緯度": 39.593632, "経度": 141.940117, "url": "https://www.iryou.teikyouseido.mhlw.go.jp/znk-web/juminkanja/S2430/initialize?prefCd=03&kikanCd=03400025&kikanKbn=4", "url2": null, "内容": "小名助産所【4:助産院】岩手県宮古市金浜２ー８ー３１" }, "geometry": { "type": "Point", "coordinates": [ 141.940117, 39.593632 ] } },
{ "type": "Feature", "properties": { "ID": 3403400026, "正式名称": "とき子助産院", "機関区分": 4, "都道府県コード": 3, "市区町村コード": 211, "所在地": "岩手県釜石市大平町２丁目１番１１号", "緯度": 39.259549, "経度": 141.891587, "url": "https://www.iryou.teikyouseido.mhlw.go.jp/znk-web/juminkanja/S2430/initialize?prefCd=03&kikanCd=03400026&kikanKbn=4", "url2": null, "内容": "とき子助産院【4:助産院】岩手県釜石市大平町２丁目１番１１号" }, "geometry": { "type": "Point", "coordinates": [ 141.891587, 39.259549 ] } },
{ "type": "Feature", "properties": { "ID": 3403400027, "正式名称": "産前産後ケアハウスまんまるだっこ", "機関区分": 4, "都道府県コード": 3, "市区町村コード": 206, "所在地": "岩手県北上市村崎野１５－５３４－４６", "緯度": 39.324563, "経度": 141.1113451, "url": "https://www.iryou.teikyouseido.mhlw.go.jp/znk-web/juminkanja/S2430/initialize?prefCd=03&kikanCd=03400027&kikanKbn=4", "url2": "https://manmaru.org/", "内容": "産前産後ケアハウスまんまるだっこ【4:助産院】岩手県北上市村崎野１５－５３４－４６" }, "geometry": { "type": "Point", "coordinates": [ 141.1113451, 39.324563 ] } },
{ "type": "Feature", "properties": { "ID": 3403400028, "正式名称": "産前産後ケア訪問型ひとみ助産院", "機関区分": 4, "都道府県コード": 3, "市区町村コード": 209, "所在地": "岩手県一関市赤荻字上谷地１番地３", "緯度": 38.935981, "経度": 141.102392, "url": "https://www.iryou.teikyouseido.mhlw.go.jp/znk-web/juminkanja/S2430/initialize?prefCd=03&kikanCd=03400028&kikanKbn=4", "url2": "https://z9djn.crayonsite.net", "内容": "産前産後ケア訪問型ひとみ助産院【4:助産院】岩手県一関市赤荻字上谷地１番地３" }, "geometry": { "type": "Point", "coordinates": [ 141.102392, 38.935981 ] } },
{ "type": "Feature", "properties": { "ID": 3403400029, "正式名称": "Ｍｏｍ’ｓ　Ｈｅａｌｔｈ加賀野助産院", "機関区分": 4, "都道府県コード": 3, "市区町村コード": 201, "所在地": "岩手県盛岡市加賀野１－１５－２６", "緯度": 39.706195, "経度": 141.162955, "url": "https://www.iryou.teikyouseido.mhlw.go.jp/znk-web/juminkanja/S2430/initialize?prefCd=03&kikanCd=03400029&kikanKbn=4", "url2": "https://www.midwife.or.jp/index.html", "内容": "Ｍｏｍ’ｓ　Ｈｅａｌｔｈ加賀野助産院【4:助産院】岩手県盛岡市加賀野１－１５－２６" }, "geometry": { "type": "Point", "coordinates": [ 141.162955, 39.706195 ] } },
{ "type": "Feature", "properties": { "ID": 3403400030, "正式名称": "ままのわ助産院", "機関区分": 4, "都道府県コード": 3, "市区町村コード": 205, "所在地": "岩手県花巻市下根子５３８", "緯度": 39.360313, "経度": 141.099344, "url": "https://www.iryou.teikyouseido.mhlw.go.jp/znk-web/juminkanja/S2430/initialize?prefCd=03&kikanCd=03400030&kikanKbn=4", "url2": null, "内容": "ままのわ助産院【4:助産院】岩手県花巻市下根子５３８" }, "geometry": { "type": "Point", "coordinates": [ 141.099344, 39.360313 ] } },
{ "type": "Feature", "properties": { "ID": 3403400031, "正式名称": "助産院　あいのわ", "機関区分": 4, "都道府県コード": 3, "市区町村コード": 213, "所在地": "岩手県二戸市石切所字荷渡５ー８クララＢ１０２", "緯度": 40.269068, "経度": 141.296451, "url": "https://www.iryou.teikyouseido.mhlw.go.jp/znk-web/juminkanja/S2430/initialize?prefCd=03&kikanCd=03400031&kikanKbn=4", "url2": "https://xn--hdks939ttor.com/%E5%8A%A9%E7%94%A3%E9%99%A2%E3%81%82%E3%81%84%E3%81%AE%E3%82%8F/", "内容": "助産院　あいのわ【4:助産院】岩手県二戸市石切所字荷渡５ー８クララＢ１０２" }, "geometry": { "type": "Point", "coordinates": [ 141.296451, 40.269068 ] } },
{ "type": "Feature", "properties": { "ID": 3403400032, "正式名称": "ＳＭＣ母乳育児相談室", "機関区分": 4, "都道府県コード": 3, "市区町村コード": 201, "所在地": "岩手県盛岡市みたけ３丁目１９ー１１", "緯度": 39.737921, "経度": 141.117381, "url": "https://www.iryou.teikyouseido.mhlw.go.jp/znk-web/juminkanja/S2430/initialize?prefCd=03&kikanCd=03400032&kikanKbn=4", "url2": null, "内容": "ＳＭＣ母乳育児相談室【4:助産院】岩手県盛岡市みたけ３丁目１９ー１１" }, "geometry": { "type": "Point", "coordinates": [ 141.117381, 39.737921 ] } },
{ "type": "Feature", "properties": { "ID": 3403400033, "正式名称": "ぶどうの丘助産院", "機関区分": 4, "都道府県コード": 3, "市区町村コード": 321, "所在地": "岩手県紫波郡紫波町赤沢字清水柳５５", "緯度": 39.550671, "経度": 141.22241, "url": "https://www.iryou.teikyouseido.mhlw.go.jp/znk-web/juminkanja/S2430/initialize?prefCd=03&kikanCd=03400033&kikanKbn=4", "url2": null, "内容": "ぶどうの丘助産院【4:助産院】岩手県紫波郡紫波町赤沢字清水柳５５" }, "geometry": { "type": "Point", "coordinates": [ 141.22241, 39.550671 ] } },
{ "type": "Feature", "properties": { "ID": 343410002, "正式名称": "Ｎｅｉｇｈｂｏｕｒｈｏｏｄ　Ｍｉｄｗｉｆｅ　ＪＰ", "機関区分": 4, "都道府県コード": 3, "市区町村コード": 214, "所在地": "岩手県八幡平市安比高原１７０―１７メゾンＡＰＰＩ１―１０５", "緯度": 40.005054, "経度": 140.97809, "url": "https://www.iryou.teikyouseido.mhlw.go.jp/znk-web/juminkanja/S2430/initialize?prefCd=03&kikanCd=3410002&kikanKbn=4", "url2": null, "内容": "Ｎｅｉｇｈｂｏｕｒｈｏｏｄ　Ｍｉｄｗｉｆｅ　ＪＰ【4:助産院】岩手県八幡平市安比高原１７０―１７メゾンＡＰＰＩ１―１０５" }, "geometry": { "type": "Point", "coordinates": [ 140.97809, 40.005054 ] } }
]
}
