{
"type": "FeatureCollection",
"name": "geo_03_地域密着型介護老人福祉施設入所者生活介護",
"crs": { "type": "name", "properties": { "name": "urn:ogc:def:crs:OGC:1.3:CRS84" } },
"features": [
{ "type": "Feature", "properties": { "内容": "特別養護老人ホームジャスミン【地域密着型介護老人福祉施設入所者生活介護】岩手県盛岡市渋民字泉田334番地", "url": "https://www.kaigokensaku.mhlw.go.jp/03/index.php?action_kouhyou_detail_004_kani=true&JigyosyoCd=0390100196-00&ServiceCd=540&Type=search", "url2": "http://jasmine.nisshindo-g.com/" }, "geometry": { "type": "Point", "coordinates": [ 141.166110314680537, 39.845419248686241 ] } },
{ "type": "Feature", "properties": { "内容": "特別養護老人ホーム北松園ハイツ【地域密着型介護老人福祉施設入所者生活介護】岩手県盛岡市北松園四丁目1番3号", "url": "https://www.kaigokensaku.mhlw.go.jp/03/index.php?action_kouhyou_detail_004_kani=true&JigyosyoCd=0390100238-00&ServiceCd=540&Type=search", "url2": "http://www.ikushinkai.jp/service/kita/" }, "geometry": { "type": "Point", "coordinates": [ 141.174066400000015, 39.7598529 ] } },
{ "type": "Feature", "properties": { "内容": "特別養護老人ホームなのりの里【地域密着型介護老人福祉施設入所者生活介護】岩手県盛岡市上米内字名乗沢1番地４６", "url": "https://www.kaigokensaku.mhlw.go.jp/03/index.php?action_kouhyou_detail_004_kani=true&JigyosyoCd=0390100105-00&ServiceCd=540&Type=search", "url2": null }, "geometry": { "type": "Point", "coordinates": [ 141.179586, 39.7392605 ] } },
{ "type": "Feature", "properties": { "内容": "地域密着型特別養護老人ホームふじの【地域密着型介護老人福祉施設入所者生活介護】岩手県盛岡市湯沢西三丁目４番１３号", "url": "https://www.kaigokensaku.mhlw.go.jp/03/index.php?action_kouhyou_detail_004_kani=true&JigyosyoCd=0390100527-00&ServiceCd=540&Type=search", "url2": "https://morioka-fujimikai.or.jp" }, "geometry": { "type": "Point", "coordinates": [ 141.095514099999946, 39.6392698 ] } },
{ "type": "Feature", "properties": { "内容": "地域密着型特別養護老人ホームサンホームみやこ絆【地域密着型介護老人福祉施設入所者生活介護】岩手県宮古市崎鍬ヶ崎第4地割1番地43", "url": "https://www.kaigokensaku.mhlw.go.jp/03/index.php?action_kouhyou_detail_004_kani=true&JigyosyoCd=0390200186-00&ServiceCd=540&Type=search", "url2": "http://www.wakatakekai.or.jp" }, "geometry": { "type": "Point", "coordinates": [ 141.95173449999993, 39.659192900000015 ] } },
{ "type": "Feature", "properties": { "内容": "地域密着型特別養護老人ホーム桐の花【地域密着型介護老人福祉施設入所者生活介護】岩手県宮古市茂市1-124-2", "url": "https://www.kaigokensaku.mhlw.go.jp/03/index.php?action_kouhyou_detail_004_kani=true&JigyosyoCd=0390200194-00&ServiceCd=540&Type=search", "url2": "http://niisatoshitoukai.jp/" }, "geometry": { "type": "Point", "coordinates": [ 141.787649682989468, 39.628239819654169 ] } },
{ "type": "Feature", "properties": { "内容": "地域密着型介護老人福祉施設蔵ハウス大船渡【地域密着型介護老人福祉施設入所者生活介護】岩手県大船渡市盛町字町3-1地域密着型介護老人福祉施設　蔵ハウス大船渡", "url": "https://www.kaigokensaku.mhlw.go.jp/03/index.php?action_kouhyou_detail_004_kani=true&JigyosyoCd=0390300044-00&ServiceCd=540&Type=search", "url2": "http://www.i-seijinkai.jp/" }, "geometry": { "type": "Point", "coordinates": [ 141.707716, 39.0867588 ] } },
{ "type": "Feature", "properties": { "内容": "地域密着型介護老人福祉施設「つばきの丘」【地域密着型介護老人福祉施設入所者生活介護】岩手県大船渡市末崎町字中野157－1", "url": "https://www.kaigokensaku.mhlw.go.jp/03/index.php?action_kouhyou_detail_004_kani=true&JigyosyoCd=0390300135-00&ServiceCd=540&Type=search", "url2": "http://tenjinkai.com" }, "geometry": { "type": "Point", "coordinates": [ 141.708127914680489, 39.010704043754082 ] } },
{ "type": "Feature", "properties": { "内容": "特別養護老人ホーム花あかり【地域密着型介護老人福祉施設入所者生活介護】岩手県花巻市南城１０６番地特別養護老人ホーム　花あかり", "url": "https://www.kaigokensaku.mhlw.go.jp/03/index.php?action_kouhyou_detail_004_kani=true&JigyosyoCd=0390500221-00&ServiceCd=540&Type=search", "url2": null }, "geometry": { "type": "Point", "coordinates": [ 141.121750609014953, 39.371455016771883 ] } },
{ "type": "Feature", "properties": { "内容": "特別養護老人ホーム花みずき【地域密着型介護老人福祉施設入所者生活介護】岩手県花巻市南城107番地1特別養護老人ホーム花みずき", "url": "https://www.kaigokensaku.mhlw.go.jp/03/index.php?action_kouhyou_detail_004_kani=true&JigyosyoCd=0390500288-00&ServiceCd=540&Type=search", "url2": "https://kanshanokokoro.com/hanamizuki/" }, "geometry": { "type": "Point", "coordinates": [ 141.121493116949523, 39.371388665352711 ] } },
{ "type": "Feature", "properties": { "内容": "特別養護老人ホーム花ごよみ【地域密着型介護老人福祉施設入所者生活介護】岩手県花巻市高木第19地割101-17", "url": "https://www.kaigokensaku.mhlw.go.jp/03/index.php?action_kouhyou_detail_004_kani=true&JigyosyoCd=0390500403-00&ServiceCd=540&Type=search", "url2": "https://kanshanokokoro.com/hanagoyomi/" }, "geometry": { "type": "Point", "coordinates": [ 141.144743257147979, 39.386189243077922 ] } },
{ "type": "Feature", "properties": { "内容": "特別養護老人ホームほうじゅの郷【地域密着型介護老人福祉施設入所者生活介護】岩手県花巻市石鳥谷町上口一丁目3番地3", "url": "https://www.kaigokensaku.mhlw.go.jp/03/index.php?action_kouhyou_detail_004_kani=true&JigyosyoCd=0390500379-00&ServiceCd=540&Type=search", "url2": "http://www.houjyukai-iwate.com" }, "geometry": { "type": "Point", "coordinates": [ 141.157932599999981, 39.501441 ] } },
{ "type": "Feature", "properties": { "内容": "地域密着型特別養護老人ホーム銀河の里【地域密着型介護老人福祉施設入所者生活介護】岩手県花巻市幸田6-140", "url": "https://www.kaigokensaku.mhlw.go.jp/03/index.php?action_kouhyou_detail_004_kani=true&JigyosyoCd=0390500106-00&ServiceCd=540&Type=search", "url2": "http://www.ginganosato.com" }, "geometry": { "type": "Point", "coordinates": [ 141.195924500000046, 39.3993458 ] } },
{ "type": "Feature", "properties": { "内容": "特別養護老人ホームもとだて荘【地域密着型介護老人福祉施設入所者生活介護】岩手県花巻市東宮野目13-95-3", "url": "https://www.kaigokensaku.mhlw.go.jp/03/index.php?action_kouhyou_detail_004_kani=true&JigyosyoCd=0390500320-00&ServiceCd=540&Type=search", "url2": "http://central-hanamaki.com/" }, "geometry": { "type": "Point", "coordinates": [ 141.122347174532479, 39.40802362339155 ] } },
{ "type": "Feature", "properties": { "内容": "特別養護老人ホーム光の苑【地域密着型介護老人福祉施設入所者生活介護】岩手県花巻市東和町土沢8区205特別養護老人ホーム光の苑", "url": "https://www.kaigokensaku.mhlw.go.jp/03/index.php?action_kouhyou_detail_004_kani=true&JigyosyoCd=0390500387-00&ServiceCd=540&Type=search", "url2": "https://central-hikari.com/" }, "geometry": { "type": "Point", "coordinates": [ 141.233109660713211, 39.383675952722278 ] } },
{ "type": "Feature", "properties": { "内容": "地域密着型特別養護老人ホーム結いの郷【地域密着型介護老人福祉施設入所者生活介護】岩手県花巻市大迫町大迫第13地割20番地１地域密着型特別養護老人ホーム結いの郷", "url": "https://www.kaigokensaku.mhlw.go.jp/03/index.php?action_kouhyou_detail_004_kani=true&JigyosyoCd=0390500163-00&ServiceCd=540&Type=search", "url2": null }, "geometry": { "type": "Point", "coordinates": [ 141.278156090737895, 39.471422274312296 ] } },
{ "type": "Feature", "properties": { "内容": "特別養護老人ホームひとひら【地域密着型介護老人福祉施設入所者生活介護】岩手県花巻市石鳥谷町北寺林11-1351-1", "url": "https://www.kaigokensaku.mhlw.go.jp/03/index.php?action_kouhyou_detail_004_kani=true&JigyosyoCd=0390500171-00&ServiceCd=540&Type=search", "url2": "http://www.hitohiranokai.com/" }, "geometry": { "type": "Point", "coordinates": [ 141.138719601442062, 39.499860752528846 ] } },
{ "type": "Feature", "properties": { "内容": "特別養護老人ホームサンガ【地域密着型介護老人福祉施設入所者生活介護】岩手県花巻市十二丁目５７７番１", "url": "https://www.kaigokensaku.mhlw.go.jp/03/index.php?action_kouhyou_detail_004_kani=true&JigyosyoCd=0390500239-00&ServiceCd=540&Type=search", "url2": "https://sanga295672.wixsite.com/sanga-hanamaki" }, "geometry": { "type": "Point", "coordinates": [ 141.126318, 39.3625567 ] } },
{ "type": "Feature", "properties": { "内容": "地域密着型特別養護老人ホーム敬愛園【地域密着型介護老人福祉施設入所者生活介護】岩手県北上市相去町高前檀6番地14", "url": "https://www.kaigokensaku.mhlw.go.jp/03/index.php?action_kouhyou_detail_004_kani=true&JigyosyoCd=0390600245-00&ServiceCd=540&Type=search", "url2": "https://risshokai.jp/" }, "geometry": { "type": "Point", "coordinates": [ 141.085341800000037, 39.2575977 ] } },
{ "type": "Feature", "properties": { "内容": "地域密着型特別養護老人ホーム浮牛の里【地域密着型介護老人福祉施設入所者生活介護】岩手県北上市口内町久田２５－１１地域密着型特別養護老人ホーム　浮牛の里", "url": "https://www.kaigokensaku.mhlw.go.jp/03/index.php?action_kouhyou_detail_004_kani=true&JigyosyoCd=0390600252-00&ServiceCd=540&Type=search", "url2": "http://hakuaikai-kitakami.or.jp/aboutus.htm" }, "geometry": { "type": "Point", "coordinates": [ 141.204788600000029, 39.2901085 ] } },
{ "type": "Feature", "properties": { "内容": "地域密着型特別養護老人ホームすずの里【地域密着型介護老人福祉施設入所者生活介護】岩手県北上市北鬼柳15地割128番地2", "url": "https://www.kaigokensaku.mhlw.go.jp/03/index.php?action_kouhyou_detail_004_kani=true&JigyosyoCd=0390600443-00&ServiceCd=540&Type=search", "url2": "https://yamadori-iwate.com" }, "geometry": { "type": "Point", "coordinates": [ 141.092608711222852, 39.295644779233022 ] } },
{ "type": "Feature", "properties": { "内容": "特別養護老人ホームえびす【地域密着型介護老人福祉施設入所者生活介護】岩手県北上市小鳥崎2地割165番", "url": "https://www.kaigokensaku.mhlw.go.jp/03/index.php?action_kouhyou_detail_004_kani=true&JigyosyoCd=0390600385-00&ServiceCd=540&Type=search", "url2": "https://koutokukai.info/" }, "geometry": { "type": "Point", "coordinates": [ 141.140158499999984, 39.2962291 ] } },
{ "type": "Feature", "properties": { "内容": "特別養護老人ホームこはく苑【地域密着型介護老人福祉施設入所者生活介護】岩手県久慈市小久慈町19-118-1", "url": "https://www.kaigokensaku.mhlw.go.jp/03/index.php?action_kouhyou_detail_004_kani=true&JigyosyoCd=0390700078-00&ServiceCd=540&Type=search", "url2": "http://kohakukai.org" }, "geometry": { "type": "Point", "coordinates": [ 141.732237258538788, 40.169403869809059 ] } },
{ "type": "Feature", "properties": { "内容": "特別養護老人ホームひより【地域密着型介護老人福祉施設入所者生活介護】岩手県一関市大東町沖田字峯岸5番地", "url": "https://www.kaigokensaku.mhlw.go.jp/03/index.php?action_kouhyou_detail_004_kani=true&JigyosyoCd=0390900231-00&ServiceCd=540&Type=search", "url2": "http://shuuwakai.com" }, "geometry": { "type": "Point", "coordinates": [ 141.344834, 39.04106 ] } },
{ "type": "Feature", "properties": { "内容": "特別養護老人ホームひなた苑【地域密着型介護老人福祉施設入所者生活介護】岩手県一関市千厩町奥玉字上川原31番地", "url": "https://www.kaigokensaku.mhlw.go.jp/03/index.php?action_kouhyou_detail_004_kani=true&JigyosyoCd=0390900223-00&ServiceCd=540&Type=search", "url2": "https://jukeikai.or.jp/index.html" }, "geometry": { "type": "Point", "coordinates": [ 141.370330145442011, 38.959194029911664 ] } },
{ "type": "Feature", "properties": { "内容": "特別養護老人ホーム真生園【地域密着型介護老人福祉施設入所者生活介護】岩手県一関市字沢161番地216", "url": "https://www.kaigokensaku.mhlw.go.jp/03/index.php?action_kouhyou_detail_004_kani=true&JigyosyoCd=0390900181-00&ServiceCd=540&Type=search", "url2": "http://www.iwate-tukushikai.jp" }, "geometry": { "type": "Point", "coordinates": [ 141.14644670000007, 38.9065692 ] } },
{ "type": "Feature", "properties": { "内容": "特別養護老人ホーム寿光荘清水【地域密着型介護老人福祉施設入所者生活介護】岩手県一関市花泉町花泉字上舘70-3", "url": "https://www.kaigokensaku.mhlw.go.jp/03/index.php?action_kouhyou_detail_004_kani=true&JigyosyoCd=0390900298-00&ServiceCd=540&Type=search", "url2": "https://www.nioukai.or.jp" }, "geometry": { "type": "Point", "coordinates": [ 141.16012569999998, 38.8484599 ] } },
{ "type": "Feature", "properties": { "内容": "特別養護老人ホームリビングハウスおおはら【地域密着型介護老人福祉施設入所者生活介護】岩手県一関市大東町大原字立町110番地1", "url": "https://www.kaigokensaku.mhlw.go.jp/03/index.php?action_kouhyou_detail_004_kani=true&JigyosyoCd=0390900322-00&ServiceCd=540&Type=search", "url2": "http://i-group.link/99_blank008.html" }, "geometry": { "type": "Point", "coordinates": [ 141.394536525760259, 39.016390935306717 ] } },
{ "type": "Feature", "properties": { "内容": "特別養護老人ホーム舞川の里【地域密着型介護老人福祉施設入所者生活介護】岩手県一関市舞川字堀切72-4", "url": "https://www.kaigokensaku.mhlw.go.jp/03/index.php?action_kouhyou_detail_004_kani=true&JigyosyoCd=0390900215-00&ServiceCd=540&Type=search", "url2": null }, "geometry": { "type": "Point", "coordinates": [ 141.175892299999987, 38.9671416 ] } },
{ "type": "Feature", "properties": { "内容": "特別養護老人ホームあけぼの苑【地域密着型介護老人福祉施設入所者生活介護】岩手県一関市厳美町字古館３番地", "url": "https://www.kaigokensaku.mhlw.go.jp/03/index.php?action_kouhyou_detail_004_kani=true&JigyosyoCd=0390900363-00&ServiceCd=540&Type=search", "url2": "http://ichinosekikai.com" }, "geometry": { "type": "Point", "coordinates": [ 141.052525350123545, 38.949744368154882 ] } },
{ "type": "Feature", "properties": { "内容": "地域密着型介護老人福祉施設「陸前高田」【地域密着型介護老人福祉施設入所者生活介護】岩手県陸前高田市高田町字大隅8番地6地域密着型介護老人福祉施設「陸前高田」", "url": "https://www.kaigokensaku.mhlw.go.jp/03/index.php?action_kouhyou_detail_004_kani=true&JigyosyoCd=0391000080-00&ServiceCd=540&Type=search", "url2": "http://www.tenjinkai.com" }, "geometry": { "type": "Point", "coordinates": [ 141.636346099999969, 39.0332048 ] } },
{ "type": "Feature", "properties": { "内容": "ユニット型特別養護老人ホームあいぜんの里【地域密着型介護老人福祉施設入所者生活介護】岩手県釜石市大字平田2-51-7", "url": "https://www.kaigokensaku.mhlw.go.jp/03/index.php?action_kouhyou_detail_004_kani=true&JigyosyoCd=0391100104-00&ServiceCd=540&Type=search", "url2": "http://aizen-iwate.jp" }, "geometry": { "type": "Point", "coordinates": [ 141.87142273981172, 39.242818561964953 ] } },
{ "type": "Feature", "properties": { "内容": "地域密着型介護老人福祉施設三峯の杜【地域密着型介護老人福祉施設入所者生活介護】岩手県釜石市鵜住居町第2地割22番地1", "url": "https://www.kaigokensaku.mhlw.go.jp/03/index.php?action_kouhyou_detail_004_kani=true&JigyosyoCd=0391100112-00&ServiceCd=540&Type=search", "url2": "http://www.iwate-tokueikai.jp/" }, "geometry": { "type": "Point", "coordinates": [ 141.848212934771027, 39.344370831976491 ] } },
{ "type": "Feature", "properties": { "内容": "地域密着型特別養護老人ホーム白梅の森【地域密着型介護老人福祉施設入所者生活介護】岩手県二戸市堀野字大畑1番地1", "url": "https://www.kaigokensaku.mhlw.go.jp/03/index.php?action_kouhyou_detail_004_kani=true&JigyosyoCd=0391300084-00&ServiceCd=540&Type=search", "url2": "http://www.itutuboshi.com" }, "geometry": { "type": "Point", "coordinates": [ 141.308068100000014, 40.299037 ] } },
{ "type": "Feature", "properties": { "内容": "特別養護老人ホームわくわく荘【地域密着型介護老人福祉施設入所者生活介護】岩手県二戸市仁左平字横手６－１", "url": "https://www.kaigokensaku.mhlw.go.jp/03/index.php?action_kouhyou_detail_004_kani=true&JigyosyoCd=0371300229-00&ServiceCd=540&Type=search", "url2": "http://www.itutuboshi.com" }, "geometry": { "type": "Point", "coordinates": [ 141.30874289999997, 40.3032087 ] } },
{ "type": "Feature", "properties": { "内容": "地域密着型特別養護老人ホームいずみ【地域密着型介護老人福祉施設入所者生活介護】岩手県二戸市金田一字荒田110-1", "url": "https://www.kaigokensaku.mhlw.go.jp/03/index.php?action_kouhyou_detail_004_kani=true&JigyosyoCd=0391300068-00&ServiceCd=540&Type=search", "url2": "http://keisenkai.jp" }, "geometry": { "type": "Point", "coordinates": [ 141.306023500000038, 40.3091579 ] } },
{ "type": "Feature", "properties": { "内容": "地域密着型特別養護老人ホームサンパレス【地域密着型介護老人福祉施設入所者生活介護】岩手県二戸市石切所字森合92番地1", "url": "https://www.kaigokensaku.mhlw.go.jp/03/index.php?action_kouhyou_detail_004_kani=true&JigyosyoCd=0391300076-00&ServiceCd=540&Type=search", "url2": "https://3palace.com" }, "geometry": { "type": "Point", "coordinates": [ 141.286185599999953, 40.262686 ] } },
{ "type": "Feature", "properties": { "内容": "地域密着型介護老人福祉施設はらからの里【地域密着型介護老人福祉施設入所者生活介護】岩手県八幡平市野駄21-299-1", "url": "https://www.kaigokensaku.mhlw.go.jp/03/index.php?action_kouhyou_detail_004_kani=true&JigyosyoCd=0391400066-00&ServiceCd=540&Type=search", "url2": "http://michinoku.or.jp/" }, "geometry": { "type": "Point", "coordinates": [ 141.070966397792063, 39.958478024117021 ] } },
{ "type": "Feature", "properties": { "内容": "地域密着型特別養護老人ホーム愛護苑【地域密着型介護老人福祉施設入所者生活介護】岩手県奥州市水沢羽田町字水無沢491-3", "url": "https://www.kaigokensaku.mhlw.go.jp/03/index.php?action_kouhyou_detail_004_kani=true&JigyosyoCd=0391500246-00&ServiceCd=540&Type=search", "url2": "http://aigokai.jp/aigoen/" }, "geometry": { "type": "Point", "coordinates": [ 141.210274, 39.1284907 ] } },
{ "type": "Feature", "properties": { "内容": "特別養護老人ホームまえさわ苑つつじ館【地域密着型介護老人福祉施設入所者生活介護】岩手県奥州市前沢字塔ケ崎７番地", "url": "https://www.kaigokensaku.mhlw.go.jp/03/index.php?action_kouhyou_detail_004_kani=true&JigyosyoCd=0391500287-00&ServiceCd=540&Type=search", "url2": "https://tsu2ji.oshushi.com" }, "geometry": { "type": "Point", "coordinates": [ 141.12068, 39.0402645 ] } },
{ "type": "Feature", "properties": { "内容": "特別養護老人ホームやまゆり荘新館【地域密着型介護老人福祉施設入所者生活介護】岩手県奥州市胆沢南都田字加賀谷地416番地", "url": "https://www.kaigokensaku.mhlw.go.jp/03/index.php?action_kouhyou_detail_004_kani=true&JigyosyoCd=0391500279-00&ServiceCd=540&Type=search", "url2": "https://www.oshuisawakai.iwate.jp" }, "geometry": { "type": "Point", "coordinates": [ 141.072889943655355, 39.117221221659101 ] } },
{ "type": "Feature", "properties": { "内容": "特別養護老人ホームやなぎの里【地域密着型介護老人福祉施設入所者生活介護】岩手県奥州市胆沢若柳字相馬檀1番地", "url": "https://www.kaigokensaku.mhlw.go.jp/03/index.php?action_kouhyou_detail_004_kani=true&JigyosyoCd=0391500170-00&ServiceCd=540&Type=search", "url2": "https://www.oshuisawakai.iwate.jp" }, "geometry": { "type": "Point", "coordinates": [ 141.06155119999994, 39.1310084 ] } },
{ "type": "Feature", "properties": { "内容": "地域密着型小規模特別養護老人ホームまえさわ苑折居館【地域密着型介護老人福祉施設入所者生活介護】岩手県奥州市前沢古城字北舘２１番１", "url": "https://www.kaigokensaku.mhlw.go.jp/03/index.php?action_kouhyou_detail_004_kani=true&JigyosyoCd=0391500220-00&ServiceCd=540&Type=search", "url2": "https://tsu2ji.oshushi.com/maesawaen.php" }, "geometry": { "type": "Point", "coordinates": [ 141.135059599999977, 39.093512 ] } },
{ "type": "Feature", "properties": { "内容": "地域密着型特別養護老人ホーム羽衣荘【地域密着型介護老人福祉施設入所者生活介護】岩手県奥州市衣川古戸33－1番地", "url": "https://www.kaigokensaku.mhlw.go.jp/03/index.php?action_kouhyou_detail_004_kani=true&JigyosyoCd=0391500386-00&ServiceCd=540&Type=search", "url2": "http://www.hagoromosou.net" }, "geometry": { "type": "Point", "coordinates": [ 141.064454599999976, 39.0415737 ] } },
{ "type": "Feature", "properties": { "内容": "地域密着型小規模特別養護老人ホームあっぷるホームあおざさ【地域密着型介護老人福祉施設入所者生活介護】岩手県奥州市江刺玉里字青篠71番地1あっぷるホームあおざさ", "url": "https://www.kaigokensaku.mhlw.go.jp/03/index.php?action_kouhyou_detail_004_kani=true&JigyosyoCd=0391500311-00&ServiceCd=540&Type=search", "url2": "https://applehome.or.jp" }, "geometry": { "type": "Point", "coordinates": [ 141.251279414741475, 39.228909218904207 ] } },
{ "type": "Feature", "properties": { "内容": "地域密着型特別養護老人ホーム反町の郷【地域密着型介護老人福祉施設入所者生活介護】岩手県奥州市江刺岩谷堂字反町361番地1", "url": "https://www.kaigokensaku.mhlw.go.jp/03/index.php?action_kouhyou_detail_004_kani=true&JigyosyoCd=0391500402-00&ServiceCd=540&Type=search", "url2": "https://esashijyuseikai.or.jp/" }, "geometry": { "type": "Point", "coordinates": [ 141.184733100000017, 39.1825254 ] } },
{ "type": "Feature", "properties": { "内容": "地域密着型特別養護老人ホ－ムときわ苑【地域密着型介護老人福祉施設入所者生活介護】岩手県奥州市水沢中田町4番18号", "url": "https://www.kaigokensaku.mhlw.go.jp/03/index.php?action_kouhyou_detail_004_kani=true&JigyosyoCd=0391500295-00&ServiceCd=540&Type=search", "url2": "http://fukushinkai-iwate.com" }, "geometry": { "type": "Point", "coordinates": [ 141.152535752253698, 39.132759717199278 ] } },
{ "type": "Feature", "properties": { "内容": "地域密着型小規模特別養護老人ホーム聖愛園にっかわ【地域密着型介護老人福祉施設入所者生活介護】岩手県奥州市江刺愛宕字八日市1-2", "url": "https://www.kaigokensaku.mhlw.go.jp/03/index.php?action_kouhyou_detail_004_kani=true&JigyosyoCd=0391500113-00&ServiceCd=540&Type=search", "url2": "https://seiaiikuseikai.or.jp" }, "geometry": { "type": "Point", "coordinates": [ 141.160120799999959, 39.1862496 ] } },
{ "type": "Feature", "properties": { "内容": "特別養護老人ホームさくら【地域密着型介護老人福祉施設入所者生活介護】岩手県奥州市胆沢小山字道場251番特別養護老人ホームさくら・101号室から225号室まで", "url": "https://www.kaigokensaku.mhlw.go.jp/03/index.php?action_kouhyou_detail_004_kani=true&JigyosyoCd=0391500329-00&ServiceCd=540&Type=search", "url2": "http://www.swc-kouseikai.info/index.html" }, "geometry": { "type": "Point", "coordinates": [ 141.078312, 39.097693300000017 ] } },
{ "type": "Feature", "properties": { "内容": "地域密着型特別養護老人ホームすみれ荘【地域密着型介護老人福祉施設入所者生活介護】岩手県岩手郡葛巻町葛巻第60地割132番地5", "url": "https://www.kaigokensaku.mhlw.go.jp/03/index.php?action_kouhyou_detail_004_kani=true&JigyosyoCd=0392100087-00&ServiceCd=540&Type=search", "url2": "https://seishinseii-sw.or.jp/sumire/" }, "geometry": { "type": "Point", "coordinates": [ 141.440044199999988, 40.083949 ] } },
{ "type": "Feature", "properties": { "内容": "特別養護老人ホームラベンダー地域密着型事業所【地域密着型介護老人福祉施設入所者生活介護】岩手県岩手郡岩手町大字江刈内第10地割28番地3", "url": "https://www.kaigokensaku.mhlw.go.jp/03/index.php?action_kouhyou_detail_004_kani=true&JigyosyoCd=0390190007-00&ServiceCd=540&Type=search", "url2": "http://lavender.nisshindo-g.com/" }, "geometry": { "type": "Point", "coordinates": [ 141.224306487588478, 39.965872729183403 ] } },
{ "type": "Feature", "properties": { "内容": "介護老人福祉施設悠和荘【地域密着型介護老人福祉施設入所者生活介護】岩手県紫波郡矢巾町大字広宮沢1-2-312", "url": "https://www.kaigokensaku.mhlw.go.jp/03/index.php?action_kouhyou_detail_004_kani=true&JigyosyoCd=0392200028-00&ServiceCd=540&Type=search", "url2": "http://www.shiwasou.jp/" }, "geometry": { "type": "Point", "coordinates": [ 141.089068399999974, 39.6232767 ] } },
{ "type": "Feature", "properties": { "内容": "特別養護老人ホーム友愛の家【地域密着型介護老人福祉施設入所者生活介護】岩手県胆沢郡金ケ崎町西根揚場後８番地８", "url": "https://www.kaigokensaku.mhlw.go.jp/03/index.php?action_kouhyou_detail_004_kani=true&JigyosyoCd=0392500054-00&ServiceCd=540&Type=search", "url2": "http://www.yuaikai-kanegasaki.com/" }, "geometry": { "type": "Point", "coordinates": [ 141.10518419999994, 39.1870123 ] } },
{ "type": "Feature", "properties": { "内容": "地域密着型特別養護老人ホーム穂の香の郷【地域密着型介護老人福祉施設入所者生活介護】岩手県胆沢郡金ヶ崎町西根北荒巻21番地19", "url": "https://www.kaigokensaku.mhlw.go.jp/03/index.php?action_kouhyou_detail_004_kani=true&JigyosyoCd=0392500070-00&ServiceCd=540&Type=search", "url2": "https://furusato.oshushi.com" }, "geometry": { "type": "Point", "coordinates": [ 141.093317736245695, 39.220872606043081 ] } },
{ "type": "Feature", "properties": { "内容": "特別養護老人ホームいこいの結【地域密着型介護老人福祉施設入所者生活介護】岩手県西磐井郡平泉町長島字竜ヶ坂42番地", "url": "https://www.kaigokensaku.mhlw.go.jp/03/index.php?action_kouhyou_detail_004_kani=true&JigyosyoCd=0392600045-00&ServiceCd=540&Type=search", "url2": "http://www.cc-ikoi.com/yui/" }, "geometry": { "type": "Point", "coordinates": [ 141.136371700000041, 39.0040947 ] } },
{ "type": "Feature", "properties": { "内容": "特別養護老人ホームリアス倶楽部【地域密着型介護老人福祉施設入所者生活介護】岩手県下閉伊郡田野畑村奥地１３番地", "url": "https://www.kaigokensaku.mhlw.go.jp/03/index.php?action_kouhyou_detail_004_kani=true&JigyosyoCd=0393000062-00&ServiceCd=540&Type=search", "url2": "http://www.riasclub.com" }, "geometry": { "type": "Point", "coordinates": [ 141.827681100000063, 39.9413869 ] } },
{ "type": "Feature", "properties": { "内容": "特別養護老人ホーム結の里【地域密着型介護老人福祉施設入所者生活介護】岩手県九戸郡野田村大字玉川第5地割45-22", "url": "https://www.kaigokensaku.mhlw.go.jp/03/index.php?action_kouhyou_detail_004_kani=true&JigyosyoCd=0393100136-00&ServiceCd=540&Type=search", "url2": "https://kenjikai-officialhomepage.vercel.app/" }, "geometry": { "type": "Point", "coordinates": [ 141.828184592729258, 40.083066641493161 ] } },
{ "type": "Feature", "properties": { "内容": "地域密着型特別養護老人ホーム折爪荘【地域密着型介護老人福祉施設入所者生活介護】岩手県九戸郡九戸村大字伊保内第9地割73番地", "url": "https://www.kaigokensaku.mhlw.go.jp/03/index.php?action_kouhyou_detail_004_kani=true&JigyosyoCd=0393100169-00&ServiceCd=540&Type=search", "url2": "http://www.oritsumesou.or.jp" }, "geometry": { "type": "Point", "coordinates": [ 141.421604500000058, 40.2142998 ] } },
{ "type": "Feature", "properties": { "内容": "地域密着型特別養護老人ホームおりつめの里【地域密着型介護老人福祉施設入所者生活介護】岩手県九戸郡九戸村大字伊保内第7地割35番地1", "url": "https://www.kaigokensaku.mhlw.go.jp/03/index.php?action_kouhyou_detail_004_kani=true&JigyosyoCd=0393100144-00&ServiceCd=540&Type=search", "url2": "http://www.oritsumesou.or.jp" }, "geometry": { "type": "Point", "coordinates": [ 141.420585199999977, 40.2111307 ] } },
{ "type": "Feature", "properties": { "内容": "地域密着型介護老人福祉施設入所者生活介護じょうない【地域密着型介護老人福祉施設入所者生活介護】岩手県九戸郡洋野町種市第56地割80番地", "url": "https://www.kaigokensaku.mhlw.go.jp/03/index.php?action_kouhyou_detail_004_kani=true&JigyosyoCd=0393100110-00&ServiceCd=540&Type=search", "url2": "http://www.jinseikai-jyounai.com" }, "geometry": { "type": "Point", "coordinates": [ 141.641734700000029, 40.3978942 ] } },
{ "type": "Feature", "properties": { "内容": "地域密着型特別養護老人ホーム慶寿園【地域密着型介護老人福祉施設入所者生活介護】岩手県二戸郡一戸町姉帯字下村24番地1", "url": "https://www.kaigokensaku.mhlw.go.jp/03/index.php?action_kouhyou_detail_004_kani=true&JigyosyoCd=0393200019-00&ServiceCd=540&Type=search", "url2": "http://iwate-jikoukai.jp/" }, "geometry": { "type": "Point", "coordinates": [ 141.336454300000014, 40.1659783 ] } },
{ "type": "Feature", "properties": { "内容": "一戸町特別養護老人ホーム【地域密着型介護老人福祉施設入所者生活介護】岩手県二戸郡一戸町一戸字田中７２番地１", "url": "https://www.kaigokensaku.mhlw.go.jp/03/index.php?action_kouhyou_detail_004_kani=true&JigyosyoCd=0373200310-00&ServiceCd=540&Type=search", "url2": "https://yuaiservice.co.jp" }, "geometry": { "type": "Point", "coordinates": [ 141.306981599999972, 40.2078646 ] } }
]
}
