{
"type": "FeatureCollection",
"name": "geo_03_訪問入浴介護",
"crs": { "type": "name", "properties": { "name": "urn:ogc:def:crs:OGC:1.3:CRS84" } },
"features": [
{ "type": "Feature", "properties": { "内容": "アースサポート盛岡【訪問入浴介護】岩手県盛岡市厨川1丁目16番3号", "url2": "https://www.kaigokensaku.mhlw.go.jp/03/index.php?action_kouhyou_detail_004_kani=true&JigyosyoCd=0370101933-00&ServiceCd=120&Type=search" }, "geometry": { "type": "Point", "coordinates": [ 141.130384700000036, 39.7447535 ] } },
{ "type": "Feature", "properties": { "内容": "ツクイ盛岡【訪問入浴介護】岩手県盛岡市東黒石野2丁目1番5号", "url2": "https://www.kaigokensaku.mhlw.go.jp/03/index.php?action_kouhyou_detail_004_kani=true&JigyosyoCd=0370107427-00&ServiceCd=120&Type=search" }, "geometry": { "type": "Point", "coordinates": [ 141.152812, 39.7483588 ] } },
{ "type": "Feature", "properties": { "内容": "宮古市社会福祉協議会訪問入浴サービスセンター【訪問入浴介護】岩手県宮古市小山田二丁目9番20号", "url2": "https://www.kaigokensaku.mhlw.go.jp/03/index.php?action_kouhyou_detail_004_kani=true&JigyosyoCd=0370200081-00&ServiceCd=120&Type=search" }, "geometry": { "type": "Point", "coordinates": [ 141.9399439, 39.6349594 ] } },
{ "type": "Feature", "properties": { "内容": "指定訪問入浴介護事業所サンホームみやこ【訪問入浴介護】岩手県宮古市崎鍬ヶ崎第4地割1番地20", "url2": "https://www.kaigokensaku.mhlw.go.jp/03/index.php?action_kouhyou_detail_004_kani=true&JigyosyoCd=0370200115-00&ServiceCd=120&Type=search" }, "geometry": { "type": "Point", "coordinates": [ 141.951620600000069, 39.6597928 ] } },
{ "type": "Feature", "properties": { "内容": "大船渡市社会福祉協議会指定訪問入浴介護事業所【訪問入浴介護】岩手県大船渡市盛町字下舘下１４－１大船渡市総合福祉センター", "url2": "https://www.kaigokensaku.mhlw.go.jp/03/index.php?action_kouhyou_detail_004_kani=true&JigyosyoCd=0370300055-00&ServiceCd=120&Type=search" }, "geometry": { "type": "Point", "coordinates": [ 141.712077, 39.0791932 ] } },
{ "type": "Feature", "properties": { "内容": "花巻市社会福祉協議会指定矢沢訪問入浴介護事業所【訪問入浴介護】岩手県花巻市高松第３地割85番地1矢沢地域福祉センター", "url2": "https://www.kaigokensaku.mhlw.go.jp/03/index.php?action_kouhyou_detail_004_kani=true&JigyosyoCd=0370500167-00&ServiceCd=120&Type=search" }, "geometry": { "type": "Point", "coordinates": [ 141.15925249999998, 39.3913903 ] } },
{ "type": "Feature", "properties": { "内容": "花巻市社会福祉協議会指定大迫訪問入浴介護事業所【訪問入浴介護】岩手県花巻市大迫町大迫第13地割23番地1", "url2": "https://www.kaigokensaku.mhlw.go.jp/03/index.php?action_kouhyou_detail_004_kani=true&JigyosyoCd=0372300079-00&ServiceCd=120&Type=search" }, "geometry": { "type": "Point", "coordinates": [ 141.2791482, 39.4713945 ] } },
{ "type": "Feature", "properties": { "内容": "アイリス花巻指定訪問入浴介護事業所【訪問入浴介護】岩手県花巻市南万丁目970番地2", "url2": "https://www.kaigokensaku.mhlw.go.jp/03/index.php?action_kouhyou_detail_004_kani=true&JigyosyoCd=0370500274-00&ServiceCd=120&Type=search" }, "geometry": { "type": "Point", "coordinates": [ 141.0987083, 39.3912805 ] } },
{ "type": "Feature", "properties": { "内容": "アースサポート花巻【訪問入浴介護】岩手県花巻市不動町2丁目1番地8", "url2": "https://www.kaigokensaku.mhlw.go.jp/03/index.php?action_kouhyou_detail_004_kani=true&JigyosyoCd=0370501223-00&ServiceCd=120&Type=search" }, "geometry": { "type": "Point", "coordinates": [ 141.111404799999946, 39.3767132 ] } },
{ "type": "Feature", "properties": { "内容": "アスケア訪問入浴花巻【訪問入浴介護】岩手県花巻市上諏訪457番地25", "url2": "https://www.kaigokensaku.mhlw.go.jp/03/index.php?action_kouhyou_detail_004_kani=true&JigyosyoCd=0370501983-00&ServiceCd=120&Type=search" }, "geometry": { "type": "Point", "coordinates": [ 141.10500513510695, 39.374924035934754 ] } },
{ "type": "Feature", "properties": { "内容": "かなえケアステーション【訪問入浴介護】岩手県遠野市穀町１３－１", "url2": "https://www.kaigokensaku.mhlw.go.jp/03/index.php?action_kouhyou_detail_004_kani=true&JigyosyoCd=0370800427-00&ServiceCd=120&Type=search" }, "geometry": { "type": "Point", "coordinates": [ 141.53276690000007, 39.3292071 ] } },
{ "type": "Feature", "properties": { "内容": "ヘルパーステーション薬研淵【訪問入浴介護】岩手県遠野市松崎町白岩字薬研淵1-3", "url2": "https://www.kaigokensaku.mhlw.go.jp/03/index.php?action_kouhyou_detail_004_kani=true&JigyosyoCd=0370800054-00&ServiceCd=120&Type=search" }, "geometry": { "type": "Point", "coordinates": [ 141.536671500000011, 39.3434499 ] } },
{ "type": "Feature", "properties": { "内容": "ツクイ一関【訪問入浴介護】岩手県一関市東五代6番30号", "url2": "https://www.kaigokensaku.mhlw.go.jp/03/index.php?action_kouhyou_detail_004_kani=true&JigyosyoCd=0370901993-00&ServiceCd=120&Type=search" }, "geometry": { "type": "Point", "coordinates": [ 141.130752, 38.9407697 ] } },
{ "type": "Feature", "properties": { "内容": "アースサポート一関【訪問入浴介護】岩手県一関市上大槻街4-23", "url2": "https://www.kaigokensaku.mhlw.go.jp/03/index.php?action_kouhyou_detail_004_kani=true&JigyosyoCd=0370901084-00&ServiceCd=120&Type=search" }, "geometry": { "type": "Point", "coordinates": [ 141.138485599999967, 38.9301883 ] } },
{ "type": "Feature", "properties": { "内容": "アスケア訪問入浴　一関【訪問入浴介護】岩手県一関市山目字十二神122-3", "url2": "https://www.kaigokensaku.mhlw.go.jp/03/index.php?action_kouhyou_detail_004_kani=true&JigyosyoCd=0370901811-00&ServiceCd=120&Type=search" }, "geometry": { "type": "Point", "coordinates": [ 141.116081272884998, 38.928369697452403 ] } },
{ "type": "Feature", "properties": { "内容": "フォレスト訪問入浴サービス東磐井【訪問入浴介護】岩手県一関市萩荘字打ノ目255-1", "url2": "https://www.kaigokensaku.mhlw.go.jp/03/index.php?action_kouhyou_detail_004_kani=true&JigyosyoCd=0370901761-00&ServiceCd=120&Type=search" }, "geometry": { "type": "Point", "coordinates": [ 141.095882811482056, 38.918505527389975 ] } },
{ "type": "Feature", "properties": { "内容": "訪問入浴春夏秋冬【訪問入浴介護】岩手県一関市千厩町千厩字下駒場294番地18", "url2": "https://www.kaigokensaku.mhlw.go.jp/03/index.php?action_kouhyou_detail_004_kani=true&JigyosyoCd=0370902025-00&ServiceCd=120&Type=search" }, "geometry": { "type": "Point", "coordinates": [ 141.344161899999989, 38.9239447 ] } },
{ "type": "Feature", "properties": { "内容": "高寿園指定訪問入浴介護事業所【訪問入浴介護】岩手県陸前高田市高田町字東和野６７サポートセンター内", "url2": "https://www.kaigokensaku.mhlw.go.jp/03/index.php?action_kouhyou_detail_004_kani=true&JigyosyoCd=0371000092-00&ServiceCd=120&Type=search" }, "geometry": { "type": "Point", "coordinates": [ 141.639076899999964, 39.0221729 ] } },
{ "type": "Feature", "properties": { "内容": "いきいき指定訪問入浴介護センター【訪問入浴介護】岩手県釜石市鵜住居町2-20-1いきいき福祉センター", "url2": "https://www.kaigokensaku.mhlw.go.jp/03/index.php?action_kouhyou_detail_004_kani=true&JigyosyoCd=0371100322-00&ServiceCd=120&Type=search" }, "geometry": { "type": "Point", "coordinates": [ 141.84735477102808, 39.344924374373882 ] } },
{ "type": "Feature", "properties": { "内容": "二戸市社会福祉協議会訪問入浴介護事業所【訪問入浴介護】岩手県二戸市仁左平字横手２番地３", "url2": "https://www.kaigokensaku.mhlw.go.jp/03/index.php?action_kouhyou_detail_004_kani=true&JigyosyoCd=0371300088-00&ServiceCd=120&Type=search" }, "geometry": { "type": "Point", "coordinates": [ 141.30874289999997, 40.3035225 ] } },
{ "type": "Feature", "properties": { "内容": "浄法寺訪問入浴介護事業所【訪問入浴介護】岩手県二戸市浄法寺町小池３番地ほほえみセンター", "url2": "https://www.kaigokensaku.mhlw.go.jp/03/index.php?action_kouhyou_detail_004_kani=true&JigyosyoCd=0373200146-00&ServiceCd=120&Type=search" }, "geometry": { "type": "Point", "coordinates": [ 141.1574534, 40.1844415 ] } },
{ "type": "Feature", "properties": { "内容": "やまゆり荘訪問入浴介護事業所【訪問入浴介護】岩手県奥州市胆沢南都田字加賀谷地416", "url2": "https://www.kaigokensaku.mhlw.go.jp/03/index.php?action_kouhyou_detail_004_kani=true&JigyosyoCd=0372500165-00&ServiceCd=120&Type=search" }, "geometry": { "type": "Point", "coordinates": [ 141.072421898182256, 39.11679981584701 ] } },
{ "type": "Feature", "properties": { "内容": "アースサポート奥州【訪問入浴介護】岩手県奥州市水沢後田16－4", "url2": "https://www.kaigokensaku.mhlw.go.jp/03/index.php?action_kouhyou_detail_004_kani=true&JigyosyoCd=0371500331-00&ServiceCd=120&Type=search" }, "geometry": { "type": "Point", "coordinates": [ 141.122645299999931, 39.1433034 ] } },
{ "type": "Feature", "properties": { "内容": "社会福祉法人康済会訪問入浴介護サービス事業所【訪問入浴介護】岩手県滝沢市大釜竹鼻163番地14", "url2": "https://www.kaigokensaku.mhlw.go.jp/03/index.php?action_kouhyou_detail_004_kani=true&JigyosyoCd=0372100735-00&ServiceCd=120&Type=search" }, "geometry": { "type": "Point", "coordinates": [ 141.072118478637663, 39.703132539474083 ] } },
{ "type": "Feature", "properties": { "内容": "訪問入浴介護やはば【訪問入浴介護】岩手県紫波郡矢巾町大字又兵ェ新田第5地割335番地医療福祉多機能ビル　　ケアセンター南昌", "url2": "https://www.kaigokensaku.mhlw.go.jp/03/index.php?action_kouhyou_detail_004_kani=true&JigyosyoCd=0372200212-00&ServiceCd=120&Type=search" }, "geometry": { "type": "Point", "coordinates": [ 141.146942404615743, 39.613491928200276 ] } },
{ "type": "Feature", "properties": { "内容": "訪問入浴にしわが【訪問入浴介護】岩手県和賀郡西和賀町川尻40地割73番地82", "url2": "https://www.kaigokensaku.mhlw.go.jp/03/index.php?action_kouhyou_detail_004_kani=true&JigyosyoCd=0372400135-00&ServiceCd=120&Type=search" }, "geometry": { "type": "Point", "coordinates": [ 140.775447, 39.3140542 ] } },
{ "type": "Feature", "properties": { "内容": "住田町社会福祉協議会指定訪問入浴介護事業所【訪問入浴介護】岩手県気仙郡住田町上有住字和田野12-5", "url2": "https://www.kaigokensaku.mhlw.go.jp/03/index.php?action_kouhyou_detail_004_kani=true&JigyosyoCd=0372800052-00&ServiceCd=120&Type=search" }, "geometry": { "type": "Point", "coordinates": [ 141.599721044319153, 39.194481245189991 ] } },
{ "type": "Feature", "properties": { "内容": "大槌町社協指定訪問入浴介護事業所【訪問入浴介護】岩手県上閉伊郡大槌町大槌第12地割71番2大槌町社会福祉協議会介護サービスステーション", "url2": "https://www.kaigokensaku.mhlw.go.jp/03/index.php?action_kouhyou_detail_004_kani=true&JigyosyoCd=0372900126-00&ServiceCd=120&Type=search" }, "geometry": { "type": "Point", "coordinates": [ 141.885123370287715, 39.381093361587666 ] } },
{ "type": "Feature", "properties": { "内容": "有限会社あすなろ指定訪問入浴介護事業所【訪問入浴介護】岩手県下閉伊郡山田町長崎4-14-1", "url2": "https://www.kaigokensaku.mhlw.go.jp/03/index.php?action_kouhyou_detail_004_kani=true&JigyosyoCd=0373000355-00&ServiceCd=120&Type=search" }, "geometry": { "type": "Point", "coordinates": [ 141.944656200000054, 39.4620654 ] } },
{ "type": "Feature", "properties": { "内容": "山田町社協指定訪問入浴介護事業所【訪問入浴介護】岩手県下閉伊郡山田町山田第１５地割８２番地２", "url2": "https://www.kaigokensaku.mhlw.go.jp/03/index.php?action_kouhyou_detail_004_kani=true&JigyosyoCd=0373000199-00&ServiceCd=120&Type=search" }, "geometry": { "type": "Point", "coordinates": [ 141.936573642761232, 39.47479738202523 ] } },
{ "type": "Feature", "properties": { "内容": "岩泉町社協指定訪問入浴介護事業所【訪問入浴介護】岩手県下閉伊郡岩泉町岩泉字森の越４－１４", "url2": "https://www.kaigokensaku.mhlw.go.jp/03/index.php?action_kouhyou_detail_004_kani=true&JigyosyoCd=0373000421-00&ServiceCd=120&Type=search" }, "geometry": { "type": "Point", "coordinates": [ 141.8002, 39.8472362 ] } }
]
}
