{
"type": "FeatureCollection",
"name": "geo_03_小学校",
"crs": { "type": "name", "properties": { "name": "urn:ogc:def:crs:EPSG::6668" } },
"features": [
{ "type": "Feature", "properties": { "P29_001": "03201", "P29_002": "B103110000018", "P29_003": "16001", "P29_004": "岩手大学教育学部附属小学校", "P29_005": "岩手県盛岡市加賀野2-6-1", "P29_006": "1", "P29_007": "1", "P29_008": "00", "P29_009": null }, "geometry": { "type": "Point", "coordinates": [ 141.165462330152366, 39.706087030013684 ] } },
{ "type": "Feature", "properties": { "P29_001": "03201", "P29_002": "B103220100014", "P29_003": "16001", "P29_004": "盛岡市立仁王小学校", "P29_005": "岩手県盛岡市本町通り2-18-1", "P29_006": "3", "P29_007": "1", "P29_008": "00", "P29_009": null }, "geometry": { "type": "Point", "coordinates": [ 141.148426004448396, 39.710035004167977 ] } },
{ "type": "Feature", "properties": { "P29_001": "03201", "P29_002": "B103220100023", "P29_003": "16001", "P29_004": "盛岡市立城南小学校", "P29_005": "岩手県盛岡市若園町9-20", "P29_006": "3", "P29_007": "1", "P29_008": "00", "P29_009": null }, "geometry": { "type": "Point", "coordinates": [ 141.161177329564936, 39.703539701786895 ] } },
{ "type": "Feature", "properties": { "P29_001": "03201", "P29_002": "B103220100032", "P29_003": "16001", "P29_004": "盛岡市立桜城小学校", "P29_005": "岩手県盛岡市大通3-8-1", "P29_006": "3", "P29_007": "1", "P29_008": "00", "P29_009": null }, "geometry": { "type": "Point", "coordinates": [ 141.141153826242828, 39.704272499563402 ] } },
{ "type": "Feature", "properties": { "P29_001": "03201", "P29_002": "B103220100041", "P29_003": "16001", "P29_004": "盛岡市立厨川小学校", "P29_005": "岩手県盛岡市前九年1-2-1", "P29_006": "3", "P29_007": "1", "P29_008": "00", "P29_009": null }, "geometry": { "type": "Point", "coordinates": [ 141.128876539963244, 39.713384781299865 ] } },
{ "type": "Feature", "properties": { "P29_001": "03201", "P29_002": "B103220100050", "P29_003": "16001", "P29_004": "盛岡市立仙北小学校", "P29_005": "岩手県盛岡市仙北2-19-1", "P29_006": "3", "P29_007": "1", "P29_008": "00", "P29_009": null }, "geometry": { "type": "Point", "coordinates": [ 141.1526834200113, 39.685842207015611 ] } },
{ "type": "Feature", "properties": { "P29_001": "03201", "P29_002": "B103220100069", "P29_003": "16001", "P29_004": "盛岡市立杜陵小学校", "P29_005": "岩手県盛岡市肴町1-6", "P29_006": "3", "P29_007": "1", "P29_008": "00", "P29_009": null }, "geometry": { "type": "Point", "coordinates": [ 141.152308137117615, 39.698747784782917 ] } },
{ "type": "Feature", "properties": { "P29_001": "03201", "P29_002": "B103220100078", "P29_003": "16001", "P29_004": "盛岡市立山岸小学校", "P29_005": "岩手県盛岡市山岸2-13-1", "P29_006": "3", "P29_007": "1", "P29_008": "00", "P29_009": null }, "geometry": { "type": "Point", "coordinates": [ 141.169353918494693, 39.714209764034436 ] } },
{ "type": "Feature", "properties": { "P29_001": "03201", "P29_002": "B103220100087", "P29_003": "16001", "P29_004": "盛岡市立大慈寺小学校", "P29_005": "岩手県盛岡市大慈寺町6-47", "P29_006": "3", "P29_007": "1", "P29_008": "00", "P29_009": null }, "geometry": { "type": "Point", "coordinates": [ 141.158182786511276, 39.692733354384877 ] } },
{ "type": "Feature", "properties": { "P29_001": "03201", "P29_002": "B103220100096", "P29_003": "16001", "P29_004": "盛岡市立米内小学校", "P29_005": "岩手県盛岡市上米内字米内沢50-9", "P29_006": "3", "P29_007": "1", "P29_008": "00", "P29_009": null }, "geometry": { "type": "Point", "coordinates": [ 141.201139089486929, 39.754839935306677 ] } },
{ "type": "Feature", "properties": { "P29_001": "03201", "P29_002": "B103220100103", "P29_003": "16001", "P29_004": "盛岡市立土淵小学校", "P29_005": "岩手県盛岡市土淵字幅2-3", "P29_006": "3", "P29_007": "1", "P29_008": "00", "P29_009": null }, "geometry": { "type": "Point", "coordinates": [ 141.091605023361637, 39.713247191937228 ] } },
{ "type": "Feature", "properties": { "P29_001": "03201", "P29_002": "B103220100112", "P29_003": "16001", "P29_004": "盛岡市立中野小学校", "P29_005": "岩手県盛岡市中野2-12-1", "P29_006": "3", "P29_007": "1", "P29_008": "00", "P29_009": null }, "geometry": { "type": "Point", "coordinates": [ 141.166647573993771, 39.690923793022996 ] } },
{ "type": "Feature", "properties": { "P29_001": "03201", "P29_002": "B103220100121", "P29_003": "16001", "P29_004": "盛岡市立本宮小学校", "P29_005": "岩手県盛岡市本宮2-25-1", "P29_006": "3", "P29_007": "1", "P29_008": "00", "P29_009": null }, "geometry": { "type": "Point", "coordinates": [ 141.139847439680238, 39.687935645966832 ] } },
{ "type": "Feature", "properties": { "P29_001": "03201", "P29_002": "B103220100130", "P29_003": "16001", "P29_004": "盛岡市立青山小学校", "P29_005": "岩手県盛岡市青山2-7-2", "P29_006": "3", "P29_007": "1", "P29_008": "00", "P29_009": null }, "geometry": { "type": "Point", "coordinates": [ 141.113449893265027, 39.724330843264845 ] } },
{ "type": "Feature", "properties": { "P29_001": "03201", "P29_002": "B103220100149", "P29_003": "16001", "P29_004": "盛岡市立北厨川小学校", "P29_005": "岩手県盛岡市厨川3-5-1", "P29_006": "3", "P29_007": "1", "P29_008": "00", "P29_009": null }, "geometry": { "type": "Point", "coordinates": [ 141.134955431561565, 39.75109538721302 ] } },
{ "type": "Feature", "properties": { "P29_001": "03201", "P29_002": "B103220100158", "P29_003": "16001", "P29_004": "盛岡市立河北小学校", "P29_005": "岩手県盛岡市長田町16-1", "P29_006": "3", "P29_007": "1", "P29_008": "00", "P29_009": null }, "geometry": { "type": "Point", "coordinates": [ 141.139530991700468, 39.710056138747454 ] } },
{ "type": "Feature", "properties": { "P29_001": "03201", "P29_002": "B103220100167", "P29_003": "16001", "P29_004": "盛岡市立上田小学校", "P29_005": "岩手県盛岡市上田3-16-45", "P29_006": "3", "P29_007": "1", "P29_008": "00", "P29_009": null }, "geometry": { "type": "Point", "coordinates": [ 141.13855264534331, 39.719231751830982 ] } },
{ "type": "Feature", "properties": { "P29_001": "03201", "P29_002": "B103220100176", "P29_003": "16001", "P29_004": "盛岡市立山王小学校", "P29_005": "岩手県盛岡市小杉山3-1", "P29_006": "3", "P29_007": "1", "P29_008": "00", "P29_009": null }, "geometry": { "type": "Point", "coordinates": [ 141.169904520055326, 39.696800156689761 ] } },
{ "type": "Feature", "properties": { "P29_001": "03201", "P29_002": "B103220100185", "P29_003": "16001", "P29_004": "盛岡市立緑が丘小学校", "P29_005": "岩手県盛岡市黒石野1-6-1", "P29_006": "3", "P29_007": "1", "P29_008": "00", "P29_009": null }, "geometry": { "type": "Point", "coordinates": [ 141.148023856464249, 39.7395069187573 ] } },
{ "type": "Feature", "properties": { "P29_001": "03201", "P29_002": "B103220100194", "P29_003": "16001", "P29_004": "盛岡市立太田小学校", "P29_005": "岩手県盛岡市上太田上吉本1-1", "P29_006": "3", "P29_007": "1", "P29_008": "00", "P29_009": null }, "geometry": { "type": "Point", "coordinates": [ 141.080165817735036, 39.688032446116424 ] } },
{ "type": "Feature", "properties": { "P29_001": "03201", "P29_002": "B103220100201", "P29_003": "16001", "P29_004": "盛岡市立太田東小学校", "P29_005": "岩手県盛岡市上太田上野屋敷8-1", "P29_006": "3", "P29_007": "1", "P29_008": "00", "P29_009": null }, "geometry": { "type": "Point", "coordinates": [ 141.096764000433154, 39.693645995116448 ] } },
{ "type": "Feature", "properties": { "P29_001": "03201", "P29_002": "B103220100229", "P29_003": "16001", "P29_004": "盛岡市立城北小学校", "P29_005": "岩手県盛岡市みたけ3-12-1", "P29_006": "3", "P29_007": "1", "P29_008": "00", "P29_009": null }, "geometry": { "type": "Point", "coordinates": [ 141.114236426154406, 39.73939108137705 ] } },
{ "type": "Feature", "properties": { "P29_001": "03201", "P29_002": "B103220100238", "P29_003": "16001", "P29_004": "盛岡市立大新小学校", "P29_005": "岩手県盛岡市南青山町6-10", "P29_006": "3", "P29_007": "1", "P29_008": "00", "P29_009": null }, "geometry": { "type": "Point", "coordinates": [ 141.114639226410958, 39.718180622133751 ] } },
{ "type": "Feature", "properties": { "P29_001": "03201", "P29_002": "B103220100247", "P29_003": "16001", "P29_004": "盛岡市立松園小学校", "P29_005": "岩手県盛岡市松園3-12-1", "P29_006": "3", "P29_007": "1", "P29_008": "00", "P29_009": null }, "geometry": { "type": "Point", "coordinates": [ 141.162257425020982, 39.751188198940731 ] } },
{ "type": "Feature", "properties": { "P29_001": "03201", "P29_002": "B103220100256", "P29_003": "16001", "P29_004": "盛岡市立玉山小学校", "P29_005": "岩手県盛岡市日戸字市の坪53", "P29_006": "3", "P29_007": "1", "P29_008": "00", "P29_009": null }, "geometry": { "type": "Point", "coordinates": [ 141.19769399881946, 39.799065706539686 ] } },
{ "type": "Feature", "properties": { "P29_001": "03201", "P29_002": "B103220100265", "P29_003": "16001", "P29_004": "盛岡市立渋民小学校", "P29_005": "岩手県盛岡市渋民字鶴塚114", "P29_006": "3", "P29_007": "1", "P29_008": "00", "P29_009": null }, "geometry": { "type": "Point", "coordinates": [ 141.167752214448626, 39.847624830258695 ] } },
{ "type": "Feature", "properties": { "P29_001": "03201", "P29_002": "B103220100274", "P29_003": "16001", "P29_004": "盛岡市立生出小学校", "P29_005": "岩手県盛岡市下田字仲平59-36", "P29_006": "3", "P29_007": "1", "P29_008": "00", "P29_009": null }, "geometry": { "type": "Point", "coordinates": [ 141.124614502745544, 39.859930219851414 ] } },
{ "type": "Feature", "properties": { "P29_001": "03201", "P29_002": "B103220100283", "P29_003": "16001", "P29_004": "盛岡市立巻堀小学校", "P29_005": "岩手県盛岡市巻堀字巻堀12-1", "P29_006": "3", "P29_007": "1", "P29_008": "00", "P29_009": null }, "geometry": { "type": "Point", "coordinates": [ 141.195234360704916, 39.894027761601514 ] } },
{ "type": "Feature", "properties": { "P29_001": "03201", "P29_002": "B103220100292", "P29_003": "16001", "P29_004": "盛岡市立好摩小学校", "P29_005": "岩手県盛岡市好摩字夏間木70-60", "P29_006": "3", "P29_007": "1", "P29_008": "00", "P29_009": null }, "geometry": { "type": "Point", "coordinates": [ 141.168760828646526, 39.873551131717257 ] } },
{ "type": "Feature", "properties": { "P29_001": "03201", "P29_002": "B103220100309", "P29_003": "16001", "P29_004": "盛岡市立見前小学校", "P29_005": "岩手県盛岡市西見前18-17-2", "P29_006": "3", "P29_007": "1", "P29_008": "00", "P29_009": null }, "geometry": { "type": "Point", "coordinates": [ 141.162530489335808, 39.64843527367421 ] } },
{ "type": "Feature", "properties": { "P29_001": "03201", "P29_002": "B103220100318", "P29_003": "16001", "P29_004": "盛岡市立飯岡小学校", "P29_005": "岩手県盛岡市下飯岡8-48", "P29_006": "3", "P29_007": "1", "P29_008": "00", "P29_009": null }, "geometry": { "type": "Point", "coordinates": [ 141.124705362608267, 39.667683196726273 ] } },
{ "type": "Feature", "properties": { "P29_001": "03201", "P29_002": "B103220100327", "P29_003": "16001", "P29_004": "盛岡市立羽場小学校", "P29_005": "岩手県盛岡市羽場17-55-2", "P29_006": "3", "P29_007": "1", "P29_008": "00", "P29_009": null }, "geometry": { "type": "Point", "coordinates": [ 141.112290884110365, 39.654704119821481 ] } },
{ "type": "Feature", "properties": { "P29_001": "03201", "P29_002": "B103220100336", "P29_003": "16001", "P29_004": "盛岡市立永井小学校", "P29_005": "岩手県盛岡市永井10-16", "P29_006": "3", "P29_007": "1", "P29_008": "00", "P29_009": null }, "geometry": { "type": "Point", "coordinates": [ 141.140959676720655, 39.653152988107387 ] } },
{ "type": "Feature", "properties": { "P29_001": "03201", "P29_002": "B103220100345", "P29_003": "16001", "P29_004": "盛岡市立手代森小学校", "P29_005": "岩手県盛岡市手代森22-47", "P29_006": "3", "P29_007": "1", "P29_008": "00", "P29_009": null }, "geometry": { "type": "Point", "coordinates": [ 141.186952137083352, 39.639648507084267 ] } },
{ "type": "Feature", "properties": { "P29_001": "03201", "P29_002": "B103220100354", "P29_003": "16001", "P29_004": "盛岡市立津志田小学校", "P29_005": "岩手県盛岡市津志田中央1-8-40", "P29_006": "3", "P29_007": "1", "P29_008": "00", "P29_009": null }, "geometry": { "type": "Point", "coordinates": [ 141.155135865175481, 39.663873940867447 ] } },
{ "type": "Feature", "properties": { "P29_001": "03201", "P29_002": "B103220100363", "P29_003": "16001", "P29_004": "盛岡市立見前南小学校", "P29_005": "岩手県盛岡市西見前13-167", "P29_006": "3", "P29_007": "1", "P29_008": "00", "P29_009": null }, "geometry": { "type": "Point", "coordinates": [ 141.164314387049018, 39.639663165435238 ] } },
{ "type": "Feature", "properties": { "P29_001": "03216", "P29_002": "B103220100372", "P29_003": "16001", "P29_004": "盛岡市立月が丘小学校", "P29_005": "岩手県滝沢市穴口328", "P29_006": "3", "P29_007": "1", "P29_008": "00", "P29_009": null }, "geometry": { "type": "Point", "coordinates": [ 141.103010122193695, 39.734782024564474 ] } },
{ "type": "Feature", "properties": { "P29_001": "03201", "P29_002": "B103220100381", "P29_003": "16001", "P29_004": "盛岡市立高松小学校", "P29_005": "岩手県盛岡市上田堤2-31-12", "P29_006": "3", "P29_007": "1", "P29_008": "00", "P29_009": null }, "geometry": { "type": "Point", "coordinates": [ 141.155083962367939, 39.730170883702208 ] } },
{ "type": "Feature", "properties": { "P29_001": "03201", "P29_002": "B103220100390", "P29_003": "16001", "P29_004": "盛岡市立東松園小学校", "P29_005": "岩手県盛岡市東松園2-5-1", "P29_006": "3", "P29_007": "1", "P29_008": "00", "P29_009": null }, "geometry": { "type": "Point", "coordinates": [ 141.164310792412692, 39.757498330167216 ] } },
{ "type": "Feature", "properties": { "P29_001": "03201", "P29_002": "B103220100407", "P29_003": "16001", "P29_004": "盛岡市立都南東小学校", "P29_005": "岩手県盛岡市乙部12-16-1", "P29_006": "3", "P29_007": "1", "P29_008": "00", "P29_009": null }, "geometry": { "type": "Point", "coordinates": [ 141.201264999706382, 39.614022999392738 ] } },
{ "type": "Feature", "properties": { "P29_001": "03201", "P29_002": "B103220100416", "P29_003": "16001", "P29_004": "盛岡市立北松園小学校", "P29_005": "岩手県盛岡市北松園2-12-1", "P29_006": "3", "P29_007": "1", "P29_008": "00", "P29_009": null }, "geometry": { "type": "Point", "coordinates": [ 141.172605625916077, 39.759627238150593 ] } },
{ "type": "Feature", "properties": { "P29_001": "03201", "P29_002": "B103220100425", "P29_003": "16001", "P29_004": "盛岡市立向中野小学校", "P29_005": "岩手県盛岡市向中野2-39-27", "P29_006": "3", "P29_007": "1", "P29_008": "00", "P29_009": null }, "geometry": { "type": "Point", "coordinates": [ 141.141070009367468, 39.68094432236655 ] } },
{ "type": "Feature", "properties": { "P29_001": "03202", "P29_002": "B103220200013", "P29_003": "16001", "P29_004": "宮古市立宮古小学校", "P29_005": "岩手県宮古市横町5-1", "P29_006": "3", "P29_007": "1", "P29_008": "00", "P29_009": null }, "geometry": { "type": "Point", "coordinates": [ 141.949824611789552, 39.644357911896606 ] } },
{ "type": "Feature", "properties": { "P29_001": "03202", "P29_002": "B103220200022", "P29_003": "16001", "P29_004": "宮古市立鍬ヶ崎小学校", "P29_005": "岩手県宮古市熊野町6-33", "P29_006": "3", "P29_007": "1", "P29_008": "00", "P29_009": null }, "geometry": { "type": "Point", "coordinates": [ 141.965819222990774, 39.649787990857817 ] } },
{ "type": "Feature", "properties": { "P29_001": "03202", "P29_002": "B103220200031", "P29_003": "16001", "P29_004": "宮古市立磯鶏小学校", "P29_005": "岩手県宮古市上村2-4-1", "P29_006": "3", "P29_007": "1", "P29_008": "00", "P29_009": null }, "geometry": { "type": "Point", "coordinates": [ 141.954704419931488, 39.627604100473469 ] } },
{ "type": "Feature", "properties": { "P29_001": "03202", "P29_002": "B103220200040", "P29_003": "16001", "P29_004": "宮古市立山口小学校", "P29_005": "岩手県宮古市鴨崎町3-25", "P29_006": "3", "P29_007": "1", "P29_008": "00", "P29_009": null }, "geometry": { "type": "Point", "coordinates": [ 141.941858196006677, 39.64519317774154 ] } },
{ "type": "Feature", "properties": { "P29_001": "03202", "P29_002": "B103220200059", "P29_003": "16001", "P29_004": "宮古市立高浜小学校", "P29_005": "岩手県宮古市高浜4-7-22", "P29_006": "3", "P29_007": "1", "P29_008": "00", "P29_009": null }, "geometry": { "type": "Point", "coordinates": [ 141.943997307782581, 39.599121340572012 ] } },
{ "type": "Feature", "properties": { "P29_001": "03202", "P29_002": "B103220200077", "P29_003": "16001", "P29_004": "宮古市立花輪小学校", "P29_005": "岩手県宮古市花輪4-26", "P29_006": "3", "P29_007": "1", "P29_008": "00", "P29_009": null }, "geometry": { "type": "Point", "coordinates": [ 141.899291649434474, 39.60906342191398 ] } },
{ "type": "Feature", "properties": { "P29_001": "03202", "P29_002": "B103220200086", "P29_003": "16001", "P29_004": "宮古市立津軽石小学校", "P29_005": "岩手県宮古市津軽石4-82", "P29_006": "3", "P29_007": "1", "P29_008": "00", "P29_009": null }, "geometry": { "type": "Point", "coordinates": [ 141.934011317808711, 39.581395844406764 ] } },
{ "type": "Feature", "properties": { "P29_001": "03202", "P29_002": "B103220200102", "P29_003": "16001", "P29_004": "宮古市立重茂小学校", "P29_005": "岩手県宮古市重茂2-12", "P29_006": "3", "P29_007": "1", "P29_008": "00", "P29_009": null }, "geometry": { "type": "Point", "coordinates": [ 142.022034792468617, 39.58518908246117 ] } },
{ "type": "Feature", "properties": { "P29_001": "03202", "P29_002": "B103220200111", "P29_003": "16001", "P29_004": "宮古市立崎山小学校", "P29_005": "岩手県宮古市崎山3-2", "P29_006": "3", "P29_007": "1", "P29_008": "00", "P29_009": null }, "geometry": { "type": "Point", "coordinates": [ 141.959946303370145, 39.678897476868819 ] } },
{ "type": "Feature", "properties": { "P29_001": "03202", "P29_002": "B103220200120", "P29_003": "16001", "P29_004": "宮古市立千徳小学校", "P29_005": "岩手県宮古市西ヶ丘1-2-1", "P29_006": "3", "P29_007": "1", "P29_008": "00", "P29_009": null }, "geometry": { "type": "Point", "coordinates": [ 141.91650065073361, 39.64033877124475 ] } },
{ "type": "Feature", "properties": { "P29_001": "03202", "P29_002": "B103220200139", "P29_003": "16001", "P29_004": "宮古市立新里小学校", "P29_005": "岩手県宮古市刈屋11-48-3", "P29_006": "3", "P29_007": "1", "P29_008": "00", "P29_009": null }, "geometry": { "type": "Point", "coordinates": [ 141.75347349470357, 39.644841034537173 ] } },
{ "type": "Feature", "properties": { "P29_001": "03202", "P29_002": "B103220200148", "P29_003": "16001", "P29_004": "宮古市立田老第一小学校", "P29_005": "岩手県宮古市田老字館が森155-2", "P29_006": "3", "P29_007": "1", "P29_008": "00", "P29_009": null }, "geometry": { "type": "Point", "coordinates": [ 141.966416364433996, 39.73622038663499 ] } },
{ "type": "Feature", "properties": { "P29_001": "03202", "P29_002": "B103220200157", "P29_003": "16001", "P29_004": "宮古市立川井小学校", "P29_005": "岩手県宮古市川井5-101-1", "P29_006": "3", "P29_007": "1", "P29_008": "00", "P29_009": null }, "geometry": { "type": "Point", "coordinates": [ 141.682094458558765, 39.598234287599752 ] } },
{ "type": "Feature", "properties": { "P29_001": "03203", "P29_002": "B103220300012", "P29_003": "16001", "P29_004": "大船渡市立盛小学校", "P29_005": "岩手県大船渡市盛町字沢川30", "P29_006": "3", "P29_007": "1", "P29_008": "00", "P29_009": null }, "geometry": { "type": "Point", "coordinates": [ 141.704789004665457, 39.081789998877696 ] } },
{ "type": "Feature", "properties": { "P29_001": "03203", "P29_002": "B103220300021", "P29_003": "16001", "P29_004": "大船渡市立大船渡小学校", "P29_005": "岩手県大船渡市大船渡町字笹崎67", "P29_006": "3", "P29_007": "1", "P29_008": "00", "P29_009": null }, "geometry": { "type": "Point", "coordinates": [ 141.719170138883925, 39.057167845121 ] } },
{ "type": "Feature", "properties": { "P29_001": "03203", "P29_002": "B103220300030", "P29_003": "16001", "P29_004": "大船渡市立末崎小学校", "P29_005": "岩手県大船渡市末崎町字山岸122", "P29_006": "3", "P29_007": "1", "P29_008": "00", "P29_009": null }, "geometry": { "type": "Point", "coordinates": [ 141.717276080631535, 39.004525582645257 ] } },
{ "type": "Feature", "properties": { "P29_001": "03203", "P29_002": "B103220300049", "P29_003": "16001", "P29_004": "大船渡市立猪川小学校", "P29_005": "岩手県大船渡市猪川町字轆轤石23", "P29_006": "3", "P29_007": "1", "P29_008": "00", "P29_009": null }, "geometry": { "type": "Point", "coordinates": [ 141.710928558949291, 39.093967959216933 ] } },
{ "type": "Feature", "properties": { "P29_001": "03203", "P29_002": "B103220300058", "P29_003": "16001", "P29_004": "大船渡市立立根小学校", "P29_005": "岩手県大船渡市立根町字上ノ台19-2", "P29_006": "3", "P29_007": "1", "P29_008": "00", "P29_009": null }, "geometry": { "type": "Point", "coordinates": [ 141.721047185499287, 39.114528716633345 ] } },
{ "type": "Feature", "properties": { "P29_001": "03203", "P29_002": "B103220300067", "P29_003": "16001", "P29_004": "大船渡市立日頃市小学校", "P29_005": "岩手県大船渡市日頃市町字関谷48", "P29_006": "3", "P29_007": "1", "P29_008": "00", "P29_009": null }, "geometry": { "type": "Point", "coordinates": [ 141.673970277065905, 39.127270041443616 ] } },
{ "type": "Feature", "properties": { "P29_001": "03203", "P29_002": "B103220300076", "P29_003": "16001", "P29_004": "大船渡市立大船渡北小学校", "P29_005": "岩手県大船渡市大船渡町字山馬越68-2", "P29_006": "3", "P29_007": "1", "P29_008": "00", "P29_009": null }, "geometry": { "type": "Point", "coordinates": [ 141.713429749581138, 39.065565603120277 ] } },
{ "type": "Feature", "properties": { "P29_001": "03203", "P29_002": "B103220300085", "P29_003": "16001", "P29_004": "大船渡市立赤崎小学校", "P29_005": "岩手県大船渡市赤崎町字山口8-4", "P29_006": "3", "P29_007": "1", "P29_008": "00", "P29_009": null }, "geometry": { "type": "Point", "coordinates": [ 141.741831351293428, 39.066191890007332 ] } },
{ "type": "Feature", "properties": { "P29_001": "03203", "P29_002": "B103220300094", "P29_003": "16001", "P29_004": "大船渡市立綾里小学校", "P29_005": "岩手県大船渡市三陸町綾里字平舘21", "P29_006": "3", "P29_007": "1", "P29_008": "00", "P29_009": null }, "geometry": { "type": "Point", "coordinates": [ 141.79488271399012, 39.049190825177007 ] } },
{ "type": "Feature", "properties": { "P29_001": "03203", "P29_002": "B103220300101", "P29_003": "16001", "P29_004": "大船渡市立越喜来小学校", "P29_005": "岩手県大船渡市三陸町越喜来字小出24-4", "P29_006": "3", "P29_007": "1", "P29_008": "00", "P29_009": null }, "geometry": { "type": "Point", "coordinates": [ 141.810090132272251, 39.126177519226985 ] } },
{ "type": "Feature", "properties": { "P29_001": "03203", "P29_002": "B103220300110", "P29_003": "16001", "P29_004": "大船渡市立吉浜小学校", "P29_005": "岩手県大船渡市三陸町吉浜字扇洞185", "P29_006": "3", "P29_007": "1", "P29_008": "00", "P29_009": null }, "geometry": { "type": "Point", "coordinates": [ 141.841446098579098, 39.15537758150964 ] } },
{ "type": "Feature", "properties": { "P29_001": "03205", "P29_002": "B103220500010", "P29_003": "16001", "P29_004": "花巻市立花巻小学校", "P29_005": "岩手県花巻市花城町5-13", "P29_006": "3", "P29_007": "1", "P29_008": "00", "P29_009": null }, "geometry": { "type": "Point", "coordinates": [ 141.118438998451779, 39.390906004097118 ] } },
{ "type": "Feature", "properties": { "P29_001": "03205", "P29_002": "B103220500029", "P29_003": "16001", "P29_004": "花巻市立南城小学校", "P29_005": "岩手県花巻市南城110-1", "P29_006": "3", "P29_007": "1", "P29_008": "00", "P29_009": null }, "geometry": { "type": "Point", "coordinates": [ 141.121051168103179, 39.371122631820029 ] } },
{ "type": "Feature", "properties": { "P29_001": "03205", "P29_002": "B103220500038", "P29_003": "16001", "P29_004": "花巻市立矢沢小学校", "P29_005": "岩手県花巻市高木20-81-1", "P29_006": "3", "P29_007": "1", "P29_008": "00", "P29_009": null }, "geometry": { "type": "Point", "coordinates": [ 141.149277944126482, 39.385648472475552 ] } },
{ "type": "Feature", "properties": { "P29_001": "03205", "P29_002": "B103220500047", "P29_003": "16001", "P29_004": "花巻市立湯本小学校", "P29_005": "岩手県花巻市大畑3-331-1", "P29_006": "3", "P29_007": "1", "P29_008": "00", "P29_009": null }, "geometry": { "type": "Point", "coordinates": [ 141.084792317172258, 39.445974523191069 ] } },
{ "type": "Feature", "properties": { "P29_001": "03205", "P29_002": "B103220500056", "P29_003": "16001", "P29_004": "花巻市立宮野目小学校", "P29_005": "岩手県花巻市西宮野目6-353-1", "P29_006": "3", "P29_007": "1", "P29_008": "00", "P29_009": null }, "geometry": { "type": "Point", "coordinates": [ 141.128165531343399, 39.424648709101284 ] } },
{ "type": "Feature", "properties": { "P29_001": "03205", "P29_002": "B103220500065", "P29_003": "16001", "P29_004": "花巻市立湯口小学校", "P29_005": "岩手県花巻市円万寺字法船96-6", "P29_006": "3", "P29_007": "1", "P29_008": "00", "P29_009": null }, "geometry": { "type": "Point", "coordinates": [ 141.056770083112525, 39.390272479710397 ] } },
{ "type": "Feature", "properties": { "P29_001": "03205", "P29_002": "B103220500074", "P29_003": "16001", "P29_004": "花巻市立若葉小学校", "P29_005": "岩手県花巻市若葉町2-17-30", "P29_006": "3", "P29_007": "1", "P29_008": "00", "P29_009": null }, "geometry": { "type": "Point", "coordinates": [ 141.102101302135736, 39.387745146377199 ] } },
{ "type": "Feature", "properties": { "P29_001": "03205", "P29_002": "B103220500083", "P29_003": "16001", "P29_004": "花巻市立太田小学校", "P29_005": "岩手県花巻市太田32-61", "P29_006": "3", "P29_007": "1", "P29_008": "00", "P29_009": null }, "geometry": { "type": "Point", "coordinates": [ 141.05214518240291, 39.373960656240151 ] } },
{ "type": "Feature", "properties": { "P29_001": "03205", "P29_002": "B103220500092", "P29_003": "16001", "P29_004": "花巻市立笹間第一小学校", "P29_005": "岩手県花巻市中笹間15-1", "P29_006": "3", "P29_007": "1", "P29_008": "00", "P29_009": null }, "geometry": { "type": "Point", "coordinates": [ 141.048209893615109, 39.346705086812477 ] } },
{ "type": "Feature", "properties": { "P29_001": "03205", "P29_002": "B103220500118", "P29_003": "16001", "P29_004": "花巻市立桜台小学校", "P29_005": "岩手県花巻市下幅292", "P29_006": "3", "P29_007": "1", "P29_008": "00", "P29_009": null }, "geometry": { "type": "Point", "coordinates": [ 141.110566867918749, 39.399451354370591 ] } },
{ "type": "Feature", "properties": { "P29_001": "03205", "P29_002": "B103220500127", "P29_003": "16001", "P29_004": "花巻市立大迫小学校", "P29_005": "岩手県花巻市大迫町大迫18-3", "P29_006": "3", "P29_007": "1", "P29_008": "00", "P29_009": null }, "geometry": { "type": "Point", "coordinates": [ 141.284197213623855, 39.465297646590827 ] } },
{ "type": "Feature", "properties": { "P29_001": "03205", "P29_002": "B103220500154", "P29_003": "16001", "P29_004": "花巻市立新堀小学校", "P29_005": "岩手県花巻市石鳥谷町新堀46-2-1", "P29_006": "3", "P29_007": "1", "P29_008": "00", "P29_009": null }, "geometry": { "type": "Point", "coordinates": [ 141.170190162972403, 39.482927117090902 ] } },
{ "type": "Feature", "properties": { "P29_001": "03205", "P29_002": "B103220500163", "P29_003": "16001", "P29_004": "花巻市立八幡小学校", "P29_005": "岩手県花巻市石鳥谷町八幡1-125-1", "P29_006": "3", "P29_007": "1", "P29_008": "00", "P29_009": null }, "geometry": { "type": "Point", "coordinates": [ 141.143070934033119, 39.468781488575971 ] } },
{ "type": "Feature", "properties": { "P29_001": "03205", "P29_002": "B103220500172", "P29_003": "16001", "P29_004": "花巻市立八重畑小学校", "P29_005": "岩手県花巻市石鳥谷町猪鼻7-38-1", "P29_006": "3", "P29_007": "1", "P29_008": "00", "P29_009": null }, "geometry": { "type": "Point", "coordinates": [ 141.172938778217173, 39.448359903650086 ] } },
{ "type": "Feature", "properties": { "P29_001": "03205", "P29_002": "B103220500181", "P29_003": "16001", "P29_004": "花巻市立石鳥谷小学校", "P29_005": "岩手県花巻市石鳥谷町好地7-34-1", "P29_006": "3", "P29_007": "1", "P29_008": "00", "P29_009": null }, "geometry": { "type": "Point", "coordinates": [ 141.143711844223816, 39.491298622612376 ] } },
{ "type": "Feature", "properties": { "P29_001": "03205", "P29_002": "B103220500190", "P29_003": "16001", "P29_004": "花巻市立東和小学校", "P29_005": "岩手県花巻市東和町安俵11区12-1", "P29_006": "3", "P29_007": "1", "P29_008": "00", "P29_009": null }, "geometry": { "type": "Point", "coordinates": [ 141.22588300228918, 39.38354500215295 ] } },
{ "type": "Feature", "properties": { "P29_001": "03206", "P29_002": "B103220600019", "P29_003": "16001", "P29_004": "北上市立黒沢尻東小学校", "P29_005": "岩手県北上市中野町1-8-1", "P29_006": "3", "P29_007": "1", "P29_008": "00", "P29_009": null }, "geometry": { "type": "Point", "coordinates": [ 141.125364099385649, 39.289613409391499 ] } },
{ "type": "Feature", "properties": { "P29_001": "03206", "P29_002": "B103220600028", "P29_003": "16001", "P29_004": "北上市立黒沢尻西小学校", "P29_005": "岩手県北上市本石町1-6-71", "P29_006": "3", "P29_007": "1", "P29_008": "00", "P29_009": null }, "geometry": { "type": "Point", "coordinates": [ 141.114175634611257, 39.291249864954906 ] } },
{ "type": "Feature", "properties": { "P29_001": "03206", "P29_002": "B103220600055", "P29_003": "16001", "P29_004": "北上市立飯豊小学校", "P29_005": "岩手県北上市村崎野11-101", "P29_006": "3", "P29_007": "1", "P29_008": "00", "P29_009": null }, "geometry": { "type": "Point", "coordinates": [ 141.095785272785633, 39.341315879477591 ] } },
{ "type": "Feature", "properties": { "P29_001": "03206", "P29_002": "B103220600064", "P29_003": "16001", "P29_004": "北上市立二子小学校", "P29_005": "岩手県北上市二子町鳥喰22-2", "P29_006": "3", "P29_007": "1", "P29_008": "00", "P29_009": null }, "geometry": { "type": "Point", "coordinates": [ 141.138371927622188, 39.322133975609063 ] } },
{ "type": "Feature", "properties": { "P29_001": "03206", "P29_002": "B103220600073", "P29_003": "16001", "P29_004": "北上市立更木小学校", "P29_005": "岩手県北上市更木12-61", "P29_006": "3", "P29_007": "1", "P29_008": "00", "P29_009": null }, "geometry": { "type": "Point", "coordinates": [ 141.148968194001554, 39.342933771514787 ] } },
{ "type": "Feature", "properties": { "P29_001": "03206", "P29_002": "B103220600108", "P29_003": "16001", "P29_004": "北上市立南小学校", "P29_005": "岩手県北上市相去町葛西檀12-2", "P29_006": "3", "P29_007": "1", "P29_008": "00", "P29_009": null }, "geometry": { "type": "Point", "coordinates": [ 141.094568997924029, 39.263543450775984 ] } },
{ "type": "Feature", "properties": { "P29_001": "03206", "P29_002": "B103220600117", "P29_003": "16001", "P29_004": "北上市立黒沢尻北小学校", "P29_005": "岩手県北上市常盤台1-22-33", "P29_006": "3", "P29_007": "1", "P29_008": "00", "P29_009": null }, "geometry": { "type": "Point", "coordinates": [ 141.117717914030209, 39.303486273896759 ] } },
{ "type": "Feature", "properties": { "P29_001": "03206", "P29_002": "B103220600126", "P29_003": "16001", "P29_004": "北上市立鬼柳小学校", "P29_005": "岩手県北上市鬼柳町都鳥35", "P29_006": "3", "P29_007": "1", "P29_008": "00", "P29_009": null }, "geometry": { "type": "Point", "coordinates": [ 141.096560000682047, 39.275794998061592 ] } },
{ "type": "Feature", "properties": { "P29_001": "03206", "P29_002": "B103220600135", "P29_003": "16001", "P29_004": "北上市立笠松小学校", "P29_005": "岩手県北上市竪川目1地割1-10", "P29_006": "3", "P29_007": "1", "P29_008": "00", "P29_009": null }, "geometry": { "type": "Point", "coordinates": [ 140.998182325745915, 39.310867103225959 ] } },
{ "type": "Feature", "properties": { "P29_001": "03206", "P29_002": "B103220600144", "P29_003": "16001", "P29_004": "北上市立和賀西小学校", "P29_005": "岩手県北上市和賀町横川目7-134-3", "P29_006": "3", "P29_007": "1", "P29_008": "00", "P29_009": null }, "geometry": { "type": "Point", "coordinates": [ 140.970980307790256, 39.312391680398925 ] } },
{ "type": "Feature", "properties": { "P29_001": "03206", "P29_002": "B103220600153", "P29_003": "16001", "P29_004": "北上市立和賀東小学校", "P29_005": "岩手県北上市和賀町藤根17-100-2", "P29_006": "3", "P29_007": "1", "P29_008": "00", "P29_009": null }, "geometry": { "type": "Point", "coordinates": [ 141.029180927032257, 39.30365239689683 ] } },
{ "type": "Feature", "properties": { "P29_001": "03206", "P29_002": "B103220600162", "P29_003": "16001", "P29_004": "北上市立江釣子小学校", "P29_005": "岩手県北上市上江釣子16-200", "P29_006": "3", "P29_007": "1", "P29_008": "00", "P29_009": null }, "geometry": { "type": "Point", "coordinates": [ 141.072176079848902, 39.300379488032625 ] } },
{ "type": "Feature", "properties": { "P29_001": "03206", "P29_002": "B103220600171", "P29_003": "16001", "P29_004": "北上市立いわさき小学校", "P29_005": "岩手県北上市和賀町岩崎18-53-3", "P29_006": "3", "P29_007": "1", "P29_008": "00", "P29_009": null }, "geometry": { "type": "Point", "coordinates": [ 141.041143881834216, 39.281773791968227 ] } },
{ "type": "Feature", "properties": { "P29_001": "03206", "P29_002": "B103220600180", "P29_003": "16001", "P29_004": "北上市立東桜小学校", "P29_005": "岩手県北上市立花6地割1-1", "P29_006": "3", "P29_007": "1", "P29_008": "00", "P29_009": null }, "geometry": { "type": "Point", "coordinates": [ 141.139262465534529, 39.283177775210191 ] } },
{ "type": "Feature", "properties": { "P29_001": "03207", "P29_002": "B103220700018", "P29_003": "16001", "P29_004": "久慈市立久慈小学校", "P29_005": "岩手県久慈市栄町31-149", "P29_006": "3", "P29_007": "1", "P29_008": "00", "P29_009": null }, "geometry": { "type": "Point", "coordinates": [ 141.752898593924584, 40.195592217157895 ] } },
{ "type": "Feature", "properties": { "P29_001": "03207", "P29_002": "B103220700027", "P29_003": "16001", "P29_004": "久慈市立久慈湊小学校", "P29_005": "岩手県久慈市湊町15-10-1", "P29_006": "3", "P29_007": "1", "P29_008": "00", "P29_009": null }, "geometry": { "type": "Point", "coordinates": [ 141.785330531336427, 40.196687509971945 ] } },
{ "type": "Feature", "properties": { "P29_001": "03207", "P29_002": "B103220700036", "P29_003": "16001", "P29_004": "久慈市立長内小学校", "P29_005": "岩手県久慈市長内町25-41", "P29_006": "3", "P29_007": "1", "P29_008": "00", "P29_009": null }, "geometry": { "type": "Point", "coordinates": [ 141.77899573560677, 40.188532907828638 ] } },
{ "type": "Feature", "properties": { "P29_001": "03207", "P29_002": "B103220700045", "P29_003": "16001", "P29_004": "久慈市立小久慈小学校", "P29_005": "岩手県久慈市小久慈町24-51", "P29_006": "3", "P29_007": "1", "P29_008": "00", "P29_009": null }, "geometry": { "type": "Point", "coordinates": [ 141.74769183624943, 40.1707673135531 ] } },
{ "type": "Feature", "properties": { "P29_001": "03207", "P29_002": "B103220700054", "P29_003": "16001", "P29_004": "久慈市立大川目小学校", "P29_005": "岩手県久慈市大川目町14-45-1", "P29_006": "3", "P29_007": "1", "P29_008": "00", "P29_009": null }, "geometry": { "type": "Point", "coordinates": [ 141.716636228550556, 40.183345774662037 ] } },
{ "type": "Feature", "properties": { "P29_001": "03207", "P29_002": "B103220700063", "P29_003": "16001", "P29_004": "久慈市立夏井小学校", "P29_005": "岩手県久慈市夏井町夏井3-57-1", "P29_006": "3", "P29_007": "1", "P29_008": "00", "P29_009": null }, "geometry": { "type": "Point", "coordinates": [ 141.751773094263598, 40.224571706225809 ] } },
{ "type": "Feature", "properties": { "P29_001": "03207", "P29_002": "B103220700072", "P29_003": "16001", "P29_004": "久慈市立平山小学校", "P29_005": "岩手県久慈市夏井町早坂14-51-7", "P29_006": "3", "P29_007": "1", "P29_008": "00", "P29_009": null }, "geometry": { "type": "Point", "coordinates": [ 141.781640696436568, 40.218038671296462 ] } },
{ "type": "Feature", "properties": { "P29_001": "03207", "P29_002": "B103220700081", "P29_003": "16001", "P29_004": "久慈市立侍浜小学校", "P29_005": "岩手県久慈市侍浜町保土沢8-27-1", "P29_006": "3", "P29_007": "1", "P29_008": "00", "P29_009": null }, "geometry": { "type": "Point", "coordinates": [ 141.800081250571111, 40.264391713910754 ] } },
{ "type": "Feature", "properties": { "P29_001": "03207", "P29_002": "B103220700090", "P29_003": "16001", "P29_004": "久慈市立宇部小学校", "P29_005": "岩手県久慈市宇部町5-132-8", "P29_006": "3", "P29_007": "1", "P29_008": "00", "P29_009": null }, "geometry": { "type": "Point", "coordinates": [ 141.788766551054294, 40.133589191946854 ] } },
{ "type": "Feature", "properties": { "P29_001": "03207", "P29_002": "B103220700107", "P29_003": "16001", "P29_004": "久慈市立久喜小学校", "P29_005": "岩手県久慈市宇部町19-192-1", "P29_006": "3", "P29_007": "1", "P29_008": "00", "P29_009": null }, "geometry": { "type": "Point", "coordinates": [ 141.844251353854872, 40.142855384560796 ] } },
{ "type": "Feature", "properties": { "P29_001": "03207", "P29_002": "B103220700116", "P29_003": "16001", "P29_004": "久慈市立小袖小学校", "P29_005": "岩手県久慈市宇部町23-128-3", "P29_006": "3", "P29_007": "1", "P29_008": "00", "P29_009": null }, "geometry": { "type": "Point", "coordinates": [ 141.848000337591429, 40.160648717690911 ] } },
{ "type": "Feature", "properties": { "P29_001": "03207", "P29_002": "B103220700125", "P29_003": "16001", "P29_004": "久慈市立山形小学校", "P29_005": "岩手県久慈市山形町川井10-13-1", "P29_006": "3", "P29_007": "1", "P29_008": "00", "P29_009": null }, "geometry": { "type": "Point", "coordinates": [ 141.568361037310069, 40.147468566007795 ] } },
{ "type": "Feature", "properties": { "P29_001": "03207", "P29_002": "B103220700143", "P29_003": "16001", "P29_004": "久慈市立来内小学校", "P29_005": "岩手県久慈市山形町来内22-49-1", "P29_006": "3", "P29_007": "1", "P29_008": "00", "P29_009": null }, "geometry": { "type": "Point", "coordinates": [ 141.502520178390256, 40.110942167091366 ] } },
{ "type": "Feature", "properties": { "P29_001": "03208", "P29_002": "B103220800017", "P29_003": "16001", "P29_004": "遠野市立遠野小学校", "P29_005": "岩手県遠野市東舘町11-28", "P29_006": "3", "P29_007": "1", "P29_008": "00", "P29_009": null }, "geometry": { "type": "Point", "coordinates": [ 141.536626522188755, 39.327091204717583 ] } },
{ "type": "Feature", "properties": { "P29_001": "03208", "P29_002": "B103220800026", "P29_003": "16001", "P29_004": "遠野市立綾織小学校", "P29_005": "岩手県遠野市綾織町下綾織13-13-5", "P29_006": "3", "P29_007": "1", "P29_008": "00", "P29_009": null }, "geometry": { "type": "Point", "coordinates": [ 141.46739194076315, 39.331444925278781 ] } },
{ "type": "Feature", "properties": { "P29_001": "03208", "P29_002": "B103220800035", "P29_003": "16001", "P29_004": "遠野市立青笹小学校", "P29_005": "岩手県遠野市青笹町青笹11-1", "P29_006": "3", "P29_007": "1", "P29_008": "00", "P29_009": null }, "geometry": { "type": "Point", "coordinates": [ 141.572287938334341, 39.319644882333264 ] } },
{ "type": "Feature", "properties": { "P29_001": "03208", "P29_002": "B103220800044", "P29_003": "16001", "P29_004": "遠野市立上郷小学校", "P29_005": "岩手県遠野市上郷町佐比内46-56-1", "P29_006": "3", "P29_007": "1", "P29_008": "00", "P29_009": null }, "geometry": { "type": "Point", "coordinates": [ 141.594019028539805, 39.284534712682003 ] } },
{ "type": "Feature", "properties": { "P29_001": "03208", "P29_002": "B103220800053", "P29_003": "16001", "P29_004": "遠野市立遠野北小学校", "P29_005": "岩手県遠野市松崎町白岩字薬研淵43", "P29_006": "3", "P29_007": "1", "P29_008": "00", "P29_009": null }, "geometry": { "type": "Point", "coordinates": [ 141.534273821026517, 39.343808379375233 ] } },
{ "type": "Feature", "properties": { "P29_001": "03208", "P29_002": "B103220800062", "P29_003": "16001", "P29_004": "遠野市立附馬牛小学校", "P29_005": "岩手県遠野市附馬牛町下附馬牛11-43-1", "P29_006": "3", "P29_007": "1", "P29_008": "00", "P29_009": null }, "geometry": { "type": "Point", "coordinates": [ 141.528897088699154, 39.4134443753222 ] } },
{ "type": "Feature", "properties": { "P29_001": "03208", "P29_002": "B103220800071", "P29_003": "16001", "P29_004": "遠野市立土淵小学校", "P29_005": "岩手県遠野市土淵町土淵6-1", "P29_006": "3", "P29_007": "1", "P29_008": "00", "P29_009": null }, "geometry": { "type": "Point", "coordinates": [ 141.567900733254248, 39.357922668135707 ] } },
{ "type": "Feature", "properties": { "P29_001": "03208", "P29_002": "B103220800080", "P29_003": "16001", "P29_004": "遠野市立達曽部小学校", "P29_005": "岩手県遠野市宮守町達曽部15-10", "P29_006": "3", "P29_007": "1", "P29_008": "00", "P29_009": null }, "geometry": { "type": "Point", "coordinates": [ 141.348694811114029, 39.392409507693557 ] } },
{ "type": "Feature", "properties": { "P29_001": "03208", "P29_002": "B103220800099", "P29_003": "16001", "P29_004": "遠野市立宮守小学校", "P29_005": "岩手県遠野市宮守町下宮守26-6", "P29_006": "3", "P29_007": "1", "P29_008": "00", "P29_009": null }, "geometry": { "type": "Point", "coordinates": [ 141.35430868346532, 39.348572310500266 ] } },
{ "type": "Feature", "properties": { "P29_001": "03208", "P29_002": "B103220800106", "P29_003": "16001", "P29_004": "遠野市立鱒沢小学校", "P29_005": "岩手県遠野市宮守町下鱒沢17-5", "P29_006": "3", "P29_007": "1", "P29_008": "00", "P29_009": null }, "geometry": { "type": "Point", "coordinates": [ 141.400284644585611, 39.301182639260723 ] } },
{ "type": "Feature", "properties": { "P29_001": "03208", "P29_002": "B103220800115", "P29_003": "16001", "P29_004": "遠野市立小友小学校", "P29_005": "岩手県遠野市小友町16-133", "P29_006": "3", "P29_007": "1", "P29_008": "00", "P29_009": null }, "geometry": { "type": "Point", "coordinates": [ 141.424656701784443, 39.271014605925863 ] } },
{ "type": "Feature", "properties": { "P29_001": "03209", "P29_002": "B103220900016", "P29_003": "16001", "P29_004": "一関市立一関小学校", "P29_005": "岩手県一関市字鳴神33-1", "P29_006": "3", "P29_007": "1", "P29_008": "00", "P29_009": null }, "geometry": { "type": "Point", "coordinates": [ 141.144077525124459, 38.929144046770851 ] } },
{ "type": "Feature", "properties": { "P29_001": "03209", "P29_002": "B103220900025", "P29_003": "16001", "P29_004": "一関市立山目小学校", "P29_005": "岩手県一関市幸町2-47", "P29_006": "3", "P29_007": "1", "P29_008": "00", "P29_009": null }, "geometry": { "type": "Point", "coordinates": [ 141.122219210201706, 38.929769992965255 ] } },
{ "type": "Feature", "properties": { "P29_001": "03209", "P29_002": "B103220900034", "P29_003": "16001", "P29_004": "一関市立赤荻小学校", "P29_005": "岩手県一関市赤荻字桜町181-1", "P29_006": "3", "P29_007": "1", "P29_008": "00", "P29_009": null }, "geometry": { "type": "Point", "coordinates": [ 141.094271998314753, 38.938434999546629 ] } },
{ "type": "Feature", "properties": { "P29_001": "03209", "P29_002": "B103220900043", "P29_003": "16001", "P29_004": "一関市立中里小学校", "P29_005": "岩手県一関市蘭梅町7-1", "P29_006": "3", "P29_007": "1", "P29_008": "00", "P29_009": null }, "geometry": { "type": "Point", "coordinates": [ 141.126878127588384, 38.945967194838161 ] } },
{ "type": "Feature", "properties": { "P29_001": "03209", "P29_002": "B103220900052", "P29_003": "16001", "P29_004": "一関市立滝沢小学校", "P29_005": "岩手県一関市滝沢字寺下46", "P29_006": "3", "P29_007": "1", "P29_008": "00", "P29_009": null }, "geometry": { "type": "Point", "coordinates": [ 141.184806396954428, 38.906318986187991 ] } },
{ "type": "Feature", "properties": { "P29_001": "03209", "P29_002": "B103220900061", "P29_003": "16001", "P29_004": "一関市立南小学校", "P29_005": "岩手県一関市南町3-3", "P29_006": "3", "P29_007": "1", "P29_008": "00", "P29_009": null }, "geometry": { "type": "Point", "coordinates": [ 141.130499092682015, 38.915806132427655 ] } },
{ "type": "Feature", "properties": { "P29_001": "03209", "P29_002": "B103220900070", "P29_003": "16001", "P29_004": "一関市立弥栄小学校", "P29_005": "岩手県一関市弥栄字大奈良33-4", "P29_006": "3", "P29_007": "1", "P29_008": "00", "P29_009": null }, "geometry": { "type": "Point", "coordinates": [ 141.237148531827302, 38.896619914935272 ] } },
{ "type": "Feature", "properties": { "P29_001": "03209", "P29_002": "B103220900089", "P29_003": "16001", "P29_004": "一関市立厳美小学校", "P29_005": "岩手県一関市厳美町字上ノ台55-2", "P29_006": "3", "P29_007": "1", "P29_008": "00", "P29_009": null }, "geometry": { "type": "Point", "coordinates": [ 141.042320545820445, 38.943101818769371 ] } },
{ "type": "Feature", "properties": { "P29_001": "03209", "P29_002": "B103220900098", "P29_003": "16001", "P29_004": "一関市立舞川小学校", "P29_005": "岩手県一関市舞川字館ノ越20-4", "P29_006": "3", "P29_007": "1", "P29_008": "00", "P29_009": null }, "geometry": { "type": "Point", "coordinates": [ 141.173829129918857, 38.969762315318455 ] } },
{ "type": "Feature", "properties": { "P29_001": "03209", "P29_002": "B103220900105", "P29_003": "16001", "P29_004": "一関市立萩荘小学校", "P29_005": "岩手県一関市萩荘字境ノ神253", "P29_006": "3", "P29_007": "1", "P29_008": "00", "P29_009": null }, "geometry": { "type": "Point", "coordinates": [ 141.093532681092881, 38.922649229233926 ] } },
{ "type": "Feature", "properties": { "P29_001": "03209", "P29_002": "B103220900114", "P29_003": "16001", "P29_004": "一関市立川崎小学校", "P29_005": "岩手県一関市川崎町薄衣泉台50", "P29_006": "3", "P29_007": "1", "P29_008": "00", "P29_009": null }, "geometry": { "type": "Point", "coordinates": [ 141.282577999576802, 38.902144112087676 ] } },
{ "type": "Feature", "properties": { "P29_001": "03209", "P29_002": "B103220900178", "P29_003": "16001", "P29_004": "一関市立大東小学校", "P29_005": "岩手県一関市大東町摺沢上堺ノ沢70", "P29_006": "3", "P29_007": "1", "P29_008": "00", "P29_009": null }, "geometry": { "type": "Point", "coordinates": [ 141.329897994381497, 39.005394999672824 ] } },
{ "type": "Feature", "properties": { "P29_001": "03209", "P29_002": "B103220900187", "P29_003": "16001", "P29_004": "一関市立大原小学校", "P29_005": "岩手県一関市大東町大原字七切63-1", "P29_006": "3", "P29_007": "1", "P29_008": "00", "P29_009": null }, "geometry": { "type": "Point", "coordinates": [ 141.405201001834399, 39.014586999030563 ] } },
{ "type": "Feature", "properties": { "P29_001": "03209", "P29_002": "B103220900196", "P29_003": "16001", "P29_004": "一関市立猿沢小学校", "P29_005": "岩手県一関市大東町猿沢字上ノ洞12-1", "P29_006": "3", "P29_007": "1", "P29_008": "00", "P29_009": null }, "geometry": { "type": "Point", "coordinates": [ 141.296162668609696, 39.037173715940156 ] } },
{ "type": "Feature", "properties": { "P29_001": "03209", "P29_002": "B103220900203", "P29_003": "16001", "P29_004": "一関市立興田小学校", "P29_005": "岩手県一関市大東町鳥海字鞭柳104-1", "P29_006": "3", "P29_007": "1", "P29_008": "00", "P29_009": null }, "geometry": { "type": "Point", "coordinates": [ 141.363682665112748, 39.048549181283143 ] } },
{ "type": "Feature", "properties": { "P29_001": "03209", "P29_002": "B103220900212", "P29_003": "16001", "P29_004": "一関市立東山小学校", "P29_005": "岩手県一関市東山町長坂東本町12", "P29_006": "3", "P29_007": "1", "P29_008": "00", "P29_009": null }, "geometry": { "type": "Point", "coordinates": [ 141.26533874357051, 39.0032387272596 ] } },
{ "type": "Feature", "properties": { "P29_001": "03209", "P29_002": "B103220900221", "P29_003": "16001", "P29_004": "一関市立藤沢小学校", "P29_005": "岩手県一関市藤沢町藤沢字仁郷50-1", "P29_006": "3", "P29_007": "1", "P29_008": "00", "P29_009": null }, "geometry": { "type": "Point", "coordinates": [ 141.352061828777778, 38.866410649569993 ] } },
{ "type": "Feature", "properties": { "P29_001": "03209", "P29_002": "B103220900230", "P29_003": "16001", "P29_004": "一関市立黄海小学校", "P29_005": "岩手県一関市藤沢町黄海字天堤11-1", "P29_006": "3", "P29_007": "1", "P29_008": "00", "P29_009": null }, "geometry": { "type": "Point", "coordinates": [ 141.289930445373528, 38.851991948423823 ] } },
{ "type": "Feature", "properties": { "P29_001": "03209", "P29_002": "B103220900285", "P29_003": "16001", "P29_004": "一関市立千厩小学校", "P29_005": "岩手県一関市千厩町千厩字上駒場10-2", "P29_006": "3", "P29_007": "1", "P29_008": "00", "P29_009": null }, "geometry": { "type": "Point", "coordinates": [ 141.345035872878839, 38.927408319143893 ] } },
{ "type": "Feature", "properties": { "P29_001": "03209", "P29_002": "B103220900294", "P29_003": "16001", "P29_004": "一関市立室根小学校", "P29_005": "岩手県一関市室根町矢越字五反田73-1", "P29_006": "3", "P29_007": "1", "P29_008": "00", "P29_009": null }, "geometry": { "type": "Point", "coordinates": [ 141.434011130547532, 38.933635621220311 ] } },
{ "type": "Feature", "properties": { "P29_001": "03209", "P29_002": "B103220900301", "P29_003": "16001", "P29_004": "一関市立花泉小学校", "P29_005": "岩手県一関市花泉町涌津字下原304", "P29_006": "3", "P29_007": "1", "P29_008": "00", "P29_009": null }, "geometry": { "type": "Point", "coordinates": [ 141.187700020123373, 38.826352886001835 ] } },
{ "type": "Feature", "properties": { "P29_001": "03210", "P29_002": "B103221000013", "P29_003": "16001", "P29_004": "陸前高田市立高田小学校", "P29_005": "岩手県陸前高田市高田町字太田510", "P29_006": "3", "P29_007": "1", "P29_008": "00", "P29_009": null }, "geometry": { "type": "Point", "coordinates": [ 141.641092008762712, 39.024479537484758 ] } },
{ "type": "Feature", "properties": { "P29_001": "03210", "P29_002": "B103221000022", "P29_003": "16001", "P29_004": "陸前高田市立気仙小学校", "P29_005": "岩手県陸前高田市気仙町字愛宕下313", "P29_006": "3", "P29_007": "1", "P29_008": "00", "P29_009": null }, "geometry": { "type": "Point", "coordinates": [ 141.61524948278813, 39.001526083450365 ] } },
{ "type": "Feature", "properties": { "P29_001": "03210", "P29_002": "B103221000031", "P29_003": "16001", "P29_004": "陸前高田市立広田小学校", "P29_005": "岩手県陸前高田市広田町字大久保9", "P29_006": "3", "P29_007": "1", "P29_008": "00", "P29_009": null }, "geometry": { "type": "Point", "coordinates": [ 141.695274330119958, 38.965136853176865 ] } },
{ "type": "Feature", "properties": { "P29_001": "03210", "P29_002": "B103221000040", "P29_003": "16001", "P29_004": "陸前高田市立小友小学校", "P29_005": "岩手県陸前高田市小友町字宮崎3-2", "P29_006": "3", "P29_007": "1", "P29_008": "00", "P29_009": null }, "geometry": { "type": "Point", "coordinates": [ 141.696479952549907, 38.995911695190102 ] } },
{ "type": "Feature", "properties": { "P29_001": "03210", "P29_002": "B103221000059", "P29_003": "16001", "P29_004": "陸前高田市立米崎小学校", "P29_005": "岩手県陸前高田市米崎町字川内1", "P29_006": "3", "P29_007": "1", "P29_008": "00", "P29_009": null }, "geometry": { "type": "Point", "coordinates": [ 141.662648425467211, 39.016983590767254 ] } },
{ "type": "Feature", "properties": { "P29_001": "03210", "P29_002": "B103221000068", "P29_003": "16001", "P29_004": "陸前高田市立矢作小学校", "P29_005": "岩手県陸前高田市矢作町字明神前55-1", "P29_006": "3", "P29_007": "1", "P29_008": "00", "P29_009": null }, "geometry": { "type": "Point", "coordinates": [ 141.587573004680706, 39.028149995120344 ] } },
{ "type": "Feature", "properties": { "P29_001": "03210", "P29_002": "B103221000077", "P29_003": "16001", "P29_004": "陸前高田市立竹駒小学校", "P29_005": "岩手県陸前高田市竹駒町字仲の沢181", "P29_006": "3", "P29_007": "1", "P29_008": "00", "P29_009": null }, "geometry": { "type": "Point", "coordinates": [ 141.614829987127251, 39.038442735362921 ] } },
{ "type": "Feature", "properties": { "P29_001": "03210", "P29_002": "B103221000086", "P29_003": "16001", "P29_004": "陸前高田市立横田小学校", "P29_005": "岩手県陸前高田市横田町字久連坪17-1", "P29_006": "3", "P29_007": "1", "P29_008": "00", "P29_009": null }, "geometry": { "type": "Point", "coordinates": [ 141.580273999187284, 39.080022003946084 ] } },
{ "type": "Feature", "properties": { "P29_001": "03211", "P29_002": "B103221100012", "P29_003": "16001", "P29_004": "釜石市立白山小学校", "P29_005": "岩手県釜石市嬉石町3-6-1", "P29_006": "3", "P29_007": "1", "P29_008": "00", "P29_009": null }, "geometry": { "type": "Point", "coordinates": [ 141.891450018414844, 39.263146566746563 ] } },
{ "type": "Feature", "properties": { "P29_001": "03211", "P29_002": "B103221100021", "P29_003": "16001", "P29_004": "釜石市立平田小学校", "P29_005": "岩手県釜石市平田町2-102", "P29_006": "3", "P29_007": "1", "P29_008": "00", "P29_009": null }, "geometry": { "type": "Point", "coordinates": [ 141.887343692679138, 39.245421056706249 ] } },
{ "type": "Feature", "properties": { "P29_001": "03211", "P29_002": "B103221100030", "P29_003": "16001", "P29_004": "釜石市立甲子小学校", "P29_005": "岩手県釜石市甲子町9-87", "P29_006": "3", "P29_007": "1", "P29_008": "00", "P29_009": null }, "geometry": { "type": "Point", "coordinates": [ 141.797669890521377, 39.256140113690272 ] } },
{ "type": "Feature", "properties": { "P29_001": "03211", "P29_002": "B103221100049", "P29_003": "16001", "P29_004": "釜石市立鵜住居小学校", "P29_005": "岩手県釜石市鵜住居町13-20-3", "P29_006": "3", "P29_007": "1", "P29_008": "00", "P29_009": null }, "geometry": { "type": "Point", "coordinates": [ 141.885133926001004, 39.326405701854881 ] } },
{ "type": "Feature", "properties": { "P29_001": "03211", "P29_002": "B103221100058", "P29_003": "16001", "P29_004": "釜石市立栗林小学校", "P29_005": "岩手県釜石市栗林町16-46", "P29_006": "3", "P29_007": "1", "P29_008": "00", "P29_009": null }, "geometry": { "type": "Point", "coordinates": [ 141.828173415864001, 39.350786861506634 ] } },
{ "type": "Feature", "properties": { "P29_001": "03211", "P29_002": "B103221100067", "P29_003": "16001", "P29_004": "釜石市立唐丹小学校", "P29_005": "岩手県釜石市唐丹町字小白浜314", "P29_006": "3", "P29_007": "1", "P29_008": "00", "P29_009": null }, "geometry": { "type": "Point", "coordinates": [ 141.865136713754168, 39.209276553635739 ] } },
{ "type": "Feature", "properties": { "P29_001": "03211", "P29_002": "B103221100076", "P29_003": "16001", "P29_004": "釜石市立双葉小学校", "P29_005": "岩手県釜石市新町1-58", "P29_006": "3", "P29_007": "1", "P29_008": "00", "P29_009": null }, "geometry": { "type": "Point", "coordinates": [ 141.847382347145469, 39.265522630838994 ] } },
{ "type": "Feature", "properties": { "P29_001": "03211", "P29_002": "B103221100085", "P29_003": "16001", "P29_004": "釜石市立釜石小学校", "P29_005": "岩手県釜石市大渡町3-14-8", "P29_006": "3", "P29_007": "1", "P29_008": "00", "P29_009": null }, "geometry": { "type": "Point", "coordinates": [ 141.876766066030399, 39.274428151377911 ] } },
{ "type": "Feature", "properties": { "P29_001": "03211", "P29_002": "B103221100094", "P29_003": "16001", "P29_004": "釜石市立小佐野小学校", "P29_005": "岩手県釜石市小佐野町3-5-37", "P29_006": "3", "P29_007": "1", "P29_008": "00", "P29_009": null }, "geometry": { "type": "Point", "coordinates": [ 141.839812059374594, 39.262992972585913 ] } },
{ "type": "Feature", "properties": { "P29_001": "03213", "P29_002": "B103221300010", "P29_003": "16001", "P29_004": "二戸市立福岡小学校", "P29_005": "岩手県二戸市福岡字下川又15", "P29_006": "3", "P29_007": "1", "P29_008": "00", "P29_009": null }, "geometry": { "type": "Point", "coordinates": [ 141.303806613172753, 40.271777957942319 ] } },
{ "type": "Feature", "properties": { "P29_001": "03213", "P29_002": "B103221300029", "P29_003": "16001", "P29_004": "二戸市立仁左平小学校", "P29_005": "岩手県二戸市仁左平字下構55", "P29_006": "3", "P29_007": "1", "P29_008": "00", "P29_009": null }, "geometry": { "type": "Point", "coordinates": [ 141.315944484574516, 40.304477762575296 ] } },
{ "type": "Feature", "properties": { "P29_001": "03213", "P29_002": "B103221300038", "P29_003": "16001", "P29_004": "二戸市立中央小学校", "P29_005": "岩手県二戸市堀野字下タ川原71-1", "P29_006": "3", "P29_007": "1", "P29_008": "00", "P29_009": null }, "geometry": { "type": "Point", "coordinates": [ 141.293672758660477, 40.289710701782418 ] } },
{ "type": "Feature", "properties": { "P29_001": "03213", "P29_002": "B103221300047", "P29_003": "16001", "P29_004": "二戸市立石切所小学校", "P29_005": "岩手県二戸市石切所字田尻平4", "P29_006": "3", "P29_007": "1", "P29_008": "00", "P29_009": null }, "geometry": { "type": "Point", "coordinates": [ 141.288121156781415, 40.257482149682382 ] } },
{ "type": "Feature", "properties": { "P29_001": "03213", "P29_002": "B103221300056", "P29_003": "16001", "P29_004": "二戸市立御返地小学校", "P29_005": "岩手県二戸市安比字上大簗平7-2", "P29_006": "3", "P29_007": "1", "P29_008": "00", "P29_009": null }, "geometry": { "type": "Point", "coordinates": [ 141.220170469534253, 40.235154960893404 ] } },
{ "type": "Feature", "properties": { "P29_001": "03213", "P29_002": "B103221300065", "P29_003": "16001", "P29_004": "二戸市立二戸西小学校", "P29_005": "岩手県二戸市上斗米字梅木9-1", "P29_006": "3", "P29_007": "1", "P29_008": "00", "P29_009": null }, "geometry": { "type": "Point", "coordinates": [ 141.212260393920985, 40.27385877418137 ] } },
{ "type": "Feature", "properties": { "P29_001": "03213", "P29_002": "B103221300074", "P29_003": "16001", "P29_004": "二戸市立浄法寺小学校", "P29_005": "岩手県二戸市浄法寺町海上田3-7", "P29_006": "3", "P29_007": "1", "P29_008": "00", "P29_009": null }, "geometry": { "type": "Point", "coordinates": [ 141.158290463819185, 40.182186060059252 ] } },
{ "type": "Feature", "properties": { "P29_001": "03213", "P29_002": "B103221300083", "P29_003": "16001", "P29_004": "二戸市立金田一小学校", "P29_005": "岩手県二戸市金田一字野月19-2", "P29_006": "3", "P29_007": "1", "P29_008": "00", "P29_009": null }, "geometry": { "type": "Point", "coordinates": [ 141.302700977376901, 40.316134614060203 ] } },
{ "type": "Feature", "properties": { "P29_001": "03214", "P29_002": "B103221400019", "P29_003": "16001", "P29_004": "八幡平市立大更小学校", "P29_005": "岩手県八幡平市大更21-70", "P29_006": "3", "P29_007": "1", "P29_008": "00", "P29_009": null }, "geometry": { "type": "Point", "coordinates": [ 141.10123108340386, 39.908918458111316 ] } },
{ "type": "Feature", "properties": { "P29_001": "03214", "P29_002": "B103221400028", "P29_003": "16001", "P29_004": "八幡平市立田頭小学校", "P29_005": "岩手県八幡平市田頭19-43", "P29_006": "3", "P29_007": "1", "P29_008": "00", "P29_009": null }, "geometry": { "type": "Point", "coordinates": [ 141.081833004150155, 39.919540000438886 ] } },
{ "type": "Feature", "properties": { "P29_001": "03214", "P29_002": "B103221400037", "P29_003": "16001", "P29_004": "八幡平市立平笠小学校", "P29_005": "岩手県八幡平市平笠12-62", "P29_006": "3", "P29_007": "1", "P29_008": "00", "P29_009": null }, "geometry": { "type": "Point", "coordinates": [ 141.075591038611719, 39.908335721098609 ] } },
{ "type": "Feature", "properties": { "P29_001": "03214", "P29_002": "B103221400046", "P29_003": "16001", "P29_004": "八幡平市立平舘小学校", "P29_005": "岩手県八幡平市平舘9-35-1", "P29_006": "3", "P29_007": "1", "P29_008": "00", "P29_009": null }, "geometry": { "type": "Point", "coordinates": [ 141.092307910484664, 39.950461310407064 ] } },
{ "type": "Feature", "properties": { "P29_001": "03214", "P29_002": "B103221400055", "P29_003": "16001", "P29_004": "八幡平市立寺田小学校", "P29_005": "岩手県八幡平市西根寺田15-30", "P29_006": "3", "P29_007": "1", "P29_008": "00", "P29_009": null }, "geometry": { "type": "Point", "coordinates": [ 141.108193729716163, 39.979885892180526 ] } },
{ "type": "Feature", "properties": { "P29_001": "03214", "P29_002": "B103221400064", "P29_003": "16001", "P29_004": "八幡平市立松野小学校", "P29_005": "岩手県八幡平市野駄11-157", "P29_006": "3", "P29_007": "1", "P29_008": "00", "P29_009": null }, "geometry": { "type": "Point", "coordinates": [ 141.063546149878732, 39.956530158045084 ] } },
{ "type": "Feature", "properties": { "P29_001": "03214", "P29_002": "B103221400073", "P29_003": "16001", "P29_004": "八幡平市立寄木小学校", "P29_005": "岩手県八幡平市松尾寄木27-103", "P29_006": "3", "P29_007": "1", "P29_008": "00", "P29_009": null }, "geometry": { "type": "Point", "coordinates": [ 141.049887771357845, 39.928605753279406 ] } },
{ "type": "Feature", "properties": { "P29_001": "03214", "P29_002": "B103221400082", "P29_003": "16001", "P29_004": "八幡平市立柏台小学校", "P29_005": "岩手県八幡平市柏台2-7-10", "P29_006": "3", "P29_007": "1", "P29_008": "00", "P29_009": null }, "geometry": { "type": "Point", "coordinates": [ 140.981383723270483, 39.917110033401059 ] } },
{ "type": "Feature", "properties": { "P29_001": "03214", "P29_002": "B103221400091", "P29_003": "16001", "P29_004": "八幡平市立田山小学校", "P29_005": "岩手県八幡平市下モ川原20", "P29_006": "3", "P29_007": "1", "P29_008": "00", "P29_009": null }, "geometry": { "type": "Point", "coordinates": [ 140.951491739266288, 40.140718915283415 ] } },
{ "type": "Feature", "properties": { "P29_001": "03214", "P29_002": "B103221400108", "P29_003": "16001", "P29_004": "八幡平市立安代小学校", "P29_005": "岩手県八幡平市清水210", "P29_006": "3", "P29_007": "1", "P29_008": "00", "P29_009": null }, "geometry": { "type": "Point", "coordinates": [ 141.048741213374569, 40.104901927807802 ] } },
{ "type": "Feature", "properties": { "P29_001": "03215", "P29_002": "B103221500018", "P29_003": "16001", "P29_004": "奥州市立水沢小学校", "P29_005": "岩手県奥州市水沢字堀ノ内4-2", "P29_006": "3", "P29_007": "1", "P29_008": "00", "P29_009": null }, "geometry": { "type": "Point", "coordinates": [ 141.133489110574516, 39.145954283043835 ] } },
{ "type": "Feature", "properties": { "P29_001": "03215", "P29_002": "B103221500027", "P29_003": "16001", "P29_004": "奥州市立水沢南小学校", "P29_005": "岩手県奥州市水沢福吉町3-24", "P29_006": "3", "P29_007": "1", "P29_008": "00", "P29_009": null }, "geometry": { "type": "Point", "coordinates": [ 141.131759621243134, 39.131652575372392 ] } },
{ "type": "Feature", "properties": { "P29_001": "03215", "P29_002": "B103221500036", "P29_003": "16001", "P29_004": "奥州市立常盤小学校", "P29_005": "岩手県奥州市水沢神明町1-1-5", "P29_006": "3", "P29_007": "1", "P29_008": "00", "P29_009": null }, "geometry": { "type": "Point", "coordinates": [ 141.15729048985753, 39.139823001237801 ] } },
{ "type": "Feature", "properties": { "P29_001": "03215", "P29_002": "B103221500045", "P29_003": "16001", "P29_004": "奥州市立佐倉河小学校", "P29_005": "岩手県奥州市水沢佐倉河字曽根7", "P29_006": "3", "P29_007": "1", "P29_008": "00", "P29_009": null }, "geometry": { "type": "Point", "coordinates": [ 141.128311662387034, 39.165447851746428 ] } },
{ "type": "Feature", "properties": { "P29_001": "03215", "P29_002": "B103221500054", "P29_003": "16001", "P29_004": "奥州市立真城小学校", "P29_005": "岩手県奥州市水沢真城字高田44-1", "P29_006": "3", "P29_007": "1", "P29_008": "00", "P29_009": null }, "geometry": { "type": "Point", "coordinates": [ 141.14541851234307, 39.114259680618609 ] } },
{ "type": "Feature", "properties": { "P29_001": "03215", "P29_002": "B103221500063", "P29_003": "16001", "P29_004": "奥州市立姉体小学校", "P29_005": "岩手県奥州市水沢姉体町字京原70", "P29_006": "3", "P29_007": "1", "P29_008": "00", "P29_009": null }, "geometry": { "type": "Point", "coordinates": [ 141.166180927568405, 39.106902561955238 ] } },
{ "type": "Feature", "properties": { "P29_001": "03215", "P29_002": "B103221500072", "P29_003": "16001", "P29_004": "奥州市立羽田小学校", "P29_005": "岩手県奥州市水沢羽田町字洗田362", "P29_006": "3", "P29_007": "1", "P29_008": "00", "P29_009": null }, "geometry": { "type": "Point", "coordinates": [ 141.190674119224127, 39.135226173731787 ] } },
{ "type": "Feature", "properties": { "P29_001": "03215", "P29_002": "B103221500081", "P29_003": "16001", "P29_004": "奥州市立黒石小学校", "P29_005": "岩手県奥州市水沢黒石町字長根2-15", "P29_006": "3", "P29_007": "1", "P29_008": "00", "P29_009": null }, "geometry": { "type": "Point", "coordinates": [ 141.196204666109651, 39.091038473137594 ] } },
{ "type": "Feature", "properties": { "P29_001": "03215", "P29_002": "B103221500090", "P29_003": "16001", "P29_004": "奥州市立岩谷堂小学校", "P29_005": "岩手県奥州市江刺岩谷堂字一本松32", "P29_006": "3", "P29_007": "1", "P29_008": "00", "P29_009": null }, "geometry": { "type": "Point", "coordinates": [ 141.169772420269851, 39.194627856943058 ] } },
{ "type": "Feature", "properties": { "P29_001": "03215", "P29_002": "B103221500107", "P29_003": "16001", "P29_004": "奥州市立江刺愛宕小学校", "P29_005": "岩手県奥州市江刺愛宕字西下川原8", "P29_006": "3", "P29_007": "1", "P29_008": "00", "P29_009": null }, "geometry": { "type": "Point", "coordinates": [ 141.150872242038531, 39.176579314796271 ] } },
{ "type": "Feature", "properties": { "P29_001": "03215", "P29_002": "B103221500116", "P29_003": "16001", "P29_004": "奥州市立田原小学校", "P29_005": "岩手県奥州市江刺田原字駒場108", "P29_006": "3", "P29_007": "1", "P29_008": "00", "P29_009": null }, "geometry": { "type": "Point", "coordinates": [ 141.210727204225748, 39.154571503984599 ] } },
{ "type": "Feature", "properties": { "P29_001": "03215", "P29_002": "B103221500205", "P29_003": "16001", "P29_004": "奥州市立稲瀬小学校", "P29_005": "岩手県奥州市江刺稲瀬字下台12", "P29_006": "3", "P29_007": "1", "P29_008": "00", "P29_009": null }, "geometry": { "type": "Point", "coordinates": [ 141.15664935130323, 39.21650342501885 ] } },
{ "type": "Feature", "properties": { "P29_001": "03215", "P29_002": "B103221500214", "P29_003": "16001", "P29_004": "奥州市立前沢小学校", "P29_005": "岩手県奥州市前沢字河ノ畑71-1", "P29_006": "3", "P29_007": "1", "P29_008": "00", "P29_009": null }, "geometry": { "type": "Point", "coordinates": [ 141.133636729453343, 39.062749024259887 ] } },
{ "type": "Feature", "properties": { "P29_001": "03215", "P29_002": "B103221500223", "P29_003": "16001", "P29_004": "奥州市立南都田小学校", "P29_005": "岩手県奥州市胆沢南都田字塚田126", "P29_006": "3", "P29_007": "1", "P29_008": "00", "P29_009": null }, "geometry": { "type": "Point", "coordinates": [ 141.088278642094707, 39.139846107317076 ] } },
{ "type": "Feature", "properties": { "P29_001": "03215", "P29_002": "B103221500232", "P29_003": "16001", "P29_004": "奥州市立若柳小学校", "P29_005": "岩手県奥州市胆沢若柳字箸塚181", "P29_006": "3", "P29_007": "1", "P29_008": "00", "P29_009": null }, "geometry": { "type": "Point", "coordinates": [ 141.058209025535092, 39.129851110462965 ] } },
{ "type": "Feature", "properties": { "P29_001": "03215", "P29_002": "B103221500241", "P29_003": "16001", "P29_004": "奥州市立胆沢愛宕小学校", "P29_005": "岩手県奥州市胆沢若柳字愛宕350", "P29_006": "3", "P29_007": "1", "P29_008": "00", "P29_009": null }, "geometry": { "type": "Point", "coordinates": [ 140.98758059344064, 39.126754086091516 ] } },
{ "type": "Feature", "properties": { "P29_001": "03215", "P29_002": "B103221500250", "P29_003": "16001", "P29_004": "奥州市立胆沢第一小学校", "P29_005": "岩手県奥州市胆沢小山字道場30", "P29_006": "3", "P29_007": "1", "P29_008": "00", "P29_009": null }, "geometry": { "type": "Point", "coordinates": [ 141.079067908781212, 39.096931611120198 ] } },
{ "type": "Feature", "properties": { "P29_001": "03215", "P29_002": "B103221500269", "P29_003": "16001", "P29_004": "奥州市立衣里小学校", "P29_005": "岩手県奥州市衣川堰下7-2", "P29_006": "3", "P29_007": "1", "P29_008": "00", "P29_009": null }, "geometry": { "type": "Point", "coordinates": [ 141.095003004522795, 39.020031427115988 ] } },
{ "type": "Feature", "properties": { "P29_001": "03215", "P29_002": "B103221500278", "P29_003": "16001", "P29_004": "奥州市立衣川小学校", "P29_005": "岩手県奥州市衣川古戸414-1", "P29_006": "3", "P29_007": "1", "P29_008": "00", "P29_009": null }, "geometry": { "type": "Point", "coordinates": [ 141.06740838656026, 39.041530184216981 ] } },
{ "type": "Feature", "properties": { "P29_001": "03215", "P29_002": "B103221500287", "P29_003": "16001", "P29_004": "奥州市立江刺ひがし小学校", "P29_005": "岩手県奥州市江刺玉里字大松沢108", "P29_006": "3", "P29_007": "1", "P29_008": "00", "P29_009": null }, "geometry": { "type": "Point", "coordinates": [ 141.24111384146633, 39.229089613431292 ] } },
{ "type": "Feature", "properties": { "P29_001": "03216", "P29_002": "B103221600017", "P29_003": "16001", "P29_004": "滝沢市立篠木小学校", "P29_005": "岩手県滝沢市篠木中屋敷60", "P29_006": "3", "P29_007": "1", "P29_008": "00", "P29_009": null }, "geometry": { "type": "Point", "coordinates": [ 141.065306100194277, 39.715255092113239 ] } },
{ "type": "Feature", "properties": { "P29_001": "03216", "P29_002": "B103221600026", "P29_003": "16001", "P29_004": "滝沢市立滝沢小学校", "P29_005": "岩手県滝沢市外山86-19", "P29_006": "3", "P29_007": "1", "P29_008": "00", "P29_009": null }, "geometry": { "type": "Point", "coordinates": [ 141.09278766438743, 39.757473830717061 ] } },
{ "type": "Feature", "properties": { "P29_001": "03216", "P29_002": "B103221600035", "P29_003": "16001", "P29_004": "滝沢市立滝沢第二小学校", "P29_005": "岩手県滝沢市巣子156-8", "P29_006": "3", "P29_007": "1", "P29_008": "00", "P29_009": null }, "geometry": { "type": "Point", "coordinates": [ 141.134760853432311, 39.790248198269722 ] } },
{ "type": "Feature", "properties": { "P29_001": "03216", "P29_002": "B103221600044", "P29_003": "16001", "P29_004": "滝沢市立鵜飼小学校", "P29_005": "岩手県滝沢市鵜飼洞畑87-1", "P29_006": "3", "P29_007": "1", "P29_008": "00", "P29_009": null }, "geometry": { "type": "Point", "coordinates": [ 141.083901840409482, 39.741793533871032 ] } },
{ "type": "Feature", "properties": { "P29_001": "03216", "P29_002": "B103221600053", "P29_003": "16001", "P29_004": "滝沢市立一本木小学校", "P29_005": "岩手県滝沢市柳原22", "P29_006": "3", "P29_007": "1", "P29_008": "00", "P29_009": null }, "geometry": { "type": "Point", "coordinates": [ 141.106615798263647, 39.829382952864449 ] } },
{ "type": "Feature", "properties": { "P29_001": "03216", "P29_002": "B103221600062", "P29_003": "16001", "P29_004": "滝沢市立姥屋敷小学校", "P29_005": "岩手県滝沢市鵜飼安達117-19", "P29_006": "3", "P29_007": "1", "P29_008": "00", "P29_009": null }, "geometry": { "type": "Point", "coordinates": [ 141.029207539031887, 39.771381083593518 ] } },
{ "type": "Feature", "properties": { "P29_001": "03216", "P29_002": "B103221600071", "P29_003": "16001", "P29_004": "滝沢市立柳沢小学校", "P29_005": "岩手県滝沢市柳沢1171", "P29_006": "3", "P29_007": "1", "P29_008": "00", "P29_009": null }, "geometry": { "type": "Point", "coordinates": [ 141.074900047962927, 39.814539240265589 ] } },
{ "type": "Feature", "properties": { "P29_001": "03216", "P29_002": "B103221600080", "P29_003": "16001", "P29_004": "滝沢市立滝沢東小学校", "P29_005": "岩手県滝沢市狼久保795-1", "P29_006": "3", "P29_007": "1", "P29_008": "00", "P29_009": null }, "geometry": { "type": "Point", "coordinates": [ 141.143654122122797, 39.794968384694855 ] } },
{ "type": "Feature", "properties": { "P29_001": "03216", "P29_002": "B103221600099", "P29_003": "16001", "P29_004": "滝沢市立滝沢中央小学校", "P29_005": "岩手県滝沢市室小路275", "P29_006": "3", "P29_007": "1", "P29_008": "00", "P29_009": null }, "geometry": { "type": "Point", "coordinates": [ 141.096202292475766, 39.741077933908841 ] } },
{ "type": "Feature", "properties": { "P29_001": "03301", "P29_002": "B103230100013", "P29_003": "16001", "P29_004": "雫石町立雫石小学校", "P29_005": "岩手県岩手郡雫石町源大堂50", "P29_006": "3", "P29_007": "1", "P29_008": "00", "P29_009": null }, "geometry": { "type": "Point", "coordinates": [ 140.972690005293913, 39.69262699890151 ] } },
{ "type": "Feature", "properties": { "P29_001": "03301", "P29_002": "B103230100022", "P29_003": "16001", "P29_004": "雫石町立七ツ森小学校", "P29_005": "岩手県岩手郡雫石町七ツ森16-240", "P29_006": "3", "P29_007": "1", "P29_008": "00", "P29_009": null }, "geometry": { "type": "Point", "coordinates": [ 141.011506936791221, 39.701717658844395 ] } },
{ "type": "Feature", "properties": { "P29_001": "03301", "P29_002": "B103230100031", "P29_003": "16001", "P29_004": "雫石町立御明神小学校", "P29_005": "岩手県岩手郡雫石町上野上屋敷26", "P29_006": "3", "P29_007": "1", "P29_008": "00", "P29_009": null }, "geometry": { "type": "Point", "coordinates": [ 140.945454475455705, 39.695132819110263 ] } },
{ "type": "Feature", "properties": { "P29_001": "03301", "P29_002": "B103230100040", "P29_003": "16001", "P29_004": "雫石町立御所小学校", "P29_005": "岩手県岩手郡雫石町西安庭41-152-1", "P29_006": "3", "P29_007": "1", "P29_008": "00", "P29_009": null }, "geometry": { "type": "Point", "coordinates": [ 140.973259037149091, 39.662632110183345 ] } },
{ "type": "Feature", "properties": { "P29_001": "03301", "P29_002": "B103230100059", "P29_003": "16001", "P29_004": "雫石町立西山小学校", "P29_005": "岩手県岩手郡雫石町長山羽上81", "P29_006": "3", "P29_007": "1", "P29_008": "00", "P29_009": null }, "geometry": { "type": "Point", "coordinates": [ 140.973267966709187, 39.716669198012838 ] } },
{ "type": "Feature", "properties": { "P29_001": "03302", "P29_002": "B103230200012", "P29_003": "16001", "P29_004": "葛巻町立葛巻小学校", "P29_005": "岩手県岩手郡葛巻町葛巻12-37-1", "P29_006": "3", "P29_007": "1", "P29_008": "00", "P29_009": null }, "geometry": { "type": "Point", "coordinates": [ 141.439754694748274, 40.040446374496582 ] } },
{ "type": "Feature", "properties": { "P29_001": "03302", "P29_002": "B103230200021", "P29_003": "16001", "P29_004": "葛巻町立小屋瀬小学校", "P29_005": "岩手県岩手郡葛巻町葛巻28-22-5", "P29_006": "3", "P29_007": "1", "P29_008": "00", "P29_009": null }, "geometry": { "type": "Point", "coordinates": [ 141.409266800627989, 39.982303134124493 ] } },
{ "type": "Feature", "properties": { "P29_001": "03302", "P29_002": "B103230200030", "P29_003": "16001", "P29_004": "葛巻町立江刈小学校", "P29_005": "岩手県岩手郡葛巻町江刈10-206-20", "P29_006": "3", "P29_007": "1", "P29_008": "00", "P29_009": null }, "geometry": { "type": "Point", "coordinates": [ 141.467312371578402, 40.013794204809663 ] } },
{ "type": "Feature", "properties": { "P29_001": "03302", "P29_002": "B103230200049", "P29_003": "16001", "P29_004": "葛巻町立五日市小学校", "P29_005": "岩手県岩手郡葛巻町江刈25-54-3", "P29_006": "3", "P29_007": "1", "P29_008": "00", "P29_009": null }, "geometry": { "type": "Point", "coordinates": [ 141.505465729915954, 39.975740115437105 ] } },
{ "type": "Feature", "properties": { "P29_001": "03303", "P29_002": "B103230300011", "P29_003": "16001", "P29_004": "岩手町立沼宮内小学校", "P29_005": "岩手県岩手郡岩手町沼宮内9-57-2", "P29_006": "3", "P29_007": "1", "P29_008": "00", "P29_009": null }, "geometry": { "type": "Point", "coordinates": [ 141.227198045680325, 39.97490092205291 ] } },
{ "type": "Feature", "properties": { "P29_001": "03303", "P29_002": "B103230300020", "P29_003": "16001", "P29_004": "岩手町立川口小学校", "P29_005": "岩手県岩手郡岩手町川口15-91-2", "P29_006": "3", "P29_007": "1", "P29_008": "00", "P29_009": null }, "geometry": { "type": "Point", "coordinates": [ 141.205374637022686, 39.925656056362513 ] } },
{ "type": "Feature", "properties": { "P29_001": "03303", "P29_002": "B103230300039", "P29_003": "16001", "P29_004": "岩手町立一方井小学校", "P29_005": "岩手県岩手郡岩手町一方井15-45-1", "P29_006": "3", "P29_007": "1", "P29_008": "00", "P29_009": null }, "geometry": { "type": "Point", "coordinates": [ 141.169960467948613, 39.971960810504882 ] } },
{ "type": "Feature", "properties": { "P29_001": "03321", "P29_002": "B103232100019", "P29_003": "16001", "P29_004": "紫波町立日詰小学校", "P29_005": "岩手県紫波郡紫波町日詰字朝日田228-1", "P29_006": "3", "P29_007": "1", "P29_008": "00", "P29_009": null }, "geometry": { "type": "Point", "coordinates": [ 141.165669454959897, 39.558468128791752 ] } },
{ "type": "Feature", "properties": { "P29_001": "03321", "P29_002": "B103232100028", "P29_003": "16001", "P29_004": "紫波町立赤石小学校", "P29_005": "岩手県紫波郡紫波町南日詰字箱清水172-1", "P29_006": "3", "P29_007": "1", "P29_008": "00", "P29_009": null }, "geometry": { "type": "Point", "coordinates": [ 141.163724939881234, 39.535498141373495 ] } },
{ "type": "Feature", "properties": { "P29_001": "03321", "P29_002": "B103232100037", "P29_003": "16001", "P29_004": "紫波町立古館小学校", "P29_005": "岩手県紫波郡紫波町高水寺字土手79", "P29_006": "3", "P29_007": "1", "P29_008": "00", "P29_009": null }, "geometry": { "type": "Point", "coordinates": [ 141.164841346802859, 39.573117330567101 ] } },
{ "type": "Feature", "properties": { "P29_001": "03321", "P29_002": "B103232100126", "P29_003": "16001", "P29_004": "紫波町立西の杜小学校", "P29_005": "岩手県紫波郡紫波町稲藤字牡丹野30", "P29_006": "3", "P29_007": "1", "P29_008": "00", "P29_009": null }, "geometry": { "type": "Point", "coordinates": [ 141.115765527136091, 39.549622939647804 ] } },
{ "type": "Feature", "properties": { "P29_001": "03321", "P29_002": "B103232100135", "P29_003": "16001", "P29_004": "紫波町立紫波東小学校", "P29_005": "岩手県紫波郡紫波町犬吠森字間木沢70", "P29_006": "3", "P29_007": "1", "P29_008": "00", "P29_009": null }, "geometry": { "type": "Point", "coordinates": [ 141.177856688407587, 39.559224328625845 ] } },
{ "type": "Feature", "properties": { "P29_001": "03322", "P29_002": "B103232200018", "P29_003": "16001", "P29_004": "矢巾町立徳田小学校", "P29_005": "岩手県紫波郡矢巾町大字西徳田6-53", "P29_006": "3", "P29_007": "1", "P29_008": "00", "P29_009": null }, "geometry": { "type": "Point", "coordinates": [ 141.172763679327232, 39.608629211930769 ] } },
{ "type": "Feature", "properties": { "P29_001": "03322", "P29_002": "B103232200027", "P29_003": "16001", "P29_004": "矢巾町立煙山小学校", "P29_005": "岩手県紫波郡矢巾町大字北矢幅1-2", "P29_006": "3", "P29_007": "1", "P29_008": "00", "P29_009": null }, "geometry": { "type": "Point", "coordinates": [ 141.13961955177092, 39.621619359199784 ] } },
{ "type": "Feature", "properties": { "P29_001": "03322", "P29_002": "B103232200036", "P29_003": "16001", "P29_004": "矢巾町立不動小学校", "P29_005": "岩手県紫波郡矢巾町大字室岡12-50", "P29_006": "3", "P29_007": "1", "P29_008": "00", "P29_009": null }, "geometry": { "type": "Point", "coordinates": [ 141.124579505394962, 39.594144722545956 ] } },
{ "type": "Feature", "properties": { "P29_001": "03322", "P29_002": "B103232200045", "P29_003": "16001", "P29_004": "矢巾町立矢巾東小学校", "P29_005": "岩手県紫波郡矢巾町医大通2-3-1", "P29_006": "3", "P29_007": "1", "P29_008": "00", "P29_009": null }, "geometry": { "type": "Point", "coordinates": [ 141.163543212124466, 39.619681634366515 ] } },
{ "type": "Feature", "properties": { "P29_001": "03366", "P29_002": "B103236600015", "P29_003": "16001", "P29_004": "西和賀町立湯田小学校", "P29_005": "岩手県和賀郡西和賀町湯田20-57-7", "P29_006": "3", "P29_007": "1", "P29_008": "00", "P29_009": null }, "geometry": { "type": "Point", "coordinates": [ 140.768584159447727, 39.351393323687482 ] } },
{ "type": "Feature", "properties": { "P29_001": "03366", "P29_002": "B103236600024", "P29_003": "16001", "P29_004": "西和賀町立沢内小学校", "P29_005": "岩手県和賀郡西和賀町沢内字泉沢7-39-2", "P29_006": "3", "P29_007": "1", "P29_008": "00", "P29_009": null }, "geometry": { "type": "Point", "coordinates": [ 140.766822998542438, 39.454357002769122 ] } },
{ "type": "Feature", "properties": { "P29_001": "03381", "P29_002": "B103238100016", "P29_003": "16001", "P29_004": "金ケ崎町立金ケ崎小学校", "P29_005": "岩手県胆沢郡金ケ崎町西根大谷120", "P29_006": "3", "P29_007": "1", "P29_008": "00", "P29_009": null }, "geometry": { "type": "Point", "coordinates": [ 141.104835342350043, 39.199297785752073 ] } },
{ "type": "Feature", "properties": { "P29_001": "03381", "P29_002": "B103238100025", "P29_003": "16001", "P29_004": "金ケ崎町立第一小学校", "P29_005": "岩手県胆沢郡金ケ崎町西根二ツ堤45-24", "P29_006": "3", "P29_007": "1", "P29_008": "00", "P29_009": null }, "geometry": { "type": "Point", "coordinates": [ 141.06514575259078, 39.226127050509604 ] } },
{ "type": "Feature", "properties": { "P29_001": "03381", "P29_002": "B103238100034", "P29_003": "16001", "P29_004": "金ケ崎町立三ケ尻小学校", "P29_005": "岩手県胆沢郡金ケ崎町三ヶ尻十三本塚16-2", "P29_006": "3", "P29_007": "1", "P29_008": "00", "P29_009": null }, "geometry": { "type": "Point", "coordinates": [ 141.110946004089698, 39.218702996102024 ] } },
{ "type": "Feature", "properties": { "P29_001": "03381", "P29_002": "B103238100043", "P29_003": "16001", "P29_004": "金ケ崎町立永岡小学校", "P29_005": "岩手県胆沢郡金ケ崎町永沢堀切後下5", "P29_006": "3", "P29_007": "1", "P29_008": "00", "P29_009": null }, "geometry": { "type": "Point", "coordinates": [ 141.060674002575865, 39.174261998079842 ] } },
{ "type": "Feature", "properties": { "P29_001": "03381", "P29_002": "B103238100052", "P29_003": "16001", "P29_004": "金ケ崎町立西小学校", "P29_005": "岩手県胆沢郡金ケ崎町西根高谷野原23", "P29_006": "3", "P29_007": "1", "P29_008": "00", "P29_009": null }, "geometry": { "type": "Point", "coordinates": [ 141.067508186497122, 39.197266632842108 ] } },
{ "type": "Feature", "properties": { "P29_001": "03402", "P29_002": "B103240200011", "P29_003": "16001", "P29_004": "平泉町立平泉小学校", "P29_005": "岩手県西磐井郡平泉町平泉字倉町155", "P29_006": "3", "P29_007": "1", "P29_008": "00", "P29_009": null }, "geometry": { "type": "Point", "coordinates": [ 141.1091270835839, 38.986217020664931 ] } },
{ "type": "Feature", "properties": { "P29_001": "03402", "P29_002": "B103240200020", "P29_003": "16001", "P29_004": "平泉町立長島小学校", "P29_005": "岩手県西磐井郡平泉町長島字砂子沢33", "P29_006": "3", "P29_007": "1", "P29_008": "00", "P29_009": null }, "geometry": { "type": "Point", "coordinates": [ 141.150156147337043, 38.995972394345131 ] } },
{ "type": "Feature", "properties": { "P29_001": "03441", "P29_002": "B103244100014", "P29_003": "16001", "P29_004": "住田町立世田米小学校", "P29_005": "岩手県気仙郡住田町世田米字川向55-1", "P29_006": "3", "P29_007": "1", "P29_008": "00", "P29_009": null }, "geometry": { "type": "Point", "coordinates": [ 141.574023597899071, 39.145321983955469 ] } },
{ "type": "Feature", "properties": { "P29_001": "03441", "P29_002": "B103244100023", "P29_003": "16001", "P29_004": "住田町立有住小学校", "P29_005": "岩手県気仙郡住田町上有住字山脈地5-2", "P29_006": "3", "P29_007": "1", "P29_008": "00", "P29_009": null }, "geometry": { "type": "Point", "coordinates": [ 141.589492457774242, 39.197351671139344 ] } },
{ "type": "Feature", "properties": { "P29_001": "03461", "P29_002": "B103246100019", "P29_003": "16001", "P29_004": "大槌町立吉里吉里小学校", "P29_005": "岩手県上閉伊郡大槌町吉里吉里2-4-1", "P29_006": "3", "P29_007": "1", "P29_008": "00", "P29_009": null }, "geometry": { "type": "Point", "coordinates": [ 141.940283084367081, 39.371725871482681 ] } },
{ "type": "Feature", "properties": { "P29_001": "03482", "P29_002": "B103248200014", "P29_003": "16001", "P29_004": "山田町立豊間根小学校", "P29_005": "岩手県下閉伊郡山田町豊間根7-58-1", "P29_006": "3", "P29_007": "1", "P29_008": "00", "P29_009": null }, "geometry": { "type": "Point", "coordinates": [ 141.929271934095652, 39.526092206986569 ] } },
{ "type": "Feature", "properties": { "P29_001": "03482", "P29_002": "B103248200023", "P29_003": "16001", "P29_004": "山田町立船越小学校", "P29_005": "岩手県下閉伊郡山田町船越10-45", "P29_006": "3", "P29_007": "1", "P29_008": "00", "P29_009": null }, "geometry": { "type": "Point", "coordinates": [ 141.98415900497875, 39.427747997561049 ] } },
{ "type": "Feature", "properties": { "P29_001": "03482", "P29_002": "B103248200032", "P29_003": "16001", "P29_004": "山田町立山田小学校", "P29_005": "岩手県下閉伊郡山田町飯岡7-28-2", "P29_006": "3", "P29_007": "1", "P29_008": "00", "P29_009": null }, "geometry": { "type": "Point", "coordinates": [ 141.942472238094126, 39.462353418234997 ] } },
{ "type": "Feature", "properties": { "P29_001": "03483", "P29_002": "B103248300013", "P29_003": "16001", "P29_004": "岩泉町立岩泉小学校", "P29_005": "岩手県下閉伊郡岩泉町岩泉字和川原4-2", "P29_006": "3", "P29_007": "1", "P29_008": "00", "P29_009": null }, "geometry": { "type": "Point", "coordinates": [ 141.789904590193487, 39.849127865717755 ] } },
{ "type": "Feature", "properties": { "P29_001": "03483", "P29_002": "B103248300031", "P29_003": "16001", "P29_004": "岩泉町立釜津田小学校", "P29_005": "岩手県下閉伊郡岩泉町釜津田字沢口37", "P29_006": "3", "P29_007": "1", "P29_008": "00", "P29_009": null }, "geometry": { "type": "Point", "coordinates": [ 141.557955364518619, 39.784556062662382 ] } },
{ "type": "Feature", "properties": { "P29_001": "03483", "P29_002": "B103248300059", "P29_003": "16001", "P29_004": "岩泉町立有芸小学校", "P29_005": "岩手県下閉伊郡岩泉町上有芸字運名根3-4", "P29_006": "3", "P29_007": "1", "P29_008": "00", "P29_009": null }, "geometry": { "type": "Point", "coordinates": [ 141.810058218220377, 39.771989192876092 ] } },
{ "type": "Feature", "properties": { "P29_001": "03483", "P29_002": "B103248300068", "P29_003": "16001", "P29_004": "岩泉町立小本小学校", "P29_005": "岩手県下閉伊郡岩泉町小本字南中野145", "P29_006": "3", "P29_007": "1", "P29_008": "00", "P29_009": null }, "geometry": { "type": "Point", "coordinates": [ 141.954543665969936, 39.839810767569396 ] } },
{ "type": "Feature", "properties": { "P29_001": "03483", "P29_002": "B103248300077", "P29_003": "16001", "P29_004": "岩泉町立小川小学校", "P29_005": "岩手県下閉伊郡岩泉町門字町32-3", "P29_006": "3", "P29_007": "1", "P29_008": "00", "P29_009": null }, "geometry": { "type": "Point", "coordinates": [ 141.649162999179026, 39.876309001621237 ] } },
{ "type": "Feature", "properties": { "P29_001": "03484", "P29_002": "B103248400012", "P29_003": "16001", "P29_004": "田野畑村立田野畑小学校", "P29_005": "岩手県下閉伊郡田野畑村田野畑136", "P29_006": "3", "P29_007": "1", "P29_008": "00", "P29_009": null }, "geometry": { "type": "Point", "coordinates": [ 141.8897146393779, 39.930623306375047 ] } },
{ "type": "Feature", "properties": { "P29_001": "03485", "P29_002": "B103248500011", "P29_003": "16001", "P29_004": "普代村立普代小学校", "P29_005": "岩手県下閉伊郡普代村14字宇留部58-6", "P29_006": "3", "P29_007": "1", "P29_008": "00", "P29_009": null }, "geometry": { "type": "Point", "coordinates": [ 141.892934092346081, 40.012505056769932 ] } },
{ "type": "Feature", "properties": { "P29_001": "03501", "P29_002": "B103250100011", "P29_003": "16001", "P29_004": "軽米町立軽米小学校", "P29_005": "岩手県九戸郡軽米町大字軽米5-34-2", "P29_006": "3", "P29_007": "1", "P29_008": "00", "P29_009": null }, "geometry": { "type": "Point", "coordinates": [ 141.464538793115111, 40.32059892860746 ] } },
{ "type": "Feature", "properties": { "P29_001": "03501", "P29_002": "B103250100020", "P29_003": "16001", "P29_004": "軽米町立小軽米小学校", "P29_005": "岩手県九戸郡軽米町大字小軽米7-25-1", "P29_006": "3", "P29_007": "1", "P29_008": "00", "P29_009": null }, "geometry": { "type": "Point", "coordinates": [ 141.529121004658691, 40.301699567949811 ] } },
{ "type": "Feature", "properties": { "P29_001": "03501", "P29_002": "B103250100039", "P29_003": "16001", "P29_004": "軽米町立晴山小学校", "P29_005": "岩手県九戸郡軽米町大字晴山23-35", "P29_006": "3", "P29_007": "1", "P29_008": "00", "P29_009": null }, "geometry": { "type": "Point", "coordinates": [ 141.379581928172229, 40.322674619692506 ] } },
{ "type": "Feature", "properties": { "P29_001": "03503", "P29_002": "B103250300019", "P29_003": "16001", "P29_004": "野田村立野田小学校", "P29_005": "岩手県九戸郡野田村大字野田12-61-18", "P29_006": "3", "P29_007": "1", "P29_008": "00", "P29_009": null }, "geometry": { "type": "Point", "coordinates": [ 141.817369973614746, 40.102847187406049 ] } },
{ "type": "Feature", "properties": { "P29_001": "03506", "P29_002": "B103250600016", "P29_003": "16001", "P29_004": "九戸村立伊保内小学校", "P29_005": "岩手県九戸郡九戸村大字伊保内7-10-1", "P29_006": "3", "P29_007": "1", "P29_008": "00", "P29_009": null }, "geometry": { "type": "Point", "coordinates": [ 141.42203545723055, 40.209454888362821 ] } },
{ "type": "Feature", "properties": { "P29_001": "03506", "P29_002": "B103250600025", "P29_003": "16001", "P29_004": "九戸村立長興寺小学校", "P29_005": "岩手県九戸郡九戸村大字長興寺8-49", "P29_006": "3", "P29_007": "1", "P29_008": "00", "P29_009": null }, "geometry": { "type": "Point", "coordinates": [ 141.416374794439093, 40.227364873726046 ] } },
{ "type": "Feature", "properties": { "P29_001": "03506", "P29_002": "B103250600034", "P29_003": "16001", "P29_004": "九戸村立戸田小学校", "P29_005": "岩手県九戸郡九戸村大字戸田16-74-4", "P29_006": "3", "P29_007": "1", "P29_008": "00", "P29_009": null }, "geometry": { "type": "Point", "coordinates": [ 141.428554696223216, 40.161715898268774 ] } },
{ "type": "Feature", "properties": { "P29_001": "03506", "P29_002": "B103250600043", "P29_003": "16001", "P29_004": "九戸村立山根小学校", "P29_005": "岩手県九戸郡九戸村大字山根10-3-4", "P29_006": "3", "P29_007": "1", "P29_008": "00", "P29_009": null }, "geometry": { "type": "Point", "coordinates": [ 141.425862232372253, 40.188438985247018 ] } },
{ "type": "Feature", "properties": { "P29_001": "03506", "P29_002": "B103250600052", "P29_003": "16001", "P29_004": "九戸村立江刺家小学校", "P29_005": "岩手県九戸郡九戸村大字江刺家10-12-2", "P29_006": "3", "P29_007": "1", "P29_008": "00", "P29_009": null }, "geometry": { "type": "Point", "coordinates": [ 141.408368018719869, 40.25371024870546 ] } },
{ "type": "Feature", "properties": { "P29_001": "03507", "P29_002": "B103250700015", "P29_003": "16001", "P29_004": "洋野町立種市小学校", "P29_005": "岩手県九戸郡洋野町種市20-33-3", "P29_006": "3", "P29_007": "1", "P29_008": "00", "P29_009": null }, "geometry": { "type": "Point", "coordinates": [ 141.714097073377502, 40.40504091757289 ] } },
{ "type": "Feature", "properties": { "P29_001": "03507", "P29_002": "B103250700024", "P29_003": "16001", "P29_004": "洋野町立角浜小学校", "P29_005": "岩手県九戸郡洋野町種市43-101-10", "P29_006": "3", "P29_007": "1", "P29_008": "00", "P29_009": null }, "geometry": { "type": "Point", "coordinates": [ 141.677482179246397, 40.435743665406314 ] } },
{ "type": "Feature", "properties": { "P29_001": "03507", "P29_002": "B103250700033", "P29_003": "16001", "P29_004": "洋野町立宿戸小学校", "P29_005": "岩手県九戸郡洋野町種市7-117-8", "P29_006": "3", "P29_007": "1", "P29_008": "00", "P29_009": null }, "geometry": { "type": "Point", "coordinates": [ 141.745067566195104, 40.365421768141672 ] } },
{ "type": "Feature", "properties": { "P29_001": "03507", "P29_002": "B103250700042", "P29_003": "16001", "P29_004": "洋野町立中野小学校", "P29_005": "岩手県九戸郡洋野町中野1-90-5", "P29_006": "3", "P29_007": "1", "P29_008": "00", "P29_009": null }, "geometry": { "type": "Point", "coordinates": [ 141.769393434726311, 40.311600909110808 ] } },
{ "type": "Feature", "properties": { "P29_001": "03507", "P29_002": "B103250700051", "P29_003": "16001", "P29_004": "洋野町立大野小学校", "P29_005": "岩手県九戸郡洋野町大野9-1-1", "P29_006": "3", "P29_007": "1", "P29_008": "00", "P29_009": null }, "geometry": { "type": "Point", "coordinates": [ 141.625189093124561, 40.285591009500877 ] } },
{ "type": "Feature", "properties": { "P29_001": "03507", "P29_002": "B103250700060", "P29_003": "16001", "P29_004": "洋野町立林郷小学校", "P29_005": "岩手県九戸郡洋野町大野47-9", "P29_006": "3", "P29_007": "1", "P29_008": "00", "P29_009": null }, "geometry": { "type": "Point", "coordinates": [ 141.673842542588915, 40.303919377074749 ] } },
{ "type": "Feature", "properties": { "P29_001": "03507", "P29_002": "B103250700079", "P29_003": "16001", "P29_004": "洋野町立帯島小学校", "P29_005": "岩手県九戸郡洋野町帯島5-22-1", "P29_006": "3", "P29_007": "1", "P29_008": "00", "P29_009": null }, "geometry": { "type": "Point", "coordinates": [ 141.695899926254839, 40.254704272004929 ] } },
{ "type": "Feature", "properties": { "P29_001": "03524", "P29_002": "B103252400014", "P29_003": "16001", "P29_004": "一戸町立一戸小学校", "P29_005": "岩手県二戸郡一戸町一戸字砂森149-13", "P29_006": "3", "P29_007": "1", "P29_008": "00", "P29_009": null }, "geometry": { "type": "Point", "coordinates": [ 141.300892235797562, 40.210912915149144 ] } },
{ "type": "Feature", "properties": { "P29_001": "03524", "P29_002": "B103252400023", "P29_003": "16001", "P29_004": "一戸町立一戸小学校養護分校", "P29_005": "岩手県二戸郡一戸町一戸字砂森60-1", "P29_006": "3", "P29_007": "1", "P29_008": "00", "P29_009": null }, "geometry": { "type": "Point", "coordinates": [ 141.305057736874176, 40.207435860723443 ] } },
{ "type": "Feature", "properties": { "P29_001": "03524", "P29_002": "B103252400032", "P29_003": "16001", "P29_004": "一戸町立小鳥谷小学校", "P29_005": "岩手県二戸郡一戸町小鳥谷字仁昌寺43-2", "P29_006": "3", "P29_007": "1", "P29_008": "00", "P29_009": null }, "geometry": { "type": "Point", "coordinates": [ 141.304064028772729, 40.165932266573023 ] } },
{ "type": "Feature", "properties": { "P29_001": "03524", "P29_002": "B103252400041", "P29_003": "16001", "P29_004": "一戸町立奥中山小学校", "P29_005": "岩手県二戸郡一戸町奥中山字西田子75-4", "P29_006": "3", "P29_007": "1", "P29_008": "00", "P29_009": null }, "geometry": { "type": "Point", "coordinates": [ 141.22529769099026, 40.065310128027399 ] } },
{ "type": "Feature", "properties": { "P29_001": "03524", "P29_002": "B103252400050", "P29_003": "16001", "P29_004": "一戸町立一戸南小学校", "P29_005": "岩手県二戸郡一戸町西法寺字関屋62-1", "P29_006": "3", "P29_007": "1", "P29_008": "00", "P29_009": null }, "geometry": { "type": "Point", "coordinates": [ 141.299358411347072, 40.201490272120495 ] } },
{ "type": "Feature", "properties": { "P29_001": "03524", "P29_002": "B103252400069", "P29_003": "16001", "P29_004": "一戸町立鳥海小学校", "P29_005": "岩手県二戸郡一戸町中里字中前田15", "P29_006": "3", "P29_007": "1", "P29_008": "00", "P29_009": null }, "geometry": { "type": "Point", "coordinates": [ 141.262904072104362, 40.195816419240387 ] } },
{ "type": "Feature", "properties": { "P29_001": "03201", "P29_002": "B103320100012", "P29_003": "16001", "P29_004": "盛岡白百合学園小学校", "P29_005": "岩手県盛岡市山岸4-29-16", "P29_006": "4", "P29_007": "1", "P29_008": "00", "P29_009": null }, "geometry": { "type": "Point", "coordinates": [ 141.165495093024873, 39.723969312109013 ] } }
]
}
