{
"type": "FeatureCollection",
"name": "geo_3_1",
"crs": { "type": "name", "properties": { "name": "urn:ogc:def:crs:OGC:1.3:CRS84" } },
"features": [
{ "type": "Feature", "properties": { "ID": 3103100001, "正式名称": "医療法人仁医会（財団）釜石厚生病院", "機関区分": 1, "都道府県コード": 3, "市区町村コード": 211, "所在地": "岩手県釜石市野田町一丁目１６番３２号", "緯度": 39.2573708, "経度": 141.8273914, "url": "https://www.iryou.teikyouseido.mhlw.go.jp/znk-web/juminkanja/S2430/initialize?prefCd=03&kikanCd=103100001&kikanKbn=1", "url2": "http://www.iwate21.net/jini/kamaishi/index.html", "内容": "医療法人仁医会（財団）釜石厚生病院【1:病院】【診療科目:0】【一般病床数:0療養病床数:0精神病床数:155感染症病床数:0合計病床数:155】岩手県釜石市野田町一丁目１６番３２号" }, "geometry": { "type": "Point", "coordinates": [ 141.82739140000001, 39.2573708 ] } },
{ "type": "Feature", "properties": { "ID": 3103100002, "正式名称": "岩手県立大槌病院", "機関区分": 1, "都道府県コード": 3, "市区町村コード": 461, "所在地": "岩手県上閉伊郡大槌町小鎚第２３地割字寺野１番１号", "緯度": 39.35963, "経度": 141.878922, "url": "https://www.iryou.teikyouseido.mhlw.go.jp/znk-web/juminkanja/S2430/initialize?prefCd=03&kikanCd=103100002&kikanKbn=1", "url2": "https://www.pref.iwate.jp/iryoukyoku/1061534/index.html", "内容": "岩手県立大槌病院【1:病院】【診療科目:0】【一般病床数:50療養病床数:0精神病床数:0感染症病床数:0合計病床数:50】岩手県上閉伊郡大槌町小鎚第２３地割字寺野１番１号" }, "geometry": { "type": "Point", "coordinates": [ 141.878922, 39.35963 ] } },
{ "type": "Feature", "properties": { "ID": 3103100004, "正式名称": "岩手県立釜石病院", "機関区分": 1, "都道府県コード": 3, "市区町村コード": 211, "所在地": "岩手県釜石市甲子町第１０地割４８３－６", "緯度": 39.255312, "経度": 141.816576, "url": "https://www.iryou.teikyouseido.mhlw.go.jp/znk-web/juminkanja/S2430/initialize?prefCd=03&kikanCd=103100004&kikanKbn=1", "url2": "http://www.kamaishi-hp.com/", "内容": "岩手県立釜石病院【1:病院】【診療科目:0】【一般病床数:180療養病床数:0精神病床数:0感染症病床数:0合計病床数:180】岩手県釜石市甲子町第１０地割４８３－６" }, "geometry": { "type": "Point", "coordinates": [ 141.816576, 39.255312 ] } },
{ "type": "Feature", "properties": { "ID": 3103100007, "正式名称": "医療法人楽山会　せいてつ記念病院", "機関区分": 1, "都道府県コード": 3, "市区町村コード": 211, "所在地": "岩手県釜石市小佐野町４丁目３－７", "緯度": 39.261644, "経度": 141.836337, "url": "https://www.iryou.teikyouseido.mhlw.go.jp/znk-web/juminkanja/S2430/initialize?prefCd=03&kikanCd=103100007&kikanKbn=1", "url2": "http://www.rakuzankai.jp/", "内容": "医療法人楽山会　せいてつ記念病院【1:病院】【診療科目:0】【一般病床数:104療養病床数:0精神病床数:0感染症病床数:0合計病床数:104】岩手県釜石市小佐野町４丁目３－７" }, "geometry": { "type": "Point", "coordinates": [ 141.836337, 39.261644 ] } },
{ "type": "Feature", "properties": { "ID": 3103100008, "正式名称": "医療法人財団正清会　みなとホスピタル", "機関区分": 1, "都道府県コード": 3, "市区町村コード": 202, "所在地": "岩手県宮古市根市第２地割３５番２", "緯度": 39.63248, "経度": 141.892561, "url": "https://www.iryou.teikyouseido.mhlw.go.jp/znk-web/juminkanja/S2430/initialize?prefCd=03&kikanCd=103100008&kikanKbn=1", "url2": "http://minatohospital.jp/", "内容": "医療法人財団正清会　みなとホスピタル【1:病院】【診療科目:0】【一般病床数:0療養病床数:0精神病床数:152感染症病床数:0合計病床数:152】岩手県宮古市根市第２地割３５番２" }, "geometry": { "type": "Point", "coordinates": [ 141.892561, 39.63248 ] } },
{ "type": "Feature", "properties": { "ID": 3103100009, "正式名称": "社団医療法人新和会　宮古山口病院", "機関区分": 1, "都道府県コード": 3, "市区町村コード": 202, "所在地": "岩手県宮古市山口五丁目３番２０号", "緯度": 39.655516, "経度": 141.932471, "url": "https://www.iryou.teikyouseido.mhlw.go.jp/znk-web/juminkanja/S2430/initialize?prefCd=03&kikanCd=103100009&kikanKbn=1", "url2": "https://www.shinwa-kai.jp", "内容": "社団医療法人新和会　宮古山口病院【1:病院】【診療科目:0】【一般病床数:0療養病床数:0精神病床数:330感染症病床数:0合計病床数:330】岩手県宮古市山口五丁目３番２０号" }, "geometry": { "type": "Point", "coordinates": [ 141.932471, 39.655516 ] } },
{ "type": "Feature", "properties": { "ID": 3103100010, "正式名称": "医療法人社団弘慈会　宮古第一病院", "機関区分": 1, "都道府県コード": 3, "市区町村コード": 202, "所在地": "岩手県宮古市保久田８番３７号", "緯度": 39.644468, "経度": 141.947183, "url": "https://www.iryou.teikyouseido.mhlw.go.jp/znk-web/juminkanja/S2430/initialize?prefCd=03&kikanCd=103100010&kikanKbn=1", "url2": "http://www.miyakodaiichi-hp.or.jp/", "内容": "医療法人社団弘慈会　宮古第一病院【1:病院】【診療科目:0】【一般病床数:0療養病床数:148精神病床数:0感染症病床数:0合計病床数:148】岩手県宮古市保久田８番３７号" }, "geometry": { "type": "Point", "coordinates": [ 141.947183, 39.644468 ] } },
{ "type": "Feature", "properties": { "ID": 3103100011, "正式名称": "社会福祉法人恩賜財団岩手県済生会岩泉病院", "機関区分": 1, "都道府県コード": 3, "市区町村コード": 483, "所在地": "岩手県下閉伊郡岩泉町岩泉字中家１９番地１", "緯度": 39.847614, "経度": 141.795172, "url": "https://www.iryou.teikyouseido.mhlw.go.jp/znk-web/juminkanja/S2430/initialize?prefCd=03&kikanCd=103100011&kikanKbn=1", "url2": "http://saisei-iwaizumi.com/", "内容": "社会福祉法人恩賜財団岩手県済生会岩泉病院【1:病院】【診療科目:0】【一般病床数:60療養病床数:0精神病床数:0感染症病床数:0合計病床数:60】岩手県下閉伊郡岩泉町岩泉字中家１９番地１" }, "geometry": { "type": "Point", "coordinates": [ 141.795172, 39.847614 ] } },
{ "type": "Feature", "properties": { "ID": 3103100013, "正式名称": "岩手県立二戸病院", "機関区分": 1, "都道府県コード": 3, "市区町村コード": 213, "所在地": "岩手県二戸市堀野字大川原毛３８ー２", "緯度": 40.299403, "経度": 141.305997, "url": "https://www.iryou.teikyouseido.mhlw.go.jp/znk-web/juminkanja/S2430/initialize?prefCd=03&kikanCd=103100013&kikanKbn=1", "url2": "http://www.ninohe-hp.net/", "内容": "岩手県立二戸病院【1:病院】【診療科目:0】【一般病床数:225療養病床数:0精神病床数:0感染症病床数:0合計病床数:230】岩手県二戸市堀野字大川原毛３８ー２" }, "geometry": { "type": "Point", "coordinates": [ 141.305997, 40.299403 ] } },
{ "type": "Feature", "properties": { "ID": 3103100014, "正式名称": "岩手県立軽米病院", "機関区分": 1, "都道府県コード": 3, "市区町村コード": 501, "所在地": "岩手県九戸郡軽米町軽米２－５４－５", "緯度": 40.324882, "経度": 141.443336, "url": "https://www.iryou.teikyouseido.mhlw.go.jp/znk-web/juminkanja/S2430/initialize?prefCd=03&kikanCd=103100014&kikanKbn=1", "url2": "http://www.karumai-hospital.net/", "内容": "岩手県立軽米病院【1:病院】【診療科目:0】【一般病床数:53療養病床数:45精神病床数:0感染症病床数:0合計病床数:98】岩手県九戸郡軽米町軽米２－５４－５" }, "geometry": { "type": "Point", "coordinates": [ 141.443336, 40.324882 ] } },
{ "type": "Feature", "properties": { "ID": 3103100015, "正式名称": "洋野町国民健康保険種市病院", "機関区分": 1, "都道府県コード": 3, "市区町村コード": 507, "所在地": "岩手県九戸郡洋野町種市第２３地割２７番地２", "緯度": 40.409823, "経度": 141.719191, "url": "https://www.iryou.teikyouseido.mhlw.go.jp/znk-web/juminkanja/S2430/initialize?prefCd=03&kikanCd=103100015&kikanKbn=1", "url2": null, "内容": "洋野町国民健康保険種市病院【1:病院】【診療科目:0】【一般病床数:41療養病床数:0精神病床数:0感染症病床数:0合計病床数:41】岩手県九戸郡洋野町種市第２３地割２７番地２" }, "geometry": { "type": "Point", "coordinates": [ 141.719191, 40.409823 ] } },
{ "type": "Feature", "properties": { "ID": 3103100016, "正式名称": "社団医療法人祐和会　北リアス病院", "機関区分": 1, "都道府県コード": 3, "市区町村コード": 207, "所在地": "岩手県久慈市源道１２－１１１", "緯度": 40.203535, "経度": 141.784698, "url": "https://www.iryou.teikyouseido.mhlw.go.jp/znk-web/juminkanja/S2430/initialize?prefCd=03&kikanCd=103100016&kikanKbn=1", "url2": "http://www2.ocn.ne.jp/~kyowa-hp/", "内容": "社団医療法人祐和会　北リアス病院【1:病院】【診療科目:0】【一般病床数:0療養病床数:0精神病床数:210感染症病床数:0合計病床数:210】岩手県久慈市源道１２－１１１" }, "geometry": { "type": "Point", "coordinates": [ 141.784698, 40.203535 ] } },
{ "type": "Feature", "properties": { "ID": 3103100017, "正式名称": "久慈恵愛病院", "機関区分": 1, "都道府県コード": 3, "市区町村コード": 207, "所在地": "岩手県久慈市湊町１７－１００", "緯度": 40.202711, "経度": 141.794978, "url": "https://www.iryou.teikyouseido.mhlw.go.jp/znk-web/juminkanja/S2430/initialize?prefCd=03&kikanCd=103100017&kikanKbn=1", "url2": "http://kujikeiai.jimdo.com", "内容": "久慈恵愛病院【1:病院】【診療科目:0】【一般病床数:39療養病床数:22精神病床数:0感染症病床数:0合計病床数:61】岩手県久慈市湊町１７－１００" }, "geometry": { "type": "Point", "coordinates": [ 141.794978, 40.202711 ] } },
{ "type": "Feature", "properties": { "ID": 3103100018, "正式名称": "岩手県立久慈病院", "機関区分": 1, "都道府県コード": 3, "市区町村コード": 207, "所在地": "岩手県久慈市旭町１０地割１番", "緯度": 40.200311, "経度": 141.776396, "url": "https://www.iryou.teikyouseido.mhlw.go.jp/znk-web/juminkanja/S2430/initialize?prefCd=03&kikanCd=103100018&kikanKbn=1", "url2": "http://www.kuji-hp.com/", "内容": "岩手県立久慈病院【1:病院】【診療科目:0】【一般病床数:287療養病床数:43精神病床数:0感染症病床数:4合計病床数:334】岩手県久慈市旭町１０地割１番" }, "geometry": { "type": "Point", "coordinates": [ 141.776396, 40.200311 ] } },
{ "type": "Feature", "properties": { "ID": 3103100019, "正式名称": "岩手県立大船渡病院", "機関区分": 1, "都道府県コード": 3, "市区町村コード": 203, "所在地": "岩手県大船渡市大船渡町字山馬越１０ー１", "緯度": 39.07263, "経度": 141.707477, "url": "https://www.iryou.teikyouseido.mhlw.go.jp/znk-web/juminkanja/S2430/initialize?prefCd=03&kikanCd=103100019&kikanKbn=1", "url2": "http://oofunato-hp.com/", "内容": "岩手県立大船渡病院【1:病院】【診療科目:0】【一般病床数:280療養病床数:0精神病床数:105感染症病床数:4合計病床数:399】岩手県大船渡市大船渡町字山馬越１０ー１" }, "geometry": { "type": "Point", "coordinates": [ 141.707477, 39.07263 ] } },
{ "type": "Feature", "properties": { "ID": 3103100020, "正式名称": "岩手県立高田病院", "機関区分": 1, "都道府県コード": 3, "市区町村コード": 210, "所在地": "岩手県陸前高田市高田町字太田５１２番地２", "緯度": 39.025445, "経度": 141.641928, "url": "https://www.iryou.teikyouseido.mhlw.go.jp/znk-web/juminkanja/S2430/initialize?prefCd=03&kikanCd=103100020&kikanKbn=1", "url2": "http://www.takata-hp.com/", "内容": "岩手県立高田病院【1:病院】【診療科目:0】【一般病床数:60療養病床数:0精神病床数:0感染症病床数:0合計病床数:60】岩手県陸前高田市高田町字太田５１２番地２" }, "geometry": { "type": "Point", "coordinates": [ 141.641928, 39.025445 ] } },
{ "type": "Feature", "properties": { "ID": 3103100025, "正式名称": "公益社団法人花巻共立会総合花巻病院", "機関区分": 1, "都道府県コード": 3, "市区町村コード": 205, "所在地": "岩手県花巻市御田屋町４番５６号", "緯度": 39.385494, "経度": 141.123815, "url": "https://www.iryou.teikyouseido.mhlw.go.jp/znk-web/juminkanja/S2430/initialize?prefCd=03&kikanCd=103100025&kikanKbn=1", "url2": "http://www.hanamakihospital.or.jp/", "内容": "公益社団法人花巻共立会総合花巻病院【1:病院】【診療科目:0】【一般病床数:198療養病床数:0精神病床数:0感染症病床数:0合計病床数:198】岩手県花巻市御田屋町４番５６号" }, "geometry": { "type": "Point", "coordinates": [ 141.123815, 39.385494 ] } },
{ "type": "Feature", "properties": { "ID": 3103100026, "正式名称": "社団医療法人啓愛会　宝陽病院", "機関区分": 1, "都道府県コード": 3, "市区町村コード": 205, "所在地": "岩手県花巻市石鳥谷町新堀１５地割２３番地", "緯度": 39.497286, "経度": 141.168738, "url": "https://www.iryou.teikyouseido.mhlw.go.jp/znk-web/juminkanja/S2430/initialize?prefCd=03&kikanCd=103100026&kikanKbn=1", "url2": "http://www.keiaikai-houyou.jp/", "内容": "社団医療法人啓愛会　宝陽病院【1:病院】【診療科目:0】【一般病床数:112療養病床数:45精神病床数:0感染症病床数:0合計病床数:157】岩手県花巻市石鳥谷町新堀１５地割２３番地" }, "geometry": { "type": "Point", "coordinates": [ 141.168738, 39.497286 ] } },
{ "type": "Feature", "properties": { "ID": 3103100029, "正式名称": "医療法人ほがらか会もとだて病院", "機関区分": 1, "都道府県コード": 3, "市区町村コード": 205, "所在地": "岩手県花巻市東宮野目第１３地割１番地１", "緯度": 39.408872, "経度": 141.124199, "url": "https://www.iryou.teikyouseido.mhlw.go.jp/znk-web/juminkanja/S2430/initialize?prefCd=03&kikanCd=103100029&kikanKbn=1", "url2": "http://hoshokai.com/motodate/", "内容": "医療法人ほがらか会もとだて病院【1:病院】【診療科目:0】【一般病床数:0療養病床数:0精神病床数:144感染症病床数:0合計病床数:144】岩手県花巻市東宮野目第１３地割１番地１" }, "geometry": { "type": "Point", "coordinates": [ 141.124199, 39.408872 ] } },
{ "type": "Feature", "properties": { "ID": 3103100030, "正式名称": "岩手県立東和病院", "機関区分": 1, "都道府県コード": 3, "市区町村コード": 205, "所在地": "岩手県花巻市東和町安俵６区７５番地１", "緯度": 39.383922, "経度": 141.223815, "url": "https://www.iryou.teikyouseido.mhlw.go.jp/znk-web/juminkanja/S2430/initialize?prefCd=03&kikanCd=103100030&kikanKbn=1", "url2": "http://towa-hp.com/", "内容": "岩手県立東和病院【1:病院】【診療科目:0】【一般病床数:68療養病床数:0精神病床数:0感染症病床数:0合計病床数:68】岩手県花巻市東和町安俵６区７５番地１" }, "geometry": { "type": "Point", "coordinates": [ 141.223815, 39.383922 ] } },
{ "type": "Feature", "properties": { "ID": 3103100031, "正式名称": "独立行政法人国立病院機構　花巻病院", "機関区分": 1, "都道府県コード": 3, "市区町村コード": 205, "所在地": "岩手県花巻市諏訪５００", "緯度": 39.368912, "経度": 141.10676, "url": "https://www.iryou.teikyouseido.mhlw.go.jp/znk-web/juminkanja/S2430/initialize?prefCd=03&kikanCd=103100031&kikanKbn=1", "url2": "https://hanamaki.hosp.go.jp/", "内容": "独立行政法人国立病院機構　花巻病院【1:病院】【診療科目:0】【一般病床数:60療養病床数:0精神病床数:144感染症病床数:0合計病床数:204】岩手県花巻市諏訪５００" }, "geometry": { "type": "Point", "coordinates": [ 141.10676, 39.368912 ] } },
{ "type": "Feature", "properties": { "ID": 3103100033, "正式名称": "奥州市国民健康保険まごころ病院", "機関区分": 1, "都道府県コード": 3, "市区町村コード": 215, "所在地": "岩手県奥州市胆沢南都田字大持４０番地", "緯度": 39.14096, "経度": 141.08966, "url": "https://www.iryou.teikyouseido.mhlw.go.jp/znk-web/juminkanja/S2430/initialize?prefCd=03&kikanCd=103100033&kikanKbn=1", "url2": "https://www.city.oshu.iwate.jp/magokoro/index.html", "内容": "奥州市国民健康保険まごころ病院【1:病院】【診療科目:0】【一般病床数:48療養病床数:0精神病床数:0感染症病床数:0合計病床数:48】岩手県奥州市胆沢南都田字大持４０番地" }, "geometry": { "type": "Point", "coordinates": [ 141.08966, 39.14096 ] } },
{ "type": "Feature", "properties": { "ID": 3103100034, "正式名称": "美希病院", "機関区分": 1, "都道府県コード": 3, "市区町村コード": 215, "所在地": "岩手県奥州市前沢古城字丑沢上野１００番地", "緯度": 39.070458, "経度": 141.126999, "url": "https://www.iryou.teikyouseido.mhlw.go.jp/znk-web/juminkanja/S2430/initialize?prefCd=03&kikanCd=103100034&kikanKbn=1", "url2": "http://www.kihp.jp/mikihp", "内容": "美希病院【1:病院】【診療科目:0】【一般病床数:149療養病床数:100精神病床数:0感染症病床数:0合計病床数:249】岩手県奥州市前沢古城字丑沢上野１００番地" }, "geometry": { "type": "Point", "coordinates": [ 141.126999, 39.070458 ] } },
{ "type": "Feature", "properties": { "ID": 3103100036, "正式名称": "石川病院", "機関区分": 1, "都道府県コード": 3, "市区町村コード": 215, "所在地": "岩手県奥州市水沢南町８番１０号", "緯度": 39.136118, "経度": 141.143636, "url": "https://www.iryou.teikyouseido.mhlw.go.jp/znk-web/juminkanja/S2430/initialize?prefCd=03&kikanCd=103100036&kikanKbn=1", "url2": null, "内容": "石川病院【1:病院】【診療科目:0】【一般病床数:20療養病床数:12精神病床数:0感染症病床数:0合計病床数:32】岩手県奥州市水沢南町８番１０号" }, "geometry": { "type": "Point", "coordinates": [ 141.143636, 39.136118 ] } },
{ "type": "Feature", "properties": { "ID": 3103100037, "正式名称": "美山病院", "機関区分": 1, "都道府県コード": 3, "市区町村コード": 215, "所在地": "岩手県奥州市水沢羽田町字水無沢４９５番地２", "緯度": 39.129436, "経度": 141.2107177, "url": "https://www.iryou.teikyouseido.mhlw.go.jp/znk-web/juminkanja/S2430/initialize?prefCd=03&kikanCd=103100037&kikanKbn=1", "url2": "http://www.keiaikai-miyama.jp/", "内容": "美山病院【1:病院】【診療科目:0】【一般病床数:112療養病床数:60精神病床数:0感染症病床数:0合計病床数:172】岩手県奥州市水沢羽田町字水無沢４９５番地２" }, "geometry": { "type": "Point", "coordinates": [ 141.2107177, 39.129436 ] } },
{ "type": "Feature", "properties": { "ID": 3103100038, "正式名称": "奥州病院", "機関区分": 1, "都道府県コード": 3, "市区町村コード": 215, "所在地": "岩手県奥州市水沢東大通り１－５－３０", "緯度": 39.139649, "経度": 141.148249, "url": "https://www.iryou.teikyouseido.mhlw.go.jp/znk-web/juminkanja/S2430/initialize?prefCd=03&kikanCd=103100038&kikanKbn=1", "url2": "http://www.seiwakai-med.or.jp/", "内容": "奥州病院【1:病院】【診療科目:0】【一般病床数:38療養病床数:118精神病床数:0感染症病床数:0合計病床数:156】岩手県奥州市水沢東大通り１－５－３０" }, "geometry": { "type": "Point", "coordinates": [ 141.148249, 39.139649 ] } },
{ "type": "Feature", "properties": { "ID": 3103100039, "正式名称": "おとめがわ病院", "機関区分": 1, "都道府県コード": 3, "市区町村コード": 215, "所在地": "岩手県奥州市水沢佐倉河字慶徳２７番地１", "緯度": 39.143347, "経度": 141.148766, "url": "https://www.iryou.teikyouseido.mhlw.go.jp/znk-web/juminkanja/S2430/initialize?prefCd=03&kikanCd=103100039&kikanKbn=1", "url2": "http://www.rnac.ne.jp/~otomegawahp/", "内容": "おとめがわ病院【1:病院】【診療科目:0】【一般病床数:0療養病床数:0精神病床数:274感染症病床数:0合計病床数:274】岩手県奥州市水沢佐倉河字慶徳２７番地１" }, "geometry": { "type": "Point", "coordinates": [ 141.148766, 39.143347 ] } },
{ "type": "Feature", "properties": { "ID": 3103100040, "正式名称": "奥州市総合水沢病院", "機関区分": 1, "都道府県コード": 3, "市区町村コード": 215, "所在地": "岩手県奥州市水沢大手町三丁目１番地", "緯度": 39.146631, "経度": 141.138846, "url": "https://www.iryou.teikyouseido.mhlw.go.jp/znk-web/juminkanja/S2430/initialize?prefCd=03&kikanCd=103100040&kikanKbn=1", "url2": "http://www.mizhsp-iwate.jp/", "内容": "奥州市総合水沢病院【1:病院】【診療科目:0】【一般病床数:135療養病床数:0精神病床数:0感染症病床数:4合計病床数:139】岩手県奥州市水沢大手町三丁目１番地" }, "geometry": { "type": "Point", "coordinates": [ 141.138846, 39.146631 ] } },
{ "type": "Feature", "properties": { "ID": 3103100041, "正式名称": "岩手県立胆沢病院", "機関区分": 1, "都道府県コード": 3, "市区町村コード": 215, "所在地": "岩手県奥州市水沢字龍ケ馬場６１番地", "緯度": 39.124168, "経度": 141.135667, "url": "https://www.iryou.teikyouseido.mhlw.go.jp/znk-web/juminkanja/S2430/initialize?prefCd=03&kikanCd=103100041&kikanKbn=1", "url2": "http://www.isawa-hp.com/shokai.php", "内容": "岩手県立胆沢病院【1:病院】【診療科目:0】【一般病床数:337療養病床数:0精神病床数:0感染症病床数:0合計病床数:346】岩手県奥州市水沢字龍ケ馬場６１番地" }, "geometry": { "type": "Point", "coordinates": [ 141.135667, 39.124168 ] } },
{ "type": "Feature", "properties": { "ID": 3103100042, "正式名称": "岩手県立大東病院", "機関区分": 1, "都道府県コード": 3, "市区町村コード": 209, "所在地": "岩手県一関市大東町大原字川内１２８番地", "緯度": 39.01663, "経度": 141.395165, "url": "https://www.iryou.teikyouseido.mhlw.go.jp/znk-web/juminkanja/S2430/initialize?prefCd=03&kikanCd=103100042&kikanKbn=1", "url2": "http://www.daitou-hp.com/", "内容": "岩手県立大東病院【1:病院】【診療科目:0】【一般病床数:40療養病床数:0精神病床数:0感染症病床数:0合計病床数:40】岩手県一関市大東町大原字川内１２８番地" }, "geometry": { "type": "Point", "coordinates": [ 141.395165, 39.01663 ] } },
{ "type": "Feature", "properties": { "ID": 3103100043, "正式名称": "岩手県立南光病院", "機関区分": 1, "都道府県コード": 3, "市区町村コード": 209, "所在地": "岩手県一関市狐禅寺字大平１７番地", "緯度": 38.936175, "経度": 141.170257, "url": "https://www.iryou.teikyouseido.mhlw.go.jp/znk-web/juminkanja/S2430/initialize?prefCd=03&kikanCd=103100043&kikanKbn=1", "url2": "http://www.nanko-hp.net/", "内容": "岩手県立南光病院【1:病院】【診療科目:0】【一般病床数:0療養病床数:0精神病床数:359感染症病床数:0合計病床数:359】岩手県一関市狐禅寺字大平１７番地" }, "geometry": { "type": "Point", "coordinates": [ 141.170257, 38.936175 ] } },
{ "type": "Feature", "properties": { "ID": 3103100046, "正式名称": "岩手県立磐井病院", "機関区分": 1, "都道府県コード": 3, "市区町村コード": 209, "所在地": "岩手県一関市狐禅寺字大平１７番地", "緯度": 38.935398, "経度": 141.169367, "url": "https://www.iryou.teikyouseido.mhlw.go.jp/znk-web/juminkanja/S2430/initialize?prefCd=03&kikanCd=103100046&kikanKbn=1", "url2": "http://www.iwai-hp.com", "内容": "岩手県立磐井病院【1:病院】【診療科目:0】【一般病床数:305療養病床数:0精神病床数:0感染症病床数:0合計病床数:315】岩手県一関市狐禅寺字大平１７番地" }, "geometry": { "type": "Point", "coordinates": [ 141.169367, 38.935398 ] } },
{ "type": "Feature", "properties": { "ID": 3103100048, "正式名称": "医療法人社団愛生会昭和病院", "機関区分": 1, "都道府県コード": 3, "市区町村コード": 209, "所在地": "岩手県一関市田村町６番３号", "緯度": 38.930044, "経度": 141.132809, "url": "https://www.iryou.teikyouseido.mhlw.go.jp/znk-web/juminkanja/S2430/initialize?prefCd=03&kikanCd=103100048&kikanKbn=1", "url2": "https://www.aiseikai-shp.or.jp", "内容": "医療法人社団愛生会昭和病院【1:病院】【診療科目:0】【一般病床数:54療養病床数:0精神病床数:0感染症病床数:0合計病床数:54】岩手県一関市田村町６番３号" }, "geometry": { "type": "Point", "coordinates": [ 141.132809, 38.930044 ] } },
{ "type": "Feature", "properties": { "ID": 3103100049, "正式名称": "社団医療法人西城病院　一関西城病院", "機関区分": 1, "都道府県コード": 3, "市区町村コード": 209, "所在地": "岩手県一関市大手町３番３６号", "緯度": 38.929526, "経度": 141.134872, "url": "https://www.iryou.teikyouseido.mhlw.go.jp/znk-web/juminkanja/S2430/initialize?prefCd=03&kikanCd=103100049&kikanKbn=1", "url2": "http://www.ichi-hp.jp/", "内容": "社団医療法人西城病院　一関西城病院【1:病院】【診療科目:0】【一般病床数:139療養病床数:60精神病床数:0感染症病床数:0合計病床数:199】岩手県一関市大手町３番３６号" }, "geometry": { "type": "Point", "coordinates": [ 141.134872, 38.929526 ] } },
{ "type": "Feature", "properties": { "ID": 3103100050, "正式名称": "岩手県立中央病院", "機関区分": 1, "都道府県コード": 3, "市区町村コード": 201, "所在地": "岩手県盛岡市上田一丁目４ー１", "緯度": 39.713433, "経度": 141.145816, "url": "https://www.iryou.teikyouseido.mhlw.go.jp/znk-web/juminkanja/S2430/initialize?prefCd=03&kikanCd=103100050&kikanKbn=1", "url2": "http://www.chuo-hp.jp/", "内容": "岩手県立中央病院【1:病院】【診療科目:0】【一般病床数:685療養病床数:0精神病床数:0感染症病床数:0合計病床数:685】岩手県盛岡市上田一丁目４ー１" }, "geometry": { "type": "Point", "coordinates": [ 141.145816, 39.713433 ] } },
{ "type": "Feature", "properties": { "ID": 3103100053, "正式名称": "盛岡赤十字病院", "機関区分": 1, "都道府県コード": 3, "市区町村コード": 201, "所在地": "岩手県盛岡市三本柳６地割１－１", "緯度": 39.652956, "経度": 141.17083, "url": "https://www.iryou.teikyouseido.mhlw.go.jp/znk-web/juminkanja/S2430/initialize?prefCd=03&kikanCd=103100053&kikanKbn=1", "url2": "http://www.morioka.jrc.or.jp", "内容": "盛岡赤十字病院【1:病院】【診療科目:0】【一般病床数:354療養病床数:0精神病床数:0感染症病床数:0合計病床数:354】岩手県盛岡市三本柳６地割１－１" }, "geometry": { "type": "Point", "coordinates": [ 141.17083, 39.652956 ] } },
{ "type": "Feature", "properties": { "ID": 3103100054, "正式名称": "医療法人共生会　松園第二病院", "機関区分": 1, "都道府県コード": 3, "市区町村コード": 201, "所在地": "岩手県盛岡市西松園３丁目２２ー３", "緯度": 39.756629, "経度": 141.16277, "url": "https://www.iryou.teikyouseido.mhlw.go.jp/znk-web/juminkanja/S2430/initialize?prefCd=03&kikanCd=103100054&kikanKbn=1", "url2": "http://www.matsuzono.jp", "内容": "医療法人共生会　松園第二病院【1:病院】【診療科目:0】【一般病床数:59療養病床数:30精神病床数:0感染症病床数:0合計病床数:89】岩手県盛岡市西松園３丁目２２ー３" }, "geometry": { "type": "Point", "coordinates": [ 141.16277, 39.756629 ] } },
{ "type": "Feature", "properties": { "ID": 3103100055, "正式名称": "医療法人友愛会　盛岡友愛病院", "機関区分": 1, "都道府県コード": 3, "市区町村コード": 201, "所在地": "岩手県盛岡市永井１２−１０", "緯度": 39.653748, "経度": 141.15408, "url": "https://www.iryou.teikyouseido.mhlw.go.jp/znk-web/juminkanja/S2430/initialize?prefCd=03&kikanCd=103100055&kikanKbn=1", "url2": "https://www.yu-ai-hp.net/", "内容": "医療法人友愛会　盛岡友愛病院【1:病院】【診療科目:0】【一般病床数:360療養病床数:0精神病床数:0感染症病床数:0合計病床数:360】岩手県盛岡市永井１２−１０" }, "geometry": { "type": "Point", "coordinates": [ 141.15408, 39.653748 ] } },
{ "type": "Feature", "properties": { "ID": 3103100057, "正式名称": "医療法人社団愛和会　盛岡南病院", "機関区分": 1, "都道府県コード": 3, "市区町村コード": 201, "所在地": "岩手県盛岡市津志田１３地割１８番地４", "緯度": 39.656483, "経度": 141.156095, "url": "https://www.iryou.teikyouseido.mhlw.go.jp/znk-web/juminkanja/S2430/initialize?prefCd=03&kikanCd=103100057&kikanKbn=1", "url2": "http://www.moriokaminami-hp.com/", "内容": "医療法人社団愛和会　盛岡南病院【1:病院】【診療科目:0】【一般病床数:0療養病床数:164精神病床数:0感染症病床数:0合計病床数:164】岩手県盛岡市津志田１３地割１８番地４" }, "geometry": { "type": "Point", "coordinates": [ 141.156095, 39.656483 ] } },
{ "type": "Feature", "properties": { "ID": 3103100058, "正式名称": "医療法人仁医会（財団）　都南病院", "機関区分": 1, "都道府県コード": 3, "市区町村コード": 201, "所在地": "岩手県盛岡市東見前６地割４０番地１", "緯度": 39.642167, "経度": 141.168494, "url": "https://www.iryou.teikyouseido.mhlw.go.jp/znk-web/juminkanja/S2430/initialize?prefCd=03&kikanCd=103100058&kikanKbn=1", "url2": "http://www.jinikai.jp/", "内容": "医療法人仁医会（財団）　都南病院【1:病院】【診療科目:0】【一般病床数:0療養病床数:0精神病床数:231感染症病床数:0合計病床数:231】岩手県盛岡市東見前６地割４０番地１" }, "geometry": { "type": "Point", "coordinates": [ 141.168494, 39.642167 ] } },
{ "type": "Feature", "properties": { "ID": 3103100059, "正式名称": "盛岡医療生活協同組合　川久保病院", "機関区分": 1, "都道府県コード": 3, "市区町村コード": 201, "所在地": "岩手県盛岡市津志田２６ー３０ー１", "緯度": 39.672109, "経度": 141.156329, "url": "https://www.iryou.teikyouseido.mhlw.go.jp/znk-web/juminkanja/S2430/initialize?prefCd=03&kikanCd=103100059&kikanKbn=1", "url2": "http://kawakubo-hos.jp/", "内容": "盛岡医療生活協同組合　川久保病院【1:病院】【診療科目:0】【一般病床数:60療養病床数:60精神病床数:0感染症病床数:0合計病床数:120】岩手県盛岡市津志田２６ー３０ー１" }, "geometry": { "type": "Point", "coordinates": [ 141.156329, 39.672109 ] } },
{ "type": "Feature", "properties": { "ID": 3103100060, "正式名称": "社会医療法人智徳会　未来の風せいわ病院", "機関区分": 1, "都道府県コード": 3, "市区町村コード": 201, "所在地": "岩手県盛岡市手代森９地割７０ー１", "緯度": 39.658384, "経度": 141.185451, "url": "https://www.iryou.teikyouseido.mhlw.go.jp/znk-web/juminkanja/S2430/initialize?prefCd=03&kikanCd=103100060&kikanKbn=1", "url2": "http://www.mirai-seiwa.com", "内容": "社会医療法人智徳会　未来の風せいわ病院【1:病院】【診療科目:0】【一般病床数:0療養病床数:0精神病床数:267感染症病床数:0合計病床数:267】岩手県盛岡市手代森９地割７０ー１" }, "geometry": { "type": "Point", "coordinates": [ 141.185451, 39.658384 ] } },
{ "type": "Feature", "properties": { "ID": 3103100062, "正式名称": "特定医療法人盛岡つなぎ温泉病院", "機関区分": 1, "都道府県コード": 3, "市区町村コード": 201, "所在地": "岩手県盛岡市繋字尾入野６４ー９", "緯度": 39.689069, "経度": 141.024204, "url": "https://www.iryou.teikyouseido.mhlw.go.jp/znk-web/juminkanja/S2430/initialize?prefCd=03&kikanCd=103100062&kikanKbn=1", "url2": "http://tsunagi-hp.net/", "内容": "特定医療法人盛岡つなぎ温泉病院【1:病院】【診療科目:0】【一般病床数:48療養病床数:120精神病床数:0感染症病床数:0合計病床数:170】岩手県盛岡市繋字尾入野６４ー９" }, "geometry": { "type": "Point", "coordinates": [ 141.024204, 39.689069 ] } },
{ "type": "Feature", "properties": { "ID": 3103100063, "正式名称": "内丸病院", "機関区分": 1, "都道府県コード": 3, "市区町村コード": 201, "所在地": "岩手県盛岡市本町通１ー１２ー７", "緯度": 39.707342, "経度": 141.154176, "url": "https://www.iryou.teikyouseido.mhlw.go.jp/znk-web/juminkanja/S2430/initialize?prefCd=03&kikanCd=103100063&kikanKbn=1", "url2": "http://uchimaru-hospital.jp/", "内容": "内丸病院【1:病院】【診療科目:0】【一般病床数:60療養病床数:30精神病床数:0感染症病床数:0合計病床数:90】岩手県盛岡市本町通１ー１２ー７" }, "geometry": { "type": "Point", "coordinates": [ 141.154176, 39.707342 ] } },
{ "type": "Feature", "properties": { "ID": 3103100064, "正式名称": "医療法人社団恵仁会三愛病院", "機関区分": 1, "都道府県コード": 3, "市区町村コード": 201, "所在地": "岩手県盛岡市月が丘１丁目２９番１５号", "緯度": 39.733989, "経度": 141.11374, "url": "https://www.iryou.teikyouseido.mhlw.go.jp/znk-web/juminkanja/S2430/initialize?prefCd=03&kikanCd=103100064&kikanKbn=1", "url2": "http://www.san-ai-hos.jp/", "内容": "医療法人社団恵仁会三愛病院【1:病院】【診療科目:0】【一般病床数:52療養病床数:0精神病床数:0感染症病床数:0合計病床数:52】岩手県盛岡市月が丘１丁目２９番１５号" }, "geometry": { "type": "Point", "coordinates": [ 141.11374, 39.733989 ] } },
{ "type": "Feature", "properties": { "ID": 3103100065, "正式名称": "社会医療法人　みやま会　盛岡観山荘病院", "機関区分": 1, "都道府県コード": 3, "市区町村コード": 201, "所在地": "岩手県盛岡市高松４－２０－４０", "緯度": 39.731123, "経度": 141.134944, "url": "https://www.iryou.teikyouseido.mhlw.go.jp/znk-web/juminkanja/S2430/initialize?prefCd=03&kikanCd=103100065&kikanKbn=1", "url2": "https://morioka-kanzanso.jp", "内容": "社会医療法人　みやま会　盛岡観山荘病院【1:病院】【診療科目:0】【一般病床数:173療養病床数:0精神病床数:173感染症病床数:0合計病床数:173】岩手県盛岡市高松４－２０－４０" }, "geometry": { "type": "Point", "coordinates": [ 141.134944, 39.731123 ] } },
{ "type": "Feature", "properties": { "ID": 3103100069, "正式名称": "栃内病院", "機関区分": 1, "都道府県コード": 3, "市区町村コード": 201, "所在地": "岩手県盛岡市西仙北一丁目１５－７", "緯度": 39.688315, "経度": 141.148011, "url": "https://www.iryou.teikyouseido.mhlw.go.jp/znk-web/juminkanja/S2430/initialize?prefCd=03&kikanCd=103100069&kikanKbn=1", "url2": "http://www.tochinai.com", "内容": "栃内病院【1:病院】【診療科目:0】【一般病床数:90療養病床数:0精神病床数:0感染症病床数:0合計病床数:90】岩手県盛岡市西仙北一丁目１５－７" }, "geometry": { "type": "Point", "coordinates": [ 141.148011, 39.688315 ] } },
{ "type": "Feature", "properties": { "ID": 3103100070, "正式名称": "医療法人　遠山病院", "機関区分": 1, "都道府県コード": 3, "市区町村コード": 201, "所在地": "岩手県盛岡市下ノ橋町６－１４", "緯度": 39.69707, "経度": 141.14897, "url": "https://www.iryou.teikyouseido.mhlw.go.jp/znk-web/juminkanja/S2430/initialize?prefCd=03&kikanCd=103100070&kikanKbn=1", "url2": "http://www.toyama-byouin.jp", "内容": "医療法人　遠山病院【1:病院】【診療科目:0】【一般病床数:60療養病床数:0精神病床数:0感染症病床数:0合計病床数:60】岩手県盛岡市下ノ橋町６－１４" }, "geometry": { "type": "Point", "coordinates": [ 141.14897, 39.69707 ] } },
{ "type": "Feature", "properties": { "ID": 3103100071, "正式名称": "一般財団法人岩手済生医会　中津川病院", "機関区分": 1, "都道府県コード": 3, "市区町村コード": 201, "所在地": "岩手県盛岡市下米内二丁目４番１２号", "緯度": 39.717842, "経度": 141.176001, "url": "https://www.iryou.teikyouseido.mhlw.go.jp/znk-web/juminkanja/S2430/initialize?prefCd=03&kikanCd=103100071&kikanKbn=1", "url2": "http://www.iwate-nakatugawa-hp.jp", "内容": "一般財団法人岩手済生医会　中津川病院【1:病院】【診療科目:0】【一般病床数:51療養病床数:0精神病床数:0感染症病床数:0合計病床数:51】岩手県盛岡市下米内二丁目４番１２号" }, "geometry": { "type": "Point", "coordinates": [ 141.176001, 39.717842 ] } },
{ "type": "Feature", "properties": { "ID": 3103100072, "正式名称": "一般財団法人岩手済生医会三田記念病院", "機関区分": 1, "都道府県コード": 3, "市区町村コード": 201, "所在地": "岩手県盛岡市加賀野３－１４－１", "緯度": 39.707648, "経度": 141.169672, "url": "https://www.iryou.teikyouseido.mhlw.go.jp/znk-web/juminkanja/S2430/initialize?prefCd=03&kikanCd=103100072&kikanKbn=1", "url2": "http://www.hoyoin.jp/", "内容": "一般財団法人岩手済生医会三田記念病院【1:病院】【診療科目:0】【一般病床数:0療養病床数:0精神病床数:226感染症病床数:0合計病床数:226】岩手県盛岡市加賀野３－１４－１" }, "geometry": { "type": "Point", "coordinates": [ 141.169672, 39.707648 ] } },
{ "type": "Feature", "properties": { "ID": 3103100075, "正式名称": "独立行政法人国立病院機構盛岡医療センター", "機関区分": 1, "都道府県コード": 3, "市区町村コード": 201, "所在地": "岩手県盛岡市青山１ー２５ー１", "緯度": 39.723112, "経度": 141.110758, "url": "https://www.iryou.teikyouseido.mhlw.go.jp/znk-web/juminkanja/S2430/initialize?prefCd=03&kikanCd=103100075&kikanKbn=1", "url2": "https://morioka.hosp.go.jp/", "内容": "独立行政法人国立病院機構盛岡医療センター【1:病院】【診療科目:0】【一般病床数:250療養病床数:0精神病床数:0感染症病床数:0合計病床数:260】岩手県盛岡市青山１ー２５ー１" }, "geometry": { "type": "Point", "coordinates": [ 141.110758, 39.723112 ] } },
{ "type": "Feature", "properties": { "ID": 3103100078, "正式名称": "社団医療法人　康生会　鶯宿温泉病院", "機関区分": 1, "都道府県コード": 3, "市区町村コード": 301, "所在地": "岩手県岩手郡雫石町南畑第３２地割字南桝沢２６５番地", "緯度": 39.647384, "経度": 140.950144, "url": "https://www.iryou.teikyouseido.mhlw.go.jp/znk-web/juminkanja/S2430/initialize?prefCd=03&kikanCd=103100078&kikanKbn=1", "url2": "https://www.ohshuku.or.jp", "内容": "社団医療法人　康生会　鶯宿温泉病院【1:病院】【診療科目:0】【一般病床数:0療養病床数:88精神病床数:0感染症病床数:0合計病床数:88】岩手県岩手郡雫石町南畑第３２地割字南桝沢２６５番地" }, "geometry": { "type": "Point", "coordinates": [ 140.950144, 39.647384 ] } },
{ "type": "Feature", "properties": { "ID": 3103100079, "正式名称": "いわてリハビリテーションセンター", "機関区分": 1, "都道府県コード": 3, "市区町村コード": 301, "所在地": "岩手県岩手郡雫石町七ツ森１６番地２４３", "緯度": 39.703578, "経度": 141.013369, "url": "https://www.iryou.teikyouseido.mhlw.go.jp/znk-web/juminkanja/S2430/initialize?prefCd=03&kikanCd=103100079&kikanKbn=1", "url2": "https://www.irc.or.jp/", "内容": "いわてリハビリテーションセンター【1:病院】【診療科目:0】【一般病床数:100療養病床数:0精神病床数:0感染症病床数:0合計病床数:100】岩手県岩手郡雫石町七ツ森１６番地２４３" }, "geometry": { "type": "Point", "coordinates": [ 141.013369, 39.703578 ] } },
{ "type": "Feature", "properties": { "ID": 3103100080, "正式名称": "医療法人社団帰厚堂南昌病院", "機関区分": 1, "都道府県コード": 3, "市区町村コード": 322, "所在地": "岩手県紫波郡矢巾町広宮沢第１地割２番１８１", "緯度": 39.628567, "経度": 141.085185, "url": "https://www.iryou.teikyouseido.mhlw.go.jp/znk-web/juminkanja/S2430/initialize?prefCd=03&kikanCd=103100080&kikanKbn=1", "url2": "http://www.kikodo.or.jp", "内容": "医療法人社団帰厚堂南昌病院【1:病院】【診療科目:0】【一般病床数:102療養病床数:78精神病床数:0感染症病床数:0合計病床数:180】岩手県紫波郡矢巾町広宮沢第１地割２番１８１" }, "geometry": { "type": "Point", "coordinates": [ 141.085185, 39.628567 ] } },
{ "type": "Feature", "properties": { "ID": 3103100081, "正式名称": "みちのく療育園メディカルセンター", "機関区分": 1, "都道府県コード": 3, "市区町村コード": 322, "所在地": "岩手県紫波郡矢巾町大字煙山２４ー１", "緯度": 39.621734, "経度": 141.073963, "url": "https://www.iryou.teikyouseido.mhlw.go.jp/znk-web/juminkanja/S2430/initialize?prefCd=03&kikanCd=103100081&kikanKbn=1", "url2": "http://www.i-shinseikai.jp/publics/index/165/", "内容": "みちのく療育園メディカルセンター【1:病院】【診療科目:0】【一般病床数:60療養病床数:0精神病床数:0感染症病床数:0合計病床数:60】岩手県紫波郡矢巾町大字煙山２４ー１" }, "geometry": { "type": "Point", "coordinates": [ 141.073963, 39.621734 ] } },
{ "type": "Feature", "properties": { "ID": 3103100082, "正式名称": "社団医療法人法成会　平和台病院", "機関区分": 1, "都道府県コード": 3, "市区町村コード": 321, "所在地": "岩手県紫波郡紫波町犬淵字南谷地１１０ー５", "緯度": 39.509981, "経度": 141.15856, "url": "https://www.iryou.teikyouseido.mhlw.go.jp/znk-web/juminkanja/S2430/initialize?prefCd=03&kikanCd=103100082&kikanKbn=1", "url2": "http://www.heiwadai.com/", "内容": "社団医療法人法成会　平和台病院【1:病院】【診療科目:0】【一般病床数:0療養病床数:0精神病床数:286感染症病床数:0合計病床数:286】岩手県紫波郡紫波町犬淵字南谷地１１０ー５" }, "geometry": { "type": "Point", "coordinates": [ 141.15856, 39.509981 ] } },
{ "type": "Feature", "properties": { "ID": 3103100084, "正式名称": "渋民中央病院", "機関区分": 1, "都道府県コード": 3, "市区町村コード": 201, "所在地": "岩手県盛岡市渋民５３番地２", "緯度": 39.843424, "経度": 141.168977, "url": "https://www.iryou.teikyouseido.mhlw.go.jp/znk-web/juminkanja/S2430/initialize?prefCd=03&kikanCd=103100084&kikanKbn=1", "url2": null, "内容": "渋民中央病院【1:病院】【診療科目:0】【一般病床数:0療養病床数:117精神病床数:0感染症病床数:0合計病床数:117】岩手県盛岡市渋民５３番地２" }, "geometry": { "type": "Point", "coordinates": [ 141.168977, 39.843424 ] } },
{ "type": "Feature", "properties": { "ID": 3103100085, "正式名称": "医療法人日新堂　八角病院", "機関区分": 1, "都道府県コード": 3, "市区町村コード": 201, "所在地": "岩手県盛岡市好摩字夏間木７０ー１９０", "緯度": 39.87531, "経度": 141.166346, "url": "https://www.iryou.teikyouseido.mhlw.go.jp/znk-web/juminkanja/S2430/initialize?prefCd=03&kikanCd=103100085&kikanKbn=1", "url2": "http://www.nisshindo-g.com", "内容": "医療法人日新堂　八角病院【1:病院】【診療科目:0】【一般病床数:50療養病床数:0精神病床数:0感染症病床数:0合計病床数:50】岩手県盛岡市好摩字夏間木７０ー１９０" }, "geometry": { "type": "Point", "coordinates": [ 141.166346, 39.87531 ] } },
{ "type": "Feature", "properties": { "ID": 3103100086, "正式名称": "東八幡平病院", "機関区分": 1, "都道府県コード": 3, "市区町村コード": 214, "所在地": "岩手県八幡平市柏台", "緯度": 39.916057, "経度": 140.981956, "url": "https://www.iryou.teikyouseido.mhlw.go.jp/znk-web/juminkanja/S2430/initialize?prefCd=03&kikanCd=103100086&kikanKbn=1", "url2": "http://www.mairin.jp/hospital/", "内容": "東八幡平病院【1:病院】【診療科目:0】【一般病床数:50療養病床数:100精神病床数:0感染症病床数:0合計病床数:150】岩手県八幡平市柏台" }, "geometry": { "type": "Point", "coordinates": [ 140.981956, 39.916057 ] } },
{ "type": "Feature", "properties": { "ID": 3103100087, "正式名称": "栃内第二病院", "機関区分": 1, "都道府県コード": 3, "市区町村コード": 216, "所在地": "岩手県滝沢市大釜吉水１０３番地１", "緯度": 39.698801, "経度": 141.056901, "url": "https://www.iryou.teikyouseido.mhlw.go.jp/znk-web/juminkanja/S2430/initialize?prefCd=03&kikanCd=103100087&kikanKbn=1", "url2": "https://www.tochinai2.com/", "内容": "栃内第二病院【1:病院】【診療科目:0】【一般病床数:144療養病床数:0精神病床数:0感染症病床数:0合計病床数:144】岩手県滝沢市大釜吉水１０３番地１" }, "geometry": { "type": "Point", "coordinates": [ 141.056901, 39.698801 ] } },
{ "type": "Feature", "properties": { "ID": 3103100088, "正式名称": "医療法人社団松誠会　滝沢中央病院", "機関区分": 1, "都道府県コード": 3, "市区町村コード": 216, "所在地": "岩手県滝沢市鵜飼笹森４２番地２", "緯度": 39.735527, "経度": 141.091153, "url": "https://www.iryou.teikyouseido.mhlw.go.jp/znk-web/juminkanja/S2430/initialize?prefCd=03&kikanCd=103100088&kikanKbn=1", "url2": "https://takizawa-hp.jp/", "内容": "医療法人社団松誠会　滝沢中央病院【1:病院】【診療科目:0】【一般病床数:40療養病床数:46精神病床数:0感染症病床数:0合計病床数:86】岩手県滝沢市鵜飼笹森４２番地２" }, "geometry": { "type": "Point", "coordinates": [ 141.091153, 39.735527 ] } },
{ "type": "Feature", "properties": { "ID": 3103100090, "正式名称": "国民健康保険葛巻病院", "機関区分": 1, "都道府県コード": 3, "市区町村コード": 302, "所在地": "岩手県岩手郡葛巻町葛巻第１６地割１番地１", "緯度": 40.040406, "経度": 141.438897, "url": "https://www.iryou.teikyouseido.mhlw.go.jp/znk-web/juminkanja/S2430/initialize?prefCd=03&kikanCd=103100090&kikanKbn=1", "url2": "http://www.town.kuzumaki.iwate.jp/index.php?topic=hospital", "内容": "国民健康保険葛巻病院【1:病院】【診療科目:0】【一般病床数:60療養病床数:0精神病床数:0感染症病床数:0合計病床数:60】岩手県岩手郡葛巻町葛巻第１６地割１番地１" }, "geometry": { "type": "Point", "coordinates": [ 141.438897, 40.040406 ] } },
{ "type": "Feature", "properties": { "ID": 3103100092, "正式名称": "岩手県立中部病院", "機関区分": 1, "都道府県コード": 3, "市区町村コード": 206, "所在地": "岩手県北上市村崎野１７地割１０番地", "緯度": 39.330011, "経度": 141.104996, "url": "https://www.iryou.teikyouseido.mhlw.go.jp/znk-web/juminkanja/S2430/initialize?prefCd=03&kikanCd=103100092&kikanKbn=1", "url2": "http://www.chubu-hp.com/", "内容": "岩手県立中部病院【1:病院】【診療科目:0】【一般病床数:414療養病床数:0精神病床数:0感染症病床数:0合計病床数:434】岩手県北上市村崎野１７地割１０番地" }, "geometry": { "type": "Point", "coordinates": [ 141.104996, 39.330011 ] } },
{ "type": "Feature", "properties": { "ID": 3103100094, "正式名称": "社会福祉法人恩賜財団済生会　北上済生会病院", "機関区分": 1, "都道府県コード": 3, "市区町村コード": 206, "所在地": "岩手県北上市九年橋３丁目１５番３３号", "緯度": 39.284861, "経度": 141.108279, "url": "https://www.iryou.teikyouseido.mhlw.go.jp/znk-web/juminkanja/S2430/initialize?prefCd=03&kikanCd=103100094&kikanKbn=1", "url2": "http://www.saiseikai-hp.or.jp/", "内容": "社会福祉法人恩賜財団済生会　北上済生会病院【1:病院】【診療科目:0】【一般病床数:220療養病床数:0精神病床数:0感染症病床数:4合計病床数:224】岩手県北上市九年橋３丁目１５番３３号" }, "geometry": { "type": "Point", "coordinates": [ 141.108279, 39.284861 ] } },
{ "type": "Feature", "properties": { "ID": 3103100095, "正式名称": "社会医療法人花北病院", "機関区分": 1, "都道府県コード": 3, "市区町村コード": 206, "所在地": "岩手県北上市村崎野１６ー８９ー１", "緯度": 39.324979, "経度": 141.122337, "url": "https://www.iryou.teikyouseido.mhlw.go.jp/znk-web/juminkanja/S2430/initialize?prefCd=03&kikanCd=103100095&kikanKbn=1", "url2": "https://hanakita-hp.sakura.ne.jp/", "内容": "社会医療法人花北病院【1:病院】【診療科目:0】【一般病床数:0療養病床数:0精神病床数:124感染症病床数:0合計病床数:124】岩手県北上市村崎野１６ー８９ー１" }, "geometry": { "type": "Point", "coordinates": [ 141.122337, 39.324979 ] } },
{ "type": "Feature", "properties": { "ID": 3103100096, "正式名称": "独立行政法人国立病院機構岩手病院", "機関区分": 1, "都道府県コード": 3, "市区町村コード": 209, "所在地": "岩手県一関市山目字泥田山下４８番地", "緯度": 38.939517, "経度": 141.11545, "url": "https://www.iryou.teikyouseido.mhlw.go.jp/znk-web/juminkanja/S2430/initialize?prefCd=03&kikanCd=103100096&kikanKbn=1", "url2": "http://www.hosp.go.jp/~iwate/", "内容": "独立行政法人国立病院機構岩手病院【1:病院】【診療科目:0】【一般病床数:250療養病床数:0精神病床数:0感染症病床数:0合計病床数:250】岩手県一関市山目字泥田山下４８番地" }, "geometry": { "type": "Point", "coordinates": [ 141.11545, 38.939517 ] } },
{ "type": "Feature", "properties": { "ID": 3103100097, "正式名称": "岩手県立一戸病院", "機関区分": 1, "都道府県コード": 3, "市区町村コード": 524, "所在地": "岩手県二戸郡一戸町一戸字砂森６０番地１", "緯度": 40.207531, "経度": 141.305036, "url": "https://www.iryou.teikyouseido.mhlw.go.jp/znk-web/juminkanja/S2430/initialize?prefCd=03&kikanCd=103100097&kikanKbn=1", "url2": "http://www.ichinohe-hp.com/", "内容": "岩手県立一戸病院【1:病院】【診療科目:0】【一般病床数:48療養病床数:0精神病床数:147感染症病床数:4合計病床数:199】岩手県二戸郡一戸町一戸字砂森６０番地１" }, "geometry": { "type": "Point", "coordinates": [ 141.305036, 40.207531 ] } },
{ "type": "Feature", "properties": { "ID": 3103100099, "正式名称": "盛岡市立病院", "機関区分": 1, "都道府県コード": 3, "市区町村コード": 201, "所在地": "岩手県盛岡市本宮五丁目１５番１号", "緯度": 39.689359, "経度": 141.124492, "url": "https://www.iryou.teikyouseido.mhlw.go.jp/znk-web/juminkanja/S2430/initialize?prefCd=03&kikanCd=103100099&kikanKbn=1", "url2": "https://www.morioka-city-hosp.jp", "内容": "盛岡市立病院【1:病院】【診療科目:0】【一般病床数:180療養病床数:0精神病床数:80感染症病床数:8合計病床数:268】岩手県盛岡市本宮五丁目１５番１号" }, "geometry": { "type": "Point", "coordinates": [ 141.124492, 39.689359 ] } },
{ "type": "Feature", "properties": { "ID": 3103100100, "正式名称": "岩手県立江刺病院", "機関区分": 1, "都道府県コード": 3, "市区町村コード": 215, "所在地": "岩手県奥州市江刺西大通り５番２３号", "緯度": 39.194151, "経度": 141.172575, "url": "https://www.iryou.teikyouseido.mhlw.go.jp/znk-web/juminkanja/S2430/initialize?prefCd=03&kikanCd=103100100&kikanKbn=1", "url2": "http://www.esashi-hp.com/", "内容": "岩手県立江刺病院【1:病院】【診療科目:0】【一般病床数:118療養病床数:0精神病床数:0感染症病床数:0合計病床数:133】岩手県奥州市江刺西大通り５番２３号" }, "geometry": { "type": "Point", "coordinates": [ 141.172575, 39.194151 ] } },
{ "type": "Feature", "properties": { "ID": 3103100101, "正式名称": "岩手県立千厩病院", "機関区分": 1, "都道府県コード": 3, "市区町村コード": 209, "所在地": "岩手県一関市千厩町千厩字草井沢３２番地１", "緯度": 38.928117, "経度": 141.342487, "url": "https://www.iryou.teikyouseido.mhlw.go.jp/znk-web/juminkanja/S2430/initialize?prefCd=03&kikanCd=103100101&kikanKbn=1", "url2": "https://www.senmaya-hospital.jp/", "内容": "岩手県立千厩病院【1:病院】【診療科目:0】【一般病床数:116療養病床数:0精神病床数:0感染症病床数:4合計病床数:120】岩手県一関市千厩町千厩字草井沢３２番地１" }, "geometry": { "type": "Point", "coordinates": [ 141.342487, 38.928117 ] } },
{ "type": "Feature", "properties": { "ID": 3103100103, "正式名称": "一関市国民健康保険藤沢病院", "機関区分": 1, "都道府県コード": 3, "市区町村コード": 209, "所在地": "岩手県一関市藤沢町藤沢字町裏５２番地２", "緯度": 38.85865, "経度": 141.34996, "url": "https://www.iryou.teikyouseido.mhlw.go.jp/znk-web/juminkanja/S2430/initialize?prefCd=03&kikanCd=103100103&kikanKbn=1", "url2": "https://fmhe.net/", "内容": "一関市国民健康保険藤沢病院【1:病院】【診療科目:0】【一般病床数:44療養病床数:0精神病床数:0感染症病床数:0合計病床数:44】岩手県一関市藤沢町藤沢字町裏５２番地２" }, "geometry": { "type": "Point", "coordinates": [ 141.34996, 38.85865 ] } },
{ "type": "Feature", "properties": { "ID": 3103100104, "正式名称": "岩手県立遠野病院", "機関区分": 1, "都道府県コード": 3, "市区町村コード": 208, "所在地": "岩手県遠野市松崎町白岩１４地割７４番地", "緯度": 39.338844, "経度": 141.542982, "url": "https://www.iryou.teikyouseido.mhlw.go.jp/znk-web/juminkanja/S2430/initialize?prefCd=03&kikanCd=103100104&kikanKbn=1", "url2": "http://www.tono-hospital.com/", "内容": "岩手県立遠野病院【1:病院】【診療科目:0】【一般病床数:108療養病床数:0精神病床数:0感染症病床数:2合計病床数:110】岩手県遠野市松崎町白岩１４地割７４番地" }, "geometry": { "type": "Point", "coordinates": [ 141.542982, 39.338844 ] } },
{ "type": "Feature", "properties": { "ID": 3103100105, "正式名称": "岩手県立宮古病院", "機関区分": 1, "都道府県コード": 3, "市区町村コード": 202, "所在地": "岩手県宮古市崎鍬ケ崎第１地割１１番地２６", "緯度": 39.658752, "経度": 141.948477, "url": "https://www.iryou.teikyouseido.mhlw.go.jp/znk-web/juminkanja/S2430/initialize?prefCd=03&kikanCd=103100105&kikanKbn=1", "url2": "https://miyako-hp.jp/", "内容": "岩手県立宮古病院【1:病院】【診療科目:0】【一般病床数:229療養病床数:0精神病床数:0感染症病床数:4合計病床数:243】岩手県宮古市崎鍬ケ崎第１地割１１番地２６" }, "geometry": { "type": "Point", "coordinates": [ 141.948477, 39.658752 ] } },
{ "type": "Feature", "properties": { "ID": 3103100111, "正式名称": "盛岡さんさ病院", "機関区分": 1, "都道府県コード": 3, "市区町村コード": 201, "所在地": "岩手県盛岡市館向町４ー８", "緯度": 39.716204, "経度": 141.130076, "url": "https://www.iryou.teikyouseido.mhlw.go.jp/znk-web/juminkanja/S2430/initialize?prefCd=03&kikanCd=103100111&kikanKbn=1", "url2": "http://takamatuhp.byoinnavi.jp/", "内容": "盛岡さんさ病院【1:病院】【診療科目:0】【一般病床数:40療養病床数:55精神病床数:0感染症病床数:0合計病床数:95】岩手県盛岡市館向町４ー８" }, "geometry": { "type": "Point", "coordinates": [ 141.130076, 39.716204 ] } },
{ "type": "Feature", "properties": { "ID": 3103100112, "正式名称": "医療法人謙和会荻野病院", "機関区分": 1, "都道府県コード": 3, "市区町村コード": 201, "所在地": "岩手県盛岡市本宮１丁目６ー１２", "緯度": 39.690639, "経度": 141.140953, "url": "https://www.iryou.teikyouseido.mhlw.go.jp/znk-web/juminkanja/S2430/initialize?prefCd=03&kikanCd=103100112&kikanKbn=1", "url2": "http://www.oginohospital.jp/", "内容": "医療法人謙和会荻野病院【1:病院】【診療科目:0】【一般病床数:58療養病床数:0精神病床数:0感染症病床数:0合計病床数:58】岩手県盛岡市本宮１丁目６ー１２" }, "geometry": { "type": "Point", "coordinates": [ 141.140953, 39.690639 ] } },
{ "type": "Feature", "properties": { "ID": 3103100113, "正式名称": "社団医療法人　啓愛会　孝仁病院", "機関区分": 1, "都道府県コード": 3, "市区町村コード": 201, "所在地": "岩手県盛岡市中太田２８", "緯度": 39.694689, "経度": 141.104638, "url": "https://www.iryou.teikyouseido.mhlw.go.jp/znk-web/juminkanja/S2430/initialize?prefCd=03&kikanCd=103100113&kikanKbn=1", "url2": "https://kojin-hp.jp", "内容": "社団医療法人　啓愛会　孝仁病院【1:病院】【診療科目:0】【一般病床数:126療養病床数:54精神病床数:0感染症病床数:0合計病床数:180】岩手県盛岡市中太田２８" }, "geometry": { "type": "Point", "coordinates": [ 141.104638, 39.694689 ] } },
{ "type": "Feature", "properties": { "ID": 3103100114, "正式名称": "医療法人杏林会　北上駅前病院", "機関区分": 1, "都道府県コード": 3, "市区町村コード": 206, "所在地": "岩手県北上市大通り１－１－２２", "緯度": 39.280213, "経度": 141.12058, "url": "https://www.iryou.teikyouseido.mhlw.go.jp/znk-web/juminkanja/S2430/initialize?prefCd=03&kikanCd=103100114&kikanKbn=1", "url2": "http://kyourinkai.com/ihatov/", "内容": "医療法人杏林会　北上駅前病院【1:病院】【診療科目:0】【一般病床数:60療養病床数:140精神病床数:0感染症病床数:0合計病床数:200】岩手県北上市大通り１－１－２２" }, "geometry": { "type": "Point", "coordinates": [ 141.12058, 39.280213 ] } },
{ "type": "Feature", "properties": { "ID": 3103100115, "正式名称": "医療法人仁医会（財団）釜石のぞみ病院", "機関区分": 1, "都道府県コード": 3, "市区町村コード": 211, "所在地": "岩手県釜石市大渡町３－１５－２６", "緯度": 39.273576, "経度": 141.878466, "url": "https://www.iryou.teikyouseido.mhlw.go.jp/znk-web/juminkanja/S2430/initialize?prefCd=03&kikanCd=103100115&kikanKbn=1", "url2": "http://www.jinikai.jp/nozomi/", "内容": "医療法人仁医会（財団）釜石のぞみ病院【1:病院】【診療科目:0】【一般病床数:52療養病床数:102精神病床数:0感染症病床数:0合計病床数:154】岩手県釜石市大渡町３－１５－２６" }, "geometry": { "type": "Point", "coordinates": [ 141.878466, 39.273576 ] } },
{ "type": "Feature", "properties": { "ID": 3103101058, "正式名称": "町立西和賀さわうち病院", "機関区分": 1, "都道府県コード": 3, "市区町村コード": 366, "所在地": "岩手県和賀郡西和賀町沢内大野１３地割３番地１２", "緯度": 39.372271, "経度": 140.761632, "url": "https://www.iryou.teikyouseido.mhlw.go.jp/znk-web/juminkanja/S2430/initialize?prefCd=03&kikanCd=103101058&kikanKbn=1", "url2": "http://www.town.nishiwaga.lg.jp", "内容": "町立西和賀さわうち病院【1:病院】【診療科目:0】【一般病床数:40療養病床数:0精神病床数:0感染症病床数:0合計病床数:40】岩手県和賀郡西和賀町沢内大野１３地割３番地１２" }, "geometry": { "type": "Point", "coordinates": [ 140.761632, 39.372271 ] } },
{ "type": "Feature", "properties": { "ID": 3103101059, "正式名称": "ひめかみ病院", "機関区分": 1, "都道府県コード": 3, "市区町村コード": 201, "所在地": "岩手県盛岡市下田字陣場４１番１０", "緯度": 39.836609, "経度": 141.154552, "url": "https://www.iryou.teikyouseido.mhlw.go.jp/znk-web/juminkanja/S2430/initialize?prefCd=03&kikanCd=103101059&kikanKbn=1", "url2": "http://himekami-hp.jp/", "内容": "ひめかみ病院【1:病院】【診療科目:0】【一般病床数:0療養病床数:0精神病床数:123感染症病床数:0合計病床数:123】岩手県盛岡市下田字陣場４１番１０" }, "geometry": { "type": "Point", "coordinates": [ 141.154552, 39.836609 ] } },
{ "type": "Feature", "properties": { "ID": 3103101061, "正式名称": "岩手県立山田病院", "機関区分": 1, "都道府県コード": 3, "市区町村コード": 482, "所在地": "岩手県下閉伊郡山田町飯岡第１地割２１番地１", "緯度": 39.458147, "経度": 141.951119, "url": "https://www.iryou.teikyouseido.mhlw.go.jp/znk-web/juminkanja/S2430/initialize?prefCd=03&kikanCd=103101061&kikanKbn=1", "url2": "http://www.pref.iwate.jp/iryoukyoku/yamada/index.html", "内容": "岩手県立山田病院【1:病院】【診療科目:0】【一般病床数:50療養病床数:0精神病床数:0感染症病床数:0合計病床数:50】岩手県下閉伊郡山田町飯岡第１地割２１番地１" }, "geometry": { "type": "Point", "coordinates": [ 141.951119, 39.458147 ] } },
{ "type": "Feature", "properties": { "ID": 3103101062, "正式名称": "岩手県立療育センター", "機関区分": 1, "都道府県コード": 3, "市区町村コード": 322, "所在地": "岩手県紫波郡矢巾町医大通二丁目１－３", "緯度": 39.614705, "経度": 141.162894, "url": "https://www.iryou.teikyouseido.mhlw.go.jp/znk-web/juminkanja/S2430/initialize?prefCd=03&kikanCd=103101062&kikanKbn=1", "url2": "https://www.i-ryouiku.com", "内容": "岩手県立療育センター【1:病院】【診療科目:0】【一般病床数:60療養病床数:0精神病床数:0感染症病床数:0合計病床数:60】岩手県紫波郡矢巾町医大通二丁目１－３" }, "geometry": { "type": "Point", "coordinates": [ 141.162894, 39.614705 ] } },
{ "type": "Feature", "properties": { "ID": 3103101064, "正式名称": "岩手医科大学附属病院", "機関区分": 1, "都道府県コード": 3, "市区町村コード": 322, "所在地": "岩手県紫波郡矢巾町医大通二丁目１番１号", "緯度": 39.611129, "経度": 141.163955, "url": "https://www.iryou.teikyouseido.mhlw.go.jp/znk-web/juminkanja/S2430/initialize?prefCd=03&kikanCd=103101064&kikanKbn=1", "url2": "https://www.hosp.iwate-med.ac.jp/yahaba/", "内容": "岩手医科大学附属病院【1:病院】【診療科目:0】【一般病床数:892療養病床数:0精神病床数:58感染症病床数:0合計病床数:950】岩手県紫波郡矢巾町医大通二丁目１番１号" }, "geometry": { "type": "Point", "coordinates": [ 141.163955, 39.611129 ] } },
{ "type": "Feature", "properties": { "ID": 3103101065, "正式名称": "岩手医科大学附属内丸メディカルセンター", "機関区分": 1, "都道府県コード": 3, "市区町村コード": 201, "所在地": "岩手県盛岡市内丸１９番１号", "緯度": 39.704696, "経度": 141.151634, "url": "https://www.iryou.teikyouseido.mhlw.go.jp/znk-web/juminkanja/S2430/initialize?prefCd=03&kikanCd=103101065&kikanKbn=1", "url2": "https://www.hosp.iwate-med.ac.jp/uchimaru/", "内容": "岩手医科大学附属内丸メディカルセンター【1:病院】【診療科目:0】【一般病床数:50療養病床数:0精神病床数:0感染症病床数:0合計病床数:50】岩手県盛岡市内丸１９番１号" }, "geometry": { "type": "Point", "coordinates": [ 141.151634, 39.704696 ] } },
{ "type": "Feature", "properties": { "ID": 3103101066, "正式名称": "八幡平市立病院", "機関区分": 1, "都道府県コード": 3, "市区町村コード": 214, "所在地": "岩手県八幡平市大更第２５地割３２８番地１", "緯度": 39.91383, "経度": 141.102003, "url": "https://www.iryou.teikyouseido.mhlw.go.jp/znk-web/juminkanja/S2430/initialize?prefCd=03&kikanCd=103101066&kikanKbn=1", "url2": "https://www.city.hachimantai.lg.jp/site/byoin/", "内容": "八幡平市立病院【1:病院】【診療科目:0】【一般病床数:60療養病床数:0精神病床数:0感染症病床数:0合計病床数:60】岩手県八幡平市大更第２５地割３２８番地１" }, "geometry": { "type": "Point", "coordinates": [ 141.102003, 39.91383 ] } },
{ "type": "Feature", "properties": { "ID": 3103101069, "正式名称": "医療法人財団正清会遠野はやちねホスピタル", "機関区分": 1, "都道府県コード": 3, "市区町村コード": 208, "所在地": "岩手県遠野市青笹町中沢５地割５番地", "緯度": 39.315578, "経度": 141.580201, "url": "https://www.iryou.teikyouseido.mhlw.go.jp/znk-web/juminkanja/S2430/initialize?prefCd=03&kikanCd=103101069&kikanKbn=1", "url2": "https://www.tono-hayachine-hospital.jp/", "内容": "医療法人財団正清会遠野はやちねホスピタル【1:病院】【診療科目:0】【一般病床数:0療養病床数:0精神病床数:116感染症病床数:0合計病床数:116】岩手県遠野市青笹町中沢５地割５番地" }, "geometry": { "type": "Point", "coordinates": [ 141.580201, 39.315578 ] } }
]
}
