{
"type": "FeatureCollection",
"name": "geo_03_地域密着型特定施設入居者生活介護（有料老人ホーム）",
"crs": { "type": "name", "properties": { "name": "urn:ogc:def:crs:OGC:1.3:CRS84" } },
"features": [
{ "type": "Feature", "properties": { "内容": "愛福祉会にいさと介護付有料老人ホーム【地域密着型特定施設入居者生活介護（有料老人ホーム）】岩手県宮古市刈屋第12地割3番地", "url": "https://www.kaigokensaku.mhlw.go.jp/03/index.php?action_kouhyou_detail_004_kani=true&JigyosyoCd=0390200020-00&ServiceCd=361&Type=search", "url2": "https://i-fukusi.com" }, "geometry": { "type": "Point", "coordinates": [ 141.758639825131269, 39.646052387941666 ] } },
{ "type": "Feature", "properties": { "内容": "介護付き有料老人ホームシルバーホームほっと東館【地域密着型特定施設入居者生活介護（有料老人ホーム）】岩手県北上市和賀町岩崎1-114", "url": "https://www.kaigokensaku.mhlw.go.jp/03/index.php?action_kouhyou_detail_004_kani=true&JigyosyoCd=0390600088-00&ServiceCd=361&Type=search", "url2": null }, "geometry": { "type": "Point", "coordinates": [ 140.984980599999972, 39.2405856 ] } },
{ "type": "Feature", "properties": { "内容": "介護付き有料老人ホームエガリテ【地域密着型特定施設入居者生活介護（有料老人ホーム）】岩手県一関市萩荘字袋田165-1", "url": "https://www.kaigokensaku.mhlw.go.jp/03/index.php?action_kouhyou_detail_004_kani=true&JigyosyoCd=0390900520-00&ServiceCd=361&Type=search", "url2": "https://equal.jpn.com/" }, "geometry": { "type": "Point", "coordinates": [ 141.109617126319847, 38.918180317509126 ] } },
{ "type": "Feature", "properties": { "内容": "介護付有料老人ホーム和【地域密着型特定施設入居者生活介護（有料老人ホーム）】岩手県九戸郡洋野町中野第５地割７５番地", "url": "https://www.kaigokensaku.mhlw.go.jp/03/index.php?action_kouhyou_detail_004_kani=true&JigyosyoCd=0393100193-00&ServiceCd=361&Type=search", "url2": null }, "geometry": { "type": "Point", "coordinates": [ 141.773057600000016, 40.3038788 ] } }
]
}
