{
"type": "FeatureCollection",
"name": "geo_03_看護小規模多機能型居宅介護（複合型サービス）",
"crs": { "type": "name", "properties": { "name": "urn:ogc:def:crs:OGC:1.3:CRS84" } },
"features": [
{ "type": "Feature", "properties": { "内容": "看護小規模多機能型居宅介護にじの家【看護小規模多機能型居宅介護（複合型サービス）】岩手県盛岡市津志田26-30-1", "url2": "https://www.kaigokensaku.mhlw.go.jp/03/index.php?action_kouhyou_detail_004_kani=true&JigyosyoCd=0390100766-00&ServiceCd=&Type=search" }, "geometry": { "type": "Point", "coordinates": [ 141.156933900000013, 39.671919 ] } },
{ "type": "Feature", "properties": { "内容": "複合型サービスみなみちゃんち渋民【看護小規模多機能型居宅介護（複合型サービス）】岩手県盛岡市渋民字渋民77-2", "url2": "https://www.kaigokensaku.mhlw.go.jp/03/index.php?action_kouhyou_detail_004_kani=true&JigyosyoCd=0390100709-00&ServiceCd=&Type=search" }, "geometry": { "type": "Point", "coordinates": [ 141.173403900000011, 39.8456453 ] } },
{ "type": "Feature", "properties": { "内容": "看護小規模多機能型居宅介護「花心」【看護小規模多機能型居宅介護（複合型サービス）】岩手県花巻市野田352番地2", "url2": "https://www.kaigokensaku.mhlw.go.jp/03/index.php?action_kouhyou_detail_004_kani=true&JigyosyoCd=0390500338-00&ServiceCd=&Type=search" }, "geometry": { "type": "Point", "coordinates": [ 141.100086469172652, 39.399314121345206 ] } },
{ "type": "Feature", "properties": { "内容": "きずなの森【看護小規模多機能型居宅介護（複合型サービス）】岩手県北上市口内町森212番地", "url2": "https://www.kaigokensaku.mhlw.go.jp/03/index.php?action_kouhyou_detail_004_kani=true&JigyosyoCd=0390600344-00&ServiceCd=&Type=search" }, "geometry": { "type": "Point", "coordinates": [ 141.193969599999974, 39.3105029 ] } },
{ "type": "Feature", "properties": { "内容": "看護小規模多機能ホーム日高見【看護小規模多機能型居宅介護（複合型サービス）】岩手県北上市北鬼柳22-46", "url2": "https://www.kaigokensaku.mhlw.go.jp/03/index.php?action_kouhyou_detail_004_kani=true&JigyosyoCd=0390600351-00&ServiceCd=&Type=search" }, "geometry": { "type": "Point", "coordinates": [ 141.095265430434097, 39.291333769182152 ] } },
{ "type": "Feature", "properties": { "内容": "看護小規模多機能ホームあおやぎ【看護小規模多機能型居宅介護（複合型サービス）】岩手県北上市青柳町2丁目6-9", "url2": "https://www.kaigokensaku.mhlw.go.jp/03/index.php?action_kouhyou_detail_004_kani=true&JigyosyoCd=0390600435-00&ServiceCd=&Type=search" }, "geometry": { "type": "Point", "coordinates": [ 141.1155163, 39.28458 ] } },
{ "type": "Feature", "properties": { "内容": "かんたき「までっこ」【看護小規模多機能型居宅介護（複合型サービス）】岩手県久慈市中の橋一丁目5番地竹下医院内", "url2": "https://www.kaigokensaku.mhlw.go.jp/03/index.php?action_kouhyou_detail_004_kani=true&JigyosyoCd=0390700151-00&ServiceCd=&Type=search" }, "geometry": { "type": "Point", "coordinates": [ 141.7675779, 40.1918833 ] } },
{ "type": "Feature", "properties": { "内容": "ケアビレッジ一関ケアサービスステーション看護小規模多機能型居宅介護事業所【看護小規模多機能型居宅介護（複合型サービス）】岩手県一関市赤荻字月町176番地", "url2": "https://www.kaigokensaku.mhlw.go.jp/03/index.php?action_kouhyou_detail_004_kani=true&JigyosyoCd=0390900348-00&ServiceCd=&Type=search" }, "geometry": { "type": "Point", "coordinates": [ 141.103440322090137, 38.939773682554787 ] } },
{ "type": "Feature", "properties": { "内容": "看護小規模多機能ホームやかた【看護小規模多機能型居宅介護（複合型サービス）】岩手県釜石市大町３丁目９番１６号", "url2": "https://www.kaigokensaku.mhlw.go.jp/03/index.php?action_kouhyou_detail_004_kani=true&JigyosyoCd=0391100054-00&ServiceCd=&Type=search" }, "geometry": { "type": "Point", "coordinates": [ 141.881977, 39.2754855 ] } },
{ "type": "Feature", "properties": { "内容": "複合型サービス事業所聖愛園にっかわ【看護小規模多機能型居宅介護（複合型サービス）】岩手県奥州市江刺愛宕字八日市1-2", "url2": "https://www.kaigokensaku.mhlw.go.jp/03/index.php?action_kouhyou_detail_004_kani=true&JigyosyoCd=0391500261-00&ServiceCd=&Type=search" }, "geometry": { "type": "Point", "coordinates": [ 141.160120799999959, 39.1862496 ] } },
{ "type": "Feature", "properties": { "内容": "看護多機能和や家～なごやか～【看護小規模多機能型居宅介護（複合型サービス）】岩手県岩手郡岩手町大字沼宮内第18地割85番地2", "url2": "https://www.kaigokensaku.mhlw.go.jp/03/index.php?action_kouhyou_detail_004_kani=true&JigyosyoCd=0392100178-00&ServiceCd=&Type=search" }, "geometry": { "type": "Point", "coordinates": [ 141.237463599999955, 39.9995513 ] } }
]
}
