{
"type": "FeatureCollection",
"name": "geo_03_高校",
"crs": { "type": "name", "properties": { "name": "urn:ogc:def:crs:EPSG::6668" } },
"features": [
{ "type": "Feature", "properties": { "P29_001": "03201", "P29_002": "D103210000012", "P29_003": "16004", "P29_004": "岩手県立盛岡第一高等学校", "P29_005": "岩手県盛岡市上田3-2-1", "P29_006": "2", "P29_007": "0", "P29_008": "00", "P29_009": null }, "geometry": { "type": "Point", "coordinates": [ 141.14208185310838, 39.713448211564071 ] } },
{ "type": "Feature", "properties": { "P29_001": "03201", "P29_002": "D103210000021", "P29_003": "16004", "P29_004": "岩手県立盛岡第二高等学校", "P29_005": "岩手県盛岡市上ノ橋町7-57", "P29_006": "2", "P29_007": "0", "P29_008": "00", "P29_009": null }, "geometry": { "type": "Point", "coordinates": [ 141.161736785562312, 39.704057861384307 ] } },
{ "type": "Feature", "properties": { "P29_001": "03201", "P29_002": "D103210000030", "P29_003": "16004", "P29_004": "岩手県立盛岡第三高等学校", "P29_005": "岩手県盛岡市高松4-17-16", "P29_006": "2", "P29_007": "0", "P29_008": "00", "P29_009": null }, "geometry": { "type": "Point", "coordinates": [ 141.138756953210475, 39.729310758734513 ] } },
{ "type": "Feature", "properties": { "P29_001": "03201", "P29_002": "D103210000049", "P29_003": "16004", "P29_004": "岩手県立盛岡第四高等学校", "P29_005": "岩手県盛岡市津志田26-17-1", "P29_006": "2", "P29_007": "0", "P29_008": "00", "P29_009": null }, "geometry": { "type": "Point", "coordinates": [ 141.158130741889835, 39.672011308832552 ] } },
{ "type": "Feature", "properties": { "P29_001": "03216", "P29_002": "D103210000058", "P29_003": "16004", "P29_004": "岩手県立盛岡北高等学校", "P29_005": "岩手県滝沢市牧野林298-1", "P29_006": "2", "P29_007": "0", "P29_008": "00", "P29_009": null }, "geometry": { "type": "Point", "coordinates": [ 141.107553418821738, 39.745089881296721 ] } },
{ "type": "Feature", "properties": { "P29_001": "03201", "P29_002": "D103210000067", "P29_003": "16004", "P29_004": "岩手県立盛岡南高等学校", "P29_005": "岩手県盛岡市西見前20-113-1", "P29_006": "2", "P29_007": "0", "P29_008": "00", "P29_009": null }, "geometry": { "type": "Point", "coordinates": [ 141.156855255377735, 39.642121599114731 ] } },
{ "type": "Feature", "properties": { "P29_001": "03322", "P29_002": "D103210000076", "P29_003": "16004", "P29_004": "岩手県立不来方高等学校", "P29_005": "岩手県紫波郡矢巾町大字南矢幅9-1-1", "P29_006": "2", "P29_007": "0", "P29_008": "00", "P29_009": null }, "geometry": { "type": "Point", "coordinates": [ 141.154838089835721, 39.608758775334429 ] } },
{ "type": "Feature", "properties": { "P29_001": "03201", "P29_002": "D103210000085", "P29_003": "16004", "P29_004": "岩手県立杜陵高等学校", "P29_005": "岩手県盛岡市上田2-3-1", "P29_006": "2", "P29_007": "0", "P29_008": "00", "P29_009": null }, "geometry": { "type": "Point", "coordinates": [ 141.145546044137831, 39.714671039935247 ] } },
{ "type": "Feature", "properties": { "P29_001": "03215", "P29_002": "D103210000094", "P29_003": "16004", "P29_004": "岩手県立杜陵高等学校奥州校", "P29_005": "岩手県奥州市水沢西町3-20", "P29_006": "2", "P29_007": "0", "P29_008": "00", "P29_009": null }, "geometry": { "type": "Point", "coordinates": [ 141.135998055919941, 39.137401903253796 ] } },
{ "type": "Feature", "properties": { "P29_001": "03216", "P29_002": "D103210000101", "P29_003": "16004", "P29_004": "岩手県立盛岡農業高等学校", "P29_005": "岩手県滝沢市砂込1463", "P29_006": "2", "P29_007": "0", "P29_008": "00", "P29_009": null }, "geometry": { "type": "Point", "coordinates": [ 141.121353640926486, 39.803338665232694 ] } },
{ "type": "Feature", "properties": { "P29_001": "03201", "P29_002": "D103210000110", "P29_003": "16004", "P29_004": "岩手県立盛岡工業高等学校", "P29_005": "岩手県盛岡市羽場18-11-1", "P29_006": "2", "P29_007": "0", "P29_008": "00", "P29_009": null }, "geometry": { "type": "Point", "coordinates": [ 141.103581536633328, 39.652536463728765 ] } },
{ "type": "Feature", "properties": { "P29_001": "03201", "P29_002": "D103210000129", "P29_003": "16004", "P29_004": "岩手県立盛岡商業高等学校", "P29_005": "岩手県盛岡市本宮2-35-1", "P29_006": "2", "P29_007": "0", "P29_008": "00", "P29_009": null }, "geometry": { "type": "Point", "coordinates": [ 141.139416784993045, 39.685855675129993 ] } },
{ "type": "Feature", "properties": { "P29_001": "03303", "P29_002": "D103210000138", "P29_003": "16004", "P29_004": "岩手県立沼宮内高等学校", "P29_005": "岩手県岩手郡岩手町五日市10-4", "P29_006": "2", "P29_007": "0", "P29_008": "00", "P29_009": null }, "geometry": { "type": "Point", "coordinates": [ 141.210975558167007, 39.969482708951013 ] } },
{ "type": "Feature", "properties": { "P29_001": "03302", "P29_002": "D103210000147", "P29_003": "16004", "P29_004": "岩手県立葛巻高等学校", "P29_005": "岩手県岩手郡葛巻町葛巻5-178-1", "P29_006": "2", "P29_007": "0", "P29_008": "00", "P29_009": null }, "geometry": { "type": "Point", "coordinates": [ 141.459754875631972, 40.04633105103067 ] } },
{ "type": "Feature", "properties": { "P29_001": "03214", "P29_002": "D103210000156", "P29_003": "16004", "P29_004": "岩手県立平舘高等学校", "P29_005": "岩手県八幡平市平舘25-6", "P29_006": "2", "P29_007": "0", "P29_008": "00", "P29_009": null }, "geometry": { "type": "Point", "coordinates": [ 141.091661629219885, 39.942141652780535 ] } },
{ "type": "Feature", "properties": { "P29_001": "03301", "P29_002": "D103210000165", "P29_003": "16004", "P29_004": "岩手県立雫石高等学校", "P29_005": "岩手県岩手郡雫石町柿木36-1", "P29_006": "2", "P29_007": "0", "P29_008": "00", "P29_009": null }, "geometry": { "type": "Point", "coordinates": [ 140.967188361708537, 39.70067429268007 ] } },
{ "type": "Feature", "properties": { "P29_001": "03321", "P29_002": "D103210000174", "P29_003": "16004", "P29_004": "岩手県立紫波総合高等学校", "P29_005": "岩手県紫波郡紫波町日詰字朝日田1", "P29_006": "2", "P29_007": "0", "P29_008": "00", "P29_009": null }, "geometry": { "type": "Point", "coordinates": [ 141.157255932800695, 39.561866731837583 ] } },
{ "type": "Feature", "properties": { "P29_001": "03205", "P29_002": "D103210000183", "P29_003": "16004", "P29_004": "岩手県立花巻北高等学校", "P29_005": "岩手県花巻市本館54", "P29_006": "2", "P29_007": "0", "P29_008": "00", "P29_009": null }, "geometry": { "type": "Point", "coordinates": [ 141.116392515416692, 39.411492932918215 ] } },
{ "type": "Feature", "properties": { "P29_001": "03205", "P29_002": "D103210000192", "P29_003": "16004", "P29_004": "岩手県立花巻南高等学校", "P29_005": "岩手県花巻市中北万丁目288-1", "P29_006": "2", "P29_007": "0", "P29_008": "00", "P29_009": null }, "geometry": { "type": "Point", "coordinates": [ 141.086957601709514, 39.393334115620846 ] } },
{ "type": "Feature", "properties": { "P29_001": "03205", "P29_002": "D103210000209", "P29_003": "16004", "P29_004": "岩手県立花巻農業高等学校", "P29_005": "岩手県花巻市葛1-68", "P29_006": "2", "P29_007": "0", "P29_008": "00", "P29_009": null }, "geometry": { "type": "Point", "coordinates": [ 141.141971575071381, 39.439382092479022 ] } },
{ "type": "Feature", "properties": { "P29_001": "03205", "P29_002": "D103210000218", "P29_003": "16004", "P29_004": "岩手県立花北青雲高等学校", "P29_005": "岩手県花巻市石鳥谷町北寺林11-1825-1", "P29_006": "2", "P29_007": "0", "P29_008": "00", "P29_009": null }, "geometry": { "type": "Point", "coordinates": [ 141.134792829115412, 39.494088317868957 ] } },
{ "type": "Feature", "properties": { "P29_001": "03205", "P29_002": "D103210000227", "P29_003": "16004", "P29_004": "岩手県立大迫高等学校", "P29_005": "岩手県花巻市大迫町大迫9-19-1", "P29_006": "2", "P29_007": "0", "P29_008": "00", "P29_009": null }, "geometry": { "type": "Point", "coordinates": [ 141.2875966755295, 39.472879628345368 ] } },
{ "type": "Feature", "properties": { "P29_001": "03208", "P29_002": "D103210000236", "P29_003": "16004", "P29_004": "岩手県立遠野高等学校", "P29_005": "岩手県遠野市六日町3-17", "P29_006": "2", "P29_007": "0", "P29_008": "00", "P29_009": null }, "geometry": { "type": "Point", "coordinates": [ 141.521220199655119, 39.327365141471972 ] } },
{ "type": "Feature", "properties": { "P29_001": "03208", "P29_002": "D103210000245", "P29_003": "16004", "P29_004": "岩手県立遠野緑峰高等学校", "P29_005": "岩手県遠野市松崎町白岩21-14-1", "P29_006": "2", "P29_007": "0", "P29_008": "00", "P29_009": null }, "geometry": { "type": "Point", "coordinates": [ 141.552918470443956, 39.340053561471649 ] } },
{ "type": "Feature", "properties": { "P29_001": "03206", "P29_002": "D103210000254", "P29_003": "16004", "P29_004": "岩手県立黒沢尻北高等学校", "P29_005": "岩手県北上市常盤台1-1-69", "P29_006": "2", "P29_007": "0", "P29_008": "00", "P29_009": null }, "geometry": { "type": "Point", "coordinates": [ 141.120526570044944, 39.296892576076054 ] } },
{ "type": "Feature", "properties": { "P29_001": "03206", "P29_002": "D103210000263", "P29_003": "16004", "P29_004": "岩手県立北上翔南高等学校", "P29_005": "岩手県北上市相去町高前檀13", "P29_006": "2", "P29_007": "0", "P29_008": "00", "P29_009": null }, "geometry": { "type": "Point", "coordinates": [ 141.089892506578508, 39.258968215351167 ] } },
{ "type": "Feature", "properties": { "P29_001": "03206", "P29_002": "D103210000272", "P29_003": "16004", "P29_004": "岩手県立黒沢尻工業高等学校", "P29_005": "岩手県北上市村崎野24-19", "P29_006": "2", "P29_007": "0", "P29_008": "00", "P29_009": null }, "geometry": { "type": "Point", "coordinates": [ 141.125851772368407, 39.329209772766042 ] } },
{ "type": "Feature", "properties": { "P29_001": "03366", "P29_002": "D103210000281", "P29_003": "16004", "P29_004": "岩手県立西和賀高等学校", "P29_005": "岩手県和賀郡西和賀町湯田19-25-2", "P29_006": "2", "P29_007": "0", "P29_008": "00", "P29_009": null }, "geometry": { "type": "Point", "coordinates": [ 140.766364463094988, 39.354649034908441 ] } },
{ "type": "Feature", "properties": { "P29_001": "03215", "P29_002": "D103210000290", "P29_003": "16004", "P29_004": "岩手県立水沢高等学校", "P29_005": "岩手県奥州市水沢龍ケ馬場5-1", "P29_006": "2", "P29_007": "0", "P29_008": "00", "P29_009": null }, "geometry": { "type": "Point", "coordinates": [ 141.139894099330149, 39.123574059311458 ] } },
{ "type": "Feature", "properties": { "P29_001": "03215", "P29_002": "D103210000307", "P29_003": "16004", "P29_004": "岩手県立水沢農業高等学校", "P29_005": "岩手県奥州市胆沢小山字笹森1", "P29_006": "2", "P29_007": "0", "P29_008": "00", "P29_009": null }, "geometry": { "type": "Point", "coordinates": [ 141.11539042815096, 39.11355834497035 ] } },
{ "type": "Feature", "properties": { "P29_001": "03215", "P29_002": "D103210000316", "P29_003": "16004", "P29_004": "岩手県立水沢工業高等学校", "P29_005": "岩手県奥州市水沢佐倉河字道下100-1", "P29_006": "2", "P29_007": "0", "P29_008": "00", "P29_009": null }, "geometry": { "type": "Point", "coordinates": [ 141.150723059902305, 39.156506555923769 ] } },
{ "type": "Feature", "properties": { "P29_001": "03215", "P29_002": "D103210000325", "P29_003": "16004", "P29_004": "岩手県立水沢商業高等学校", "P29_005": "岩手県奥州市水沢字土器田1", "P29_006": "2", "P29_007": "0", "P29_008": "00", "P29_009": null }, "geometry": { "type": "Point", "coordinates": [ 141.125672812041785, 39.143640953593909 ] } },
{ "type": "Feature", "properties": { "P29_001": "03215", "P29_002": "D103210000334", "P29_003": "16004", "P29_004": "岩手県立前沢高等学校", "P29_005": "岩手県奥州市前沢字狐石36-1", "P29_006": "2", "P29_007": "0", "P29_008": "00", "P29_009": null }, "geometry": { "type": "Point", "coordinates": [ 141.122365077547556, 39.063674608401968 ] } },
{ "type": "Feature", "properties": { "P29_001": "03381", "P29_002": "D103210000343", "P29_003": "16004", "P29_004": "岩手県立金ケ崎高等学校", "P29_005": "岩手県胆沢郡金ケ崎町西根荒巻43-1", "P29_006": "2", "P29_007": "0", "P29_008": "00", "P29_009": null }, "geometry": { "type": "Point", "coordinates": [ 141.101059065504671, 39.213819690820863 ] } },
{ "type": "Feature", "properties": { "P29_001": "03215", "P29_002": "D103210000352", "P29_003": "16004", "P29_004": "岩手県立岩谷堂高等学校", "P29_005": "岩手県奥州市江刺岩谷堂字根岸116", "P29_006": "2", "P29_007": "0", "P29_008": "00", "P29_009": null }, "geometry": { "type": "Point", "coordinates": [ 141.169533517659289, 39.20464234081058 ] } },
{ "type": "Feature", "properties": { "P29_001": "03209", "P29_002": "D103210000361", "P29_003": "16004", "P29_004": "岩手県立一関第一高等学校", "P29_005": "岩手県一関市磐井町9-1", "P29_006": "2", "P29_007": "0", "P29_008": "00", "P29_009": null }, "geometry": { "type": "Point", "coordinates": [ 141.135338717173568, 38.935333282350257 ] } },
{ "type": "Feature", "properties": { "P29_001": "03209", "P29_002": "D103210000370", "P29_003": "16004", "P29_004": "岩手県立一関第二高等学校", "P29_005": "岩手県一関市赤荻字野中23-1", "P29_006": "2", "P29_007": "0", "P29_008": "00", "P29_009": null }, "geometry": { "type": "Point", "coordinates": [ 141.105956583217505, 38.932423085091486 ] } },
{ "type": "Feature", "properties": { "P29_001": "03209", "P29_002": "D103210000389", "P29_003": "16004", "P29_004": "岩手県立一関工業高等学校", "P29_005": "岩手県一関市萩荘字釜ヶ渕50", "P29_006": "2", "P29_007": "0", "P29_008": "00", "P29_009": null }, "geometry": { "type": "Point", "coordinates": [ 141.110495103397625, 38.927342926335086 ] } },
{ "type": "Feature", "properties": { "P29_001": "03209", "P29_002": "D103210000398", "P29_003": "16004", "P29_004": "岩手県立花泉高等学校", "P29_005": "岩手県一関市花泉町花泉字林の沢17-9", "P29_006": "2", "P29_007": "0", "P29_008": "00", "P29_009": null }, "geometry": { "type": "Point", "coordinates": [ 141.175016524515144, 38.830060027620078 ] } },
{ "type": "Feature", "properties": { "P29_001": "03209", "P29_002": "D103210000405", "P29_003": "16004", "P29_004": "岩手県立大東高等学校", "P29_005": "岩手県一関市大東町摺沢字堀河ノ沢34-4", "P29_006": "2", "P29_007": "0", "P29_008": "00", "P29_009": null }, "geometry": { "type": "Point", "coordinates": [ 141.322773639885582, 38.991078956167527 ] } },
{ "type": "Feature", "properties": { "P29_001": "03209", "P29_002": "D103210000414", "P29_003": "16004", "P29_004": "岩手県立千厩高等学校", "P29_005": "岩手県一関市千厩町千厩字石堂45-2", "P29_006": "2", "P29_007": "0", "P29_008": "00", "P29_009": null }, "geometry": { "type": "Point", "coordinates": [ 141.34226015666431, 38.919996497400156 ] } },
{ "type": "Feature", "properties": { "P29_001": "03210", "P29_002": "D103210000423", "P29_003": "16004", "P29_004": "岩手県立高田高等学校", "P29_005": "岩手県陸前高田市高田町字長砂78-12", "P29_006": "2", "P29_007": "0", "P29_008": "00", "P29_009": null }, "geometry": { "type": "Point", "coordinates": [ 141.638221163226234, 39.016618982616102 ] } },
{ "type": "Feature", "properties": { "P29_001": "03203", "P29_002": "D103210000432", "P29_003": "16004", "P29_004": "岩手県立大船渡高等学校", "P29_005": "岩手県大船渡市猪川町字長洞7-1", "P29_006": "2", "P29_007": "0", "P29_008": "00", "P29_009": null }, "geometry": { "type": "Point", "coordinates": [ 141.716764973879549, 39.094308553597429 ] } },
{ "type": "Feature", "properties": { "P29_001": "03203", "P29_002": "D103210000441", "P29_003": "16004", "P29_004": "岩手県立大船渡東高等学校", "P29_005": "岩手県大船渡市立根町字冷清水1-1", "P29_006": "2", "P29_007": "0", "P29_008": "00", "P29_009": null }, "geometry": { "type": "Point", "coordinates": [ 141.713825284430897, 39.112044854431005 ] } },
{ "type": "Feature", "properties": { "P29_001": "03441", "P29_002": "D103210000450", "P29_003": "16004", "P29_004": "岩手県立住田高等学校", "P29_005": "岩手県気仙郡住田町世田米字川口12-1", "P29_006": "2", "P29_007": "0", "P29_008": "00", "P29_009": null }, "geometry": { "type": "Point", "coordinates": [ 141.538376091400863, 39.15104321159717 ] } },
{ "type": "Feature", "properties": { "P29_001": "03211", "P29_002": "D103210000469", "P29_003": "16004", "P29_004": "岩手県立釜石高等学校", "P29_005": "岩手県釜石市甲子町10-614-1", "P29_006": "2", "P29_007": "0", "P29_008": "00", "P29_009": null }, "geometry": { "type": "Point", "coordinates": [ 141.805534686647718, 39.253631006092924 ] } },
{ "type": "Feature", "properties": { "P29_001": "03211", "P29_002": "D103210000478", "P29_003": "16004", "P29_004": "岩手県立釜石商工高等学校", "P29_005": "岩手県釜石市大平町3-2-1", "P29_006": "2", "P29_007": "0", "P29_008": "00", "P29_009": null }, "geometry": { "type": "Point", "coordinates": [ 141.895073083943174, 39.259306886784117 ] } },
{ "type": "Feature", "properties": { "P29_001": "03461", "P29_002": "D103210000487", "P29_003": "16004", "P29_004": "岩手県立大槌高等学校", "P29_005": "岩手県上閉伊郡大槌町大槌15-71-1", "P29_006": "2", "P29_007": "0", "P29_008": "00", "P29_009": null }, "geometry": { "type": "Point", "coordinates": [ 141.902574388633695, 39.370569005590426 ] } },
{ "type": "Feature", "properties": { "P29_001": "03482", "P29_002": "D103210000496", "P29_003": "16004", "P29_004": "岩手県立山田高等学校", "P29_005": "岩手県下閉伊郡山田町織笠8-6-2", "P29_006": "2", "P29_007": "0", "P29_008": "00", "P29_009": null }, "geometry": { "type": "Point", "coordinates": [ 141.948748151965304, 39.449539338026995 ] } },
{ "type": "Feature", "properties": { "P29_001": "03202", "P29_002": "D103210000502", "P29_003": "16004", "P29_004": "岩手県立宮古高等学校", "P29_005": "岩手県宮古市宮町2-1-1", "P29_006": "2", "P29_007": "0", "P29_008": "00", "P29_009": null }, "geometry": { "type": "Point", "coordinates": [ 141.94778196570374, 39.637316276754781 ] } },
{ "type": "Feature", "properties": { "P29_001": "03202", "P29_002": "D103210000511", "P29_003": "16004", "P29_004": "岩手県立宮古北高等学校", "P29_005": "岩手県宮古市田老字八幡水神43-2", "P29_006": "2", "P29_007": "0", "P29_008": "00", "P29_009": null }, "geometry": { "type": "Point", "coordinates": [ 141.95032487404697, 39.73055520201072 ] } },
{ "type": "Feature", "properties": { "P29_001": "03202", "P29_002": "D103210000520", "P29_003": "16004", "P29_004": "岩手県立宮古商工高等学校", "P29_005": "岩手県宮古市磯鶏3-5-1", "P29_006": "2", "P29_007": "0", "P29_008": "00", "P29_009": null }, "geometry": { "type": "Point", "coordinates": [ 141.958815259001312, 39.617904466341734 ] } },
{ "type": "Feature", "properties": { "P29_001": "03202", "P29_002": "D103210000539", "P29_003": "16004", "P29_004": "岩手県立宮古水産高等学校", "P29_005": "岩手県宮古市磯鶏3-9-1", "P29_006": "2", "P29_007": "0", "P29_008": "00", "P29_009": null }, "geometry": { "type": "Point", "coordinates": [ 141.958512947453727, 39.621132780397353 ] } },
{ "type": "Feature", "properties": { "P29_001": "03483", "P29_002": "D103210000548", "P29_003": "16004", "P29_004": "岩手県立岩泉高等学校", "P29_005": "岩手県下閉伊郡岩泉町岩泉字松橋4", "P29_006": "2", "P29_007": "0", "P29_008": "00", "P29_009": null }, "geometry": { "type": "Point", "coordinates": [ 141.79480479459329, 39.843520907464189 ] } },
{ "type": "Feature", "properties": { "P29_001": "03207", "P29_002": "D103210000557", "P29_003": "16004", "P29_004": "岩手県立久慈高等学校", "P29_005": "岩手県久慈市畑田26-96", "P29_006": "2", "P29_007": "0", "P29_008": "00", "P29_009": null }, "geometry": { "type": "Point", "coordinates": [ 141.743594820328923, 40.192933612687362 ] } },
{ "type": "Feature", "properties": { "P29_001": "03207", "P29_002": "D103210000566", "P29_003": "16004", "P29_004": "岩手県立久慈高等学校長内校", "P29_005": "岩手県久慈市川崎町1-15", "P29_006": "2", "P29_007": "0", "P29_008": "00", "P29_009": null }, "geometry": { "type": "Point", "coordinates": [ 141.77654547084191, 40.191013849312 ] } },
{ "type": "Feature", "properties": { "P29_001": "03207", "P29_002": "D103210000575", "P29_003": "16004", "P29_004": "岩手県立久慈東高等学校", "P29_005": "岩手県久慈市門前36-10", "P29_006": "2", "P29_007": "0", "P29_008": "00", "P29_009": null }, "geometry": { "type": "Point", "coordinates": [ 141.762952375131647, 40.200423221438832 ] } },
{ "type": "Feature", "properties": { "P29_001": "03503", "P29_002": "D103210000584", "P29_003": "16004", "P29_004": "岩手県立久慈工業高等学校", "P29_005": "岩手県九戸郡野田村大字野田26-62-17", "P29_006": "2", "P29_007": "0", "P29_008": "00", "P29_009": null }, "geometry": { "type": "Point", "coordinates": [ 141.806682807799717, 40.116297425994375 ] } },
{ "type": "Feature", "properties": { "P29_001": "03507", "P29_002": "D103210000593", "P29_003": "16004", "P29_004": "岩手県立種市高等学校", "P29_005": "岩手県九戸郡洋野町種市38-94-110", "P29_006": "2", "P29_007": "0", "P29_008": "00", "P29_009": null }, "geometry": { "type": "Point", "coordinates": [ 141.697801998255187, 40.430969000060244 ] } },
{ "type": "Feature", "properties": { "P29_001": "03507", "P29_002": "D103210000600", "P29_003": "16004", "P29_004": "岩手県立大野高等学校", "P29_005": "岩手県九戸郡洋野町大野58-12-55", "P29_006": "2", "P29_007": "0", "P29_008": "00", "P29_009": null }, "geometry": { "type": "Point", "coordinates": [ 141.641823096044135, 40.273600658158173 ] } },
{ "type": "Feature", "properties": { "P29_001": "03501", "P29_002": "D103210000619", "P29_003": "16004", "P29_004": "岩手県立軽米高等学校", "P29_005": "岩手県九戸郡軽米町大字軽米9-34-1", "P29_006": "2", "P29_007": "0", "P29_008": "00", "P29_009": null }, "geometry": { "type": "Point", "coordinates": [ 141.4584889712539, 40.322365959481097 ] } },
{ "type": "Feature", "properties": { "P29_001": "03506", "P29_002": "D103210000628", "P29_003": "16004", "P29_004": "岩手県立伊保内高等学校", "P29_005": "岩手県九戸郡九戸村大字伊保内1-61-12", "P29_006": "2", "P29_007": "0", "P29_008": "00", "P29_009": null }, "geometry": { "type": "Point", "coordinates": [ 141.430859378192963, 40.198573484431719 ] } },
{ "type": "Feature", "properties": { "P29_001": "03213", "P29_002": "D103210000637", "P29_003": "16004", "P29_004": "岩手県立福岡高等学校", "P29_005": "岩手県二戸市福岡字上平10", "P29_006": "2", "P29_007": "0", "P29_008": "00", "P29_009": null }, "geometry": { "type": "Point", "coordinates": [ 141.303930274682301, 40.274859293037728 ] } },
{ "type": "Feature", "properties": { "P29_001": "03213", "P29_002": "D103210000646", "P29_003": "16004", "P29_004": "岩手県立福岡工業高等学校", "P29_005": "岩手県二戸市石切所字火行塚2-1", "P29_006": "2", "P29_007": "0", "P29_008": "00", "P29_009": null }, "geometry": { "type": "Point", "coordinates": [ 141.282695756591181, 40.260328265920435 ] } },
{ "type": "Feature", "properties": { "P29_001": "03524", "P29_002": "D103210000655", "P29_003": "16004", "P29_004": "岩手県立一戸高等学校", "P29_005": "岩手県二戸郡一戸町一戸字蒔前60-1", "P29_006": "2", "P29_007": "0", "P29_008": "00", "P29_009": null }, "geometry": { "type": "Point", "coordinates": [ 141.297342377211805, 40.223219099699314 ] } },
{ "type": "Feature", "properties": { "P29_001": "03201", "P29_002": "D103210000664", "P29_003": "16004", "P29_004": "盛岡市立高等学校", "P29_005": "岩手県盛岡市上太田上川原96", "P29_006": "3", "P29_007": "0", "P29_008": "00", "P29_009": null }, "geometry": { "type": "Point", "coordinates": [ 141.086928122910535, 39.699065801739899 ] } },
{ "type": "Feature", "properties": { "P29_001": "03201", "P29_002": "D103310000010", "P29_003": "16004", "P29_004": "岩手高等学校", "P29_005": "岩手県盛岡市長田町7-60", "P29_006": "4", "P29_007": "0", "P29_008": "00", "P29_009": null }, "geometry": { "type": "Point", "coordinates": [ 141.139242075460686, 39.708978650963722 ] } },
{ "type": "Feature", "properties": { "P29_001": "03201", "P29_002": "D103310000029", "P29_003": "16004", "P29_004": "岩手女子高等学校", "P29_005": "岩手県盛岡市大沢川原1-5-34", "P29_006": "4", "P29_007": "0", "P29_008": "00", "P29_009": null }, "geometry": { "type": "Point", "coordinates": [ 141.146197721290946, 39.699515668504439 ] } },
{ "type": "Feature", "properties": { "P29_001": "03201", "P29_002": "D103310000038", "P29_003": "16004", "P29_004": "盛岡白百合学園高等学校", "P29_005": "岩手県盛岡市山岸4-29-16", "P29_006": "4", "P29_007": "0", "P29_008": "00", "P29_009": null }, "geometry": { "type": "Point", "coordinates": [ 141.16417752874429, 39.723236452073628 ] } },
{ "type": "Feature", "properties": { "P29_001": "03201", "P29_002": "D103310000047", "P29_003": "16004", "P29_004": "江南義塾盛岡高等学校", "P29_005": "岩手県盛岡市前九年3-8-20", "P29_006": "4", "P29_007": "0", "P29_008": "00", "P29_009": null }, "geometry": { "type": "Point", "coordinates": [ 141.121413113717466, 39.71870778874208 ] } },
{ "type": "Feature", "properties": { "P29_001": "03201", "P29_002": "D103310000056", "P29_003": "16004", "P29_004": "盛岡誠桜高等学校", "P29_005": "岩手県盛岡市高松1-21-14", "P29_006": "4", "P29_007": "0", "P29_008": "00", "P29_009": null }, "geometry": { "type": "Point", "coordinates": [ 141.141762581607964, 39.723314998350332 ] } },
{ "type": "Feature", "properties": { "P29_001": "03201", "P29_002": "D103310000065", "P29_003": "16004", "P29_004": "盛岡大学附属高等学校", "P29_005": "岩手県盛岡市厨川5-4-1", "P29_006": "4", "P29_007": "0", "P29_008": "00", "P29_009": null }, "geometry": { "type": "Point", "coordinates": [ 141.125396425248056, 39.748591109685165 ] } },
{ "type": "Feature", "properties": { "P29_001": "03201", "P29_002": "D103310000074", "P29_003": "16004", "P29_004": "盛岡スコーレ高等学校", "P29_005": "岩手県盛岡市向中野5-5-1", "P29_006": "4", "P29_007": "0", "P29_008": "00", "P29_009": null }, "geometry": { "type": "Point", "coordinates": [ 141.140016964363753, 39.679775630609917 ] } },
{ "type": "Feature", "properties": { "P29_001": "03201", "P29_002": "D103310000083", "P29_003": "16004", "P29_004": "盛岡中央高等学校", "P29_005": "岩手県盛岡市みたけ4-26-1", "P29_006": "4", "P29_007": "0", "P29_008": "00", "P29_009": null }, "geometry": { "type": "Point", "coordinates": [ 141.12325928030657, 39.745359982119602 ] } },
{ "type": "Feature", "properties": { "P29_001": "03205", "P29_002": "D103310000092", "P29_003": "16004", "P29_004": "花巻東高等学校", "P29_005": "岩手県花巻市松園町55-1", "P29_006": "4", "P29_007": "0", "P29_008": "00", "P29_009": null }, "geometry": { "type": "Point", "coordinates": [ 141.099368974142408, 39.404958423330868 ] } },
{ "type": "Feature", "properties": { "P29_001": "03206", "P29_002": "D103310000109", "P29_003": "16004", "P29_004": "専修大学北上高等学校", "P29_005": "岩手県北上市新殻町2-4-64", "P29_006": "4", "P29_007": "0", "P29_008": "00", "P29_009": null }, "geometry": { "type": "Point", "coordinates": [ 141.11070947874353, 39.290138793441137 ] } },
{ "type": "Feature", "properties": { "P29_001": "03215", "P29_002": "D103310000118", "P29_003": "16004", "P29_004": "協和学院水沢第一高等学校", "P29_005": "岩手県奥州市水沢字森下20-1", "P29_006": "4", "P29_007": "0", "P29_008": "00", "P29_009": null }, "geometry": { "type": "Point", "coordinates": [ 141.112300840932733, 39.122426906298976 ] } },
{ "type": "Feature", "properties": { "P29_001": "03209", "P29_002": "D103310000127", "P29_003": "16004", "P29_004": "一関学院高等学校", "P29_005": "岩手県一関市八幡町5-24", "P29_006": "4", "P29_007": "0", "P29_008": "00", "P29_009": null }, "geometry": { "type": "Point", "coordinates": [ 141.132838138184439, 38.92374083548259 ] } },
{ "type": "Feature", "properties": { "P29_001": "03209", "P29_002": "D103310000136", "P29_003": "16004", "P29_004": "一関修紅高等学校", "P29_005": "岩手県一関市東花王町6-1", "P29_006": "4", "P29_007": "0", "P29_008": "00", "P29_009": null }, "geometry": { "type": "Point", "coordinates": [ 141.139716785025428, 38.93421981798447 ] } }
]
}
