{
"type": "FeatureCollection",
"name": "geo_03_短期大学",
"crs": { "type": "name", "properties": { "name": "urn:ogc:def:crs:EPSG::6668" } },
"features": [
{ "type": "Feature", "properties": { "P29_001": "03216", "P29_002": "F203210100792", "P29_003": "16006", "P29_004": "岩手県立大学盛岡短期大学部", "P29_005": "岩手県滝沢市巣子152-52", "P29_006": "2", "P29_007": "0", "P29_008": "00", "P29_009": null }, "geometry": { "type": "Point", "coordinates": [ 141.138501306913923, 39.801987592144343 ] } },
{ "type": "Feature", "properties": { "P29_001": "03202", "P29_002": "F203210100809", "P29_003": "16006", "P29_004": "岩手県立大学宮古短期大学部", "P29_005": "岩手県宮古市河南1-5-1", "P29_006": "2", "P29_007": "0", "P29_008": "00", "P29_009": null }, "geometry": { "type": "Point", "coordinates": [ 141.951000212635762, 39.61895088946919 ] } },
{ "type": "Feature", "properties": { "P29_001": "03209", "P29_002": "F203310100816", "P29_003": "16006", "P29_004": "修紅短期大学", "P29_005": "岩手県一関市萩荘字竹際49-1", "P29_006": "4", "P29_007": "0", "P29_008": "00", "P29_009": null }, "geometry": { "type": "Point", "coordinates": [ 141.110518594962855, 38.913962096356819 ] } },
{ "type": "Feature", "properties": { "P29_001": "03216", "P29_002": "F203310100825", "P29_003": "16006", "P29_004": "盛岡大学短期大学部", "P29_005": "岩手県滝沢市砂込808", "P29_006": "4", "P29_007": "0", "P29_008": "00", "P29_009": null }, "geometry": { "type": "Point", "coordinates": [ 141.137255525867914, 39.814556943809343 ] } }
]
}
