{
"type": "FeatureCollection",
"name": "geo_03_各種学校",
"crs": { "type": "name", "properties": { "name": "urn:ogc:def:crs:EPSG::6668" } },
"features": [
{ "type": "Feature", "properties": { "P29_001": "03201", "P29_002": "H203320100018", "P29_003": "16015", "P29_004": "アシノ音楽学苑", "P29_005": "岩手県盛岡市天神町1-19", "P29_006": "4", "P29_007": "0", "P29_008": "00", "P29_009": null }, "geometry": { "type": "Point", "coordinates": [ 141.164093271677871, 39.70433719957083 ] } },
{ "type": "Feature", "properties": { "P29_001": "03201", "P29_002": "H203320100027", "P29_003": "16015", "P29_004": "関谷珠算学校", "P29_005": "岩手県盛岡市本町通2-5-24", "P29_006": "4", "P29_007": "0", "P29_008": "00", "P29_009": null }, "geometry": { "type": "Point", "coordinates": [ 141.151728982071205, 39.708371869171728 ] } },
{ "type": "Feature", "properties": { "P29_001": "03201", "P29_002": "H203320100036", "P29_003": "16015", "P29_004": "盛岡市医師会附属盛岡准看護学院", "P29_005": "岩手県盛岡市愛宕町18-6", "P29_006": "4", "P29_007": "0", "P29_008": "00", "P29_009": null }, "geometry": { "type": "Point", "coordinates": [ 141.157755537165656, 39.710435525084897 ] } },
{ "type": "Feature", "properties": { "P29_001": "03201", "P29_002": "H203320100045", "P29_003": "16015", "P29_004": "岩手第一珠算学校", "P29_005": "岩手県盛岡市仙北2-5-9", "P29_006": "4", "P29_007": "0", "P29_008": "00", "P29_009": null }, "geometry": { "type": "Point", "coordinates": [ 141.150372215930673, 39.685105168203719 ] } },
{ "type": "Feature", "properties": { "P29_001": "03201", "P29_002": "H203320100054", "P29_003": "16015", "P29_004": "盛岡市医師会附属盛岡高等看護学院", "P29_005": "岩手県盛岡市愛宕町18-6", "P29_006": "4", "P29_007": "0", "P29_008": "00", "P29_009": null }, "geometry": { "type": "Point", "coordinates": [ 141.157751134277163, 39.710385610116745 ] } },
{ "type": "Feature", "properties": { "P29_001": "03206", "P29_002": "H203320600013", "P29_003": "16015", "P29_004": "第一珠算学校", "P29_005": "岩手県北上市上江釣子17-92", "P29_006": "4", "P29_007": "0", "P29_008": "00", "P29_009": null }, "geometry": { "type": "Point", "coordinates": [ 141.073075594027188, 39.29881323845904 ] } },
{ "type": "Feature", "properties": { "P29_001": "03214", "P29_002": "H203320600022", "P29_003": "16015", "P29_004": "Ｈａｒｒｏｗ　Ｉｎｔｅｒｎａｔｉｏｎａｌ　Ｓｃｈｏｏｌ　Ａｐｐｉ，Ｊａｐａｎ", "P29_005": "岩手県八幡平市安比高原180-8", "P29_006": "4", "P29_007": "0", "P29_008": "00", "P29_009": null }, "geometry": { "type": "Point", "coordinates": [ 141.000000279620025, 40.013528743629664 ] } }
]
}
