{
"type": "FeatureCollection",
"name": "geo_03_幼保連携型認定こども園",
"crs": { "type": "name", "properties": { "name": "urn:ogc:def:crs:EPSG::6668" } },
"features": [
{ "type": "Feature", "properties": { "P29_001": "03203", "P29_002": "A203220300013", "P29_003": "16013", "P29_004": "大船渡市立綾里こども園", "P29_005": "岩手県大船渡市三陸町綾里字中曽根113-1", "P29_006": "3", "P29_007": "0", "P29_008": "00", "P29_009": null }, "geometry": { "type": "Point", "coordinates": [ 141.800180173861179, 39.051410348515866 ] } },
{ "type": "Feature", "properties": { "P29_001": "03203", "P29_002": "A203220300022", "P29_003": "16013", "P29_004": "大船渡市立吉浜こども園", "P29_005": "岩手県大船渡市三陸町吉浜字扇洞186", "P29_006": "3", "P29_007": "0", "P29_008": "00", "P29_009": null }, "geometry": { "type": "Point", "coordinates": [ 141.84197634881545, 39.154796157617135 ] } },
{ "type": "Feature", "properties": { "P29_001": "03203", "P29_002": "A203220300031", "P29_003": "16013", "P29_004": "大船渡市立越喜来こども園", "P29_005": "岩手県大船渡市三陸町越喜来字小出24-24", "P29_006": "3", "P29_007": "0", "P29_008": "00", "P29_009": null }, "geometry": { "type": "Point", "coordinates": [ 141.810882968533946, 39.125913521883355 ] } },
{ "type": "Feature", "properties": { "P29_001": "03209", "P29_002": "A203220900017", "P29_003": "16013", "P29_004": "一関市立藤沢こども園", "P29_005": "岩手県一関市藤沢町藤沢字仁郷41-2", "P29_006": "3", "P29_007": "0", "P29_008": "00", "P29_009": null }, "geometry": { "type": "Point", "coordinates": [ 141.350150468591352, 38.86580228203438 ] } },
{ "type": "Feature", "properties": { "P29_001": "03209", "P29_002": "A203220900026", "P29_003": "16013", "P29_004": "一関市立黄海こども園", "P29_005": "岩手県一関市藤沢町黄海字天堤11-1", "P29_006": "3", "P29_007": "0", "P29_008": "00", "P29_009": null }, "geometry": { "type": "Point", "coordinates": [ 141.288948588445834, 38.851876276532153 ] } },
{ "type": "Feature", "properties": { "P29_001": "03209", "P29_002": "A203220900035", "P29_003": "16013", "P29_004": "一関市立室根こども園", "P29_005": "岩手県一関市室根町折壁字八幡沖373-1", "P29_006": "3", "P29_007": "0", "P29_008": "00", "P29_009": null }, "geometry": { "type": "Point", "coordinates": [ 141.444615663844104, 38.935289698965718 ] } },
{ "type": "Feature", "properties": { "P29_001": "03209", "P29_002": "A203220900044", "P29_003": "16013", "P29_004": "一関市立東山こども園", "P29_005": "岩手県一関市東山町長坂字西本町130-1", "P29_006": "3", "P29_007": "0", "P29_008": "00", "P29_009": null }, "geometry": { "type": "Point", "coordinates": [ 141.253388205928161, 38.995149247147296 ] } },
{ "type": "Feature", "properties": { "P29_001": "03209", "P29_002": "A203220900053", "P29_003": "16013", "P29_004": "一関市立川崎こども園", "P29_005": "岩手県一関市川崎町薄衣字上段46-1", "P29_006": "3", "P29_007": "0", "P29_008": "00", "P29_009": null }, "geometry": { "type": "Point", "coordinates": [ 141.263616702521603, 38.905040840347759 ] } },
{ "type": "Feature", "properties": { "P29_001": "03211", "P29_002": "A203221100013", "P29_003": "16013", "P29_004": "釜石市立上中島こども園", "P29_005": "岩手県釜石市上中島町3-5-17", "P29_006": "3", "P29_007": "0", "P29_008": "00", "P29_009": null }, "geometry": { "type": "Point", "coordinates": [ 141.853269756738712, 39.264565626819113 ] } },
{ "type": "Feature", "properties": { "P29_001": "03215", "P29_002": "A203221500019", "P29_003": "16013", "P29_004": "奥州市立幼保連携型認定こども園稲瀬わかば園", "P29_005": "岩手県奥州市江刺稲瀬字大文字160", "P29_006": "3", "P29_007": "0", "P29_008": "00", "P29_009": null }, "geometry": { "type": "Point", "coordinates": [ 141.153472067927027, 39.214022782937178 ] } },
{ "type": "Feature", "properties": { "P29_001": "03215", "P29_002": "A203221500028", "P29_003": "16013", "P29_004": "奥州市立幼保連携型認定こども園あゆみ園", "P29_005": "岩手県奥州市衣川古戸72-1", "P29_006": "3", "P29_007": "0", "P29_008": "00", "P29_009": null }, "geometry": { "type": "Point", "coordinates": [ 141.062663001402512, 39.039212996260247 ] } },
{ "type": "Feature", "properties": { "P29_001": "03215", "P29_002": "A203221500037", "P29_003": "16013", "P29_004": "奥州市立幼保連携型認定こども園前沢北こども園", "P29_005": "岩手県奥州市前沢古城字四反田171-1", "P29_006": "3", "P29_007": "0", "P29_008": "00", "P29_009": null }, "geometry": { "type": "Point", "coordinates": [ 141.149143004289613, 39.072752003854831 ] } },
{ "type": "Feature", "properties": { "P29_001": "03507", "P29_002": "A203250700025", "P29_003": "16013", "P29_004": "洋野町立八木こども園", "P29_005": "岩手県九戸郡洋野町種市3-2-5", "P29_006": "3", "P29_007": "0", "P29_008": "00", "P29_009": null }, "geometry": { "type": "Point", "coordinates": [ 141.7573353047149, 40.349678414184261 ] } },
{ "type": "Feature", "properties": { "P29_001": "03507", "P29_002": "A203250700034", "P29_003": "16013", "P29_004": "洋野町立大野こども園", "P29_005": "岩手県九戸郡洋野町大野8-36-3", "P29_006": "3", "P29_007": "0", "P29_008": "00", "P29_009": null }, "geometry": { "type": "Point", "coordinates": [ 141.625972342834217, 40.282401803747071 ] } },
{ "type": "Feature", "properties": { "P29_001": "03201", "P29_002": "A203320100013", "P29_003": "16013", "P29_004": "盛岡幼稚園", "P29_005": "岩手県盛岡市中央通1-6-47", "P29_006": "4", "P29_007": "0", "P29_008": "00", "P29_009": null }, "geometry": { "type": "Point", "coordinates": [ 141.149037001028688, 39.705302004423004 ] } },
{ "type": "Feature", "properties": { "P29_001": "03201", "P29_002": "A203320100022", "P29_003": "16013", "P29_004": "のぞみこども園", "P29_005": "岩手県盛岡市館向町21-7", "P29_006": "4", "P29_007": "0", "P29_008": "00", "P29_009": null }, "geometry": { "type": "Point", "coordinates": [ 141.130845998837572, 39.719479000408292 ] } },
{ "type": "Feature", "properties": { "P29_001": "03201", "P29_002": "A203320100031", "P29_003": "16013", "P29_004": "なでしここども園", "P29_005": "岩手県盛岡市上堂1-10-23", "P29_006": "4", "P29_007": "0", "P29_008": "00", "P29_009": null }, "geometry": { "type": "Point", "coordinates": [ 141.121745683871467, 39.722540157471208 ] } },
{ "type": "Feature", "properties": { "P29_001": "03201", "P29_002": "A203320100040", "P29_003": "16013", "P29_004": "やよい幼稚園・保育園", "P29_005": "岩手県盛岡市西松園4-8-1", "P29_006": "4", "P29_007": "0", "P29_008": "00", "P29_009": null }, "geometry": { "type": "Point", "coordinates": [ 141.158661723739925, 39.757376447014806 ] } },
{ "type": "Feature", "properties": { "P29_001": "03201", "P29_002": "A203320100059", "P29_003": "16013", "P29_004": "幼保連携型認定こども園月が丘幼稚園・保育園", "P29_005": "岩手県盛岡市月が丘2-7-5、26", "P29_006": "4", "P29_007": "0", "P29_008": "00", "P29_009": null }, "geometry": { "type": "Point", "coordinates": [ 141.106160936457457, 39.731587603710864 ] } },
{ "type": "Feature", "properties": { "P29_001": "03201", "P29_002": "A203320100068", "P29_003": "16013", "P29_004": "認定こども園台太郎こども園", "P29_005": "岩手県盛岡市西仙北1-36-10", "P29_006": "4", "P29_007": "0", "P29_008": "00", "P29_009": null }, "geometry": { "type": "Point", "coordinates": [ 141.144427487651711, 39.685331124744259 ] } },
{ "type": "Feature", "properties": { "P29_001": "03201", "P29_002": "A203320100077", "P29_003": "16013", "P29_004": "認定こども園なかのこども園", "P29_005": "岩手県盛岡市東安庭1-13-35", "P29_006": "4", "P29_007": "0", "P29_008": "00", "P29_009": null }, "geometry": { "type": "Point", "coordinates": [ 141.167198335288361, 39.681102947054704 ] } },
{ "type": "Feature", "properties": { "P29_001": "03201", "P29_002": "A203320100086", "P29_003": "16013", "P29_004": "認定こども園飯岡こども園", "P29_005": "岩手県盛岡市下飯岡8地割99", "P29_006": "4", "P29_007": "0", "P29_008": "00", "P29_009": null }, "geometry": { "type": "Point", "coordinates": [ 141.123707507336462, 39.66801713050782 ] } },
{ "type": "Feature", "properties": { "P29_001": "03201", "P29_002": "A203320100095", "P29_003": "16013", "P29_004": "認定こども園つつみ幼稚園", "P29_005": "岩手県盛岡市高松1-6-34", "P29_006": "4", "P29_007": "0", "P29_008": "00", "P29_009": null }, "geometry": { "type": "Point", "coordinates": [ 141.142112003613619, 39.719519996304854 ] } },
{ "type": "Feature", "properties": { "P29_001": "03201", "P29_002": "A203320100102", "P29_003": "16013", "P29_004": "認定こども園かがの保育園", "P29_005": "岩手県盛岡市加賀野4-18-60", "P29_006": "4", "P29_007": "0", "P29_008": "00", "P29_009": null }, "geometry": { "type": "Point", "coordinates": [ 141.169390999573579, 39.708582996606374 ] } },
{ "type": "Feature", "properties": { "P29_001": "03201", "P29_002": "A203320100111", "P29_003": "16013", "P29_004": "久昌寺保育園", "P29_005": "岩手県盛岡市茶畑2-2-1", "P29_006": "4", "P29_007": "0", "P29_008": "00", "P29_009": null }, "geometry": { "type": "Point", "coordinates": [ 141.16235827802862, 39.693079139361679 ] } },
{ "type": "Feature", "properties": { "P29_001": "03201", "P29_002": "A203320100120", "P29_003": "16013", "P29_004": "青空こども園", "P29_005": "岩手県盛岡市平賀新田字高柳2-4", "P29_006": "4", "P29_007": "0", "P29_008": "00", "P29_009": null }, "geometry": { "type": "Point", "coordinates": [ 141.098482514764697, 39.719563135596779 ] } },
{ "type": "Feature", "properties": { "P29_001": "03201", "P29_002": "A203320100139", "P29_003": "16013", "P29_004": "よつばこども園", "P29_005": "岩手県盛岡市本宮1-17-18", "P29_006": "4", "P29_007": "0", "P29_008": "00", "P29_009": null }, "geometry": { "type": "Point", "coordinates": [ 141.140288688700565, 39.689547797295518 ] } },
{ "type": "Feature", "properties": { "P29_001": "03201", "P29_002": "A203320100148", "P29_003": "16013", "P29_004": "認定こども園めぐみ幼稚園", "P29_005": "岩手県盛岡市西松園1-12-1", "P29_006": "4", "P29_007": "0", "P29_008": "00", "P29_009": null }, "geometry": { "type": "Point", "coordinates": [ 141.156397169699659, 39.752365002567409 ] } },
{ "type": "Feature", "properties": { "P29_001": "03201", "P29_002": "A203320100157", "P29_003": "16013", "P29_004": "青葉幼稚園", "P29_005": "岩手県盛岡市永井20-5-37", "P29_006": "4", "P29_007": "0", "P29_008": "00", "P29_009": null }, "geometry": { "type": "Point", "coordinates": [ 141.150565341840831, 39.650901084272938 ] } },
{ "type": "Feature", "properties": { "P29_001": "03201", "P29_002": "A203320100166", "P29_003": "16013", "P29_004": "南仙北保育園", "P29_005": "岩手県盛岡市南仙北1-6-3", "P29_006": "4", "P29_007": "0", "P29_008": "00", "P29_009": null }, "geometry": { "type": "Point", "coordinates": [ 141.150487005100985, 39.677955000439731 ] } },
{ "type": "Feature", "properties": { "P29_001": "03201", "P29_002": "A203320100175", "P29_003": "16013", "P29_004": "幼保連携型認定こども園もみじが丘幼稚園", "P29_005": "岩手県盛岡市紅葉が丘19-13", "P29_006": "4", "P29_007": "0", "P29_008": "00", "P29_009": null }, "geometry": { "type": "Point", "coordinates": [ 141.164810095310656, 39.716935628428125 ] } },
{ "type": "Feature", "properties": { "P29_001": "03201", "P29_002": "A203320100184", "P29_003": "16013", "P29_004": "幼保連携型認定こども園おおぞら村一番地こども園", "P29_005": "岩手県盛岡市津志田西1-17-60", "P29_006": "4", "P29_007": "0", "P29_008": "00", "P29_009": null }, "geometry": { "type": "Point", "coordinates": [ 141.148471000705968, 39.669849998609976 ] } },
{ "type": "Feature", "properties": { "P29_001": "03201", "P29_002": "A203320100193", "P29_003": "16013", "P29_004": "幼保連携型認定こども園二葉幼稚園", "P29_005": "岩手県盛岡市下飯岡12-72-1", "P29_006": "4", "P29_007": "0", "P29_008": "00", "P29_009": null }, "geometry": { "type": "Point", "coordinates": [ 141.129509604685467, 39.669091054665792 ] } },
{ "type": "Feature", "properties": { "P29_001": "03201", "P29_002": "A203320100200", "P29_003": "16013", "P29_004": "みどりこども園", "P29_005": "岩手県盛岡市下飯岡2地割319-1", "P29_006": "4", "P29_007": "0", "P29_008": "00", "P29_009": null }, "geometry": { "type": "Point", "coordinates": [ 141.119415955888911, 39.674133153578424 ] } },
{ "type": "Feature", "properties": { "P29_001": "03201", "P29_002": "A203320100219", "P29_003": "16013", "P29_004": "下太田保育園", "P29_005": "岩手県盛岡市下太田榊14-21", "P29_006": "4", "P29_007": "0", "P29_008": "00", "P29_009": null }, "geometry": { "type": "Point", "coordinates": [ 141.116827280015769, 39.696293458530036 ] } },
{ "type": "Feature", "properties": { "P29_001": "03201", "P29_002": "A203320100228", "P29_003": "16013", "P29_004": "盛岡大学附属幼稚園", "P29_005": "岩手県盛岡市厨川5-4-1", "P29_006": "4", "P29_007": "0", "P29_008": "00", "P29_009": null }, "geometry": { "type": "Point", "coordinates": [ 141.125771992857182, 39.74945294631658 ] } },
{ "type": "Feature", "properties": { "P29_001": "03201", "P29_002": "A203320100237", "P29_003": "16013", "P29_004": "天昌寺保育園", "P29_005": "岩手県盛岡市天昌寺町7-30", "P29_006": "4", "P29_007": "0", "P29_008": "00", "P29_009": null }, "geometry": { "type": "Point", "coordinates": [ 141.120437190748532, 39.71158258467112 ] } },
{ "type": "Feature", "properties": { "P29_001": "03201", "P29_002": "A203320100246", "P29_003": "16013", "P29_004": "愛育ホーム", "P29_005": "岩手県盛岡市みたけ4-6-10", "P29_006": "4", "P29_007": "0", "P29_008": "00", "P29_009": null }, "geometry": { "type": "Point", "coordinates": [ 141.117105412876356, 39.743278088317211 ] } },
{ "type": "Feature", "properties": { "P29_001": "03201", "P29_002": "A203320100255", "P29_003": "16013", "P29_004": "聖光こども園", "P29_005": "岩手県盛岡市長田町17-8", "P29_006": "4", "P29_007": "0", "P29_008": "00", "P29_009": null }, "geometry": { "type": "Point", "coordinates": [ 141.14028880057424, 39.710047327030466 ] } },
{ "type": "Feature", "properties": { "P29_001": "03201", "P29_002": "A203320100264", "P29_003": "16013", "P29_004": "アケボノ保育園", "P29_005": "岩手県盛岡市愛宕町18-36", "P29_006": "4", "P29_007": "0", "P29_008": "00", "P29_009": null }, "geometry": { "type": "Point", "coordinates": [ 141.158659710277817, 39.710682755910902 ] } },
{ "type": "Feature", "properties": { "P29_001": "03202", "P29_002": "A203320200012", "P29_003": "16013", "P29_004": "認定こども園宮古ひかり", "P29_005": "岩手県宮古市西町3-3-26", "P29_006": "4", "P29_007": "0", "P29_008": "00", "P29_009": null }, "geometry": { "type": "Point", "coordinates": [ 141.940868756924516, 39.647150609371721 ] } },
{ "type": "Feature", "properties": { "P29_001": "03202", "P29_002": "A203320200021", "P29_003": "16013", "P29_004": "幼保連携型認定こども園あかまえこども園", "P29_005": "岩手県宮古市赤前3-14-11", "P29_006": "4", "P29_007": "0", "P29_008": "00", "P29_009": null }, "geometry": { "type": "Point", "coordinates": [ 141.948169995457903, 39.575137001574468 ] } },
{ "type": "Feature", "properties": { "P29_001": "03202", "P29_002": "A203320200030", "P29_003": "16013", "P29_004": "幼保連携型認定こども園あかまえこども園さくらんぼ分園", "P29_005": "岩手県宮古市黒森町2-17", "P29_006": "4", "P29_007": "0", "P29_008": "00", "P29_009": null }, "geometry": { "type": "Point", "coordinates": [ 141.938632137841523, 39.648997670769468 ] } },
{ "type": "Feature", "properties": { "P29_001": "03203", "P29_002": "A203320300011", "P29_003": "16013", "P29_004": "盛こども園", "P29_005": "岩手県大船渡市盛町字沢川47-1", "P29_006": "4", "P29_007": "0", "P29_008": "00", "P29_009": null }, "geometry": { "type": "Point", "coordinates": [ 141.706344001099552, 39.08162899968962 ] } },
{ "type": "Feature", "properties": { "P29_001": "03203", "P29_002": "A203320300020", "P29_003": "16013", "P29_004": "幼保連携型認定こども園いかわこども園", "P29_005": "岩手県大船渡市猪川町字轆轤石34-1", "P29_006": "4", "P29_007": "0", "P29_008": "00", "P29_009": null }, "geometry": { "type": "Point", "coordinates": [ 141.710584998452077, 39.094982995107927 ] } },
{ "type": "Feature", "properties": { "P29_001": "03203", "P29_002": "A203320300039", "P29_003": "16013", "P29_004": "幼保連携型認定こども園立根こども園", "P29_005": "岩手県大船渡市立根町字関谷58-1", "P29_006": "4", "P29_007": "0", "P29_008": "00", "P29_009": null }, "geometry": { "type": "Point", "coordinates": [ 141.719210029949551, 39.114525933400166 ] } },
{ "type": "Feature", "properties": { "P29_001": "03203", "P29_002": "A203320300048", "P29_003": "16013", "P29_004": "幼保連携型認定こども園末崎こども園", "P29_005": "岩手県大船渡市末崎町鶴巻88-2", "P29_006": "4", "P29_007": "0", "P29_008": "00", "P29_009": null }, "geometry": { "type": "Point", "coordinates": [ 141.714873688933096, 39.003949230153644 ] } },
{ "type": "Feature", "properties": { "P29_001": "03203", "P29_002": "A203320300057", "P29_003": "16013", "P29_004": "幼保連携型認定こども園あかさきこども園", "P29_005": "岩手県大船渡市赤崎町字山口15-1", "P29_006": "4", "P29_007": "0", "P29_008": "00", "P29_009": null }, "geometry": { "type": "Point", "coordinates": [ 141.741332704754996, 39.066772941750017 ] } },
{ "type": "Feature", "properties": { "P29_001": "03205", "P29_002": "A203320500019", "P29_003": "16013", "P29_004": "社会福祉法人睦会幼保連携型認定こども園縢乃こども園", "P29_005": "岩手県花巻市中根子字明堂26", "P29_006": "4", "P29_007": "0", "P29_008": "00", "P29_009": null }, "geometry": { "type": "Point", "coordinates": [ 141.100518351201941, 39.3776225261119 ] } },
{ "type": "Feature", "properties": { "P29_001": "03205", "P29_002": "A203320500028", "P29_003": "16013", "P29_004": "認定こども園花巻たかき幼稚園・たかき保育園", "P29_005": "岩手県花巻市高木20-200-308", "P29_006": "4", "P29_007": "0", "P29_008": "00", "P29_009": null }, "geometry": { "type": "Point", "coordinates": [ 141.148110002912375, 39.380021999298087 ] } },
{ "type": "Feature", "properties": { "P29_001": "03205", "P29_002": "A203320500037", "P29_003": "16013", "P29_004": "幼保連携型認定こども園やさわこども園", "P29_005": "岩手県花巻市矢沢9-18", "P29_006": "4", "P29_007": "0", "P29_008": "00", "P29_009": null }, "geometry": { "type": "Point", "coordinates": [ 141.171195093806176, 39.411831820244657 ] } },
{ "type": "Feature", "properties": { "P29_001": "03205", "P29_002": "A203320500046", "P29_003": "16013", "P29_004": "幼保連携型認定こども園花巻みなみ幼稚園", "P29_005": "岩手県花巻市桜木町2-209", "P29_006": "4", "P29_007": "0", "P29_008": "00", "P29_009": null }, "geometry": { "type": "Point", "coordinates": [ 141.109945631473295, 39.380947957341888 ] } },
{ "type": "Feature", "properties": { "P29_001": "03205", "P29_002": "A203320500055", "P29_003": "16013", "P29_004": "にじいろこども園", "P29_005": "岩手県花巻市東宮野目13-95-4", "P29_006": "4", "P29_007": "0", "P29_008": "00", "P29_009": null }, "geometry": { "type": "Point", "coordinates": [ 141.122698003444754, 39.40841500012656 ] } },
{ "type": "Feature", "properties": { "P29_001": "03205", "P29_002": "A203320500064", "P29_003": "16013", "P29_004": "島こども園", "P29_005": "岩手県花巻市東十2-第14地割36-3", "P29_006": "4", "P29_007": "0", "P29_008": "00", "P29_009": null }, "geometry": { "type": "Point", "coordinates": [ 141.143717342715945, 39.365678537070757 ] } },
{ "type": "Feature", "properties": { "P29_001": "03205", "P29_002": "A203320500073", "P29_003": "16013", "P29_004": "幼保連携型認定こども園にまいばしこども園", "P29_005": "岩手県花巻市二枚橋町南1-58-1", "P29_006": "4", "P29_007": "0", "P29_008": "00", "P29_009": null }, "geometry": { "type": "Point", "coordinates": [ 141.12941999785744, 39.440318997356613 ] } },
{ "type": "Feature", "properties": { "P29_001": "03205", "P29_002": "A203320500082", "P29_003": "16013", "P29_004": "幼保連携型認定こども園第二若葉保育園", "P29_005": "岩手県花巻市南川原町135-8", "P29_006": "4", "P29_007": "0", "P29_008": "00", "P29_009": null }, "geometry": { "type": "Point", "coordinates": [ 141.115931994583264, 39.382762003887414 ] } },
{ "type": "Feature", "properties": { "P29_001": "03205", "P29_002": "A203320500091", "P29_003": "16013", "P29_004": "つちざわこども園", "P29_005": "岩手県花巻市東和町土沢2区315", "P29_006": "4", "P29_007": "0", "P29_008": "00", "P29_009": null }, "geometry": { "type": "Point", "coordinates": [ 141.225490176546003, 39.388272868289377 ] } },
{ "type": "Feature", "properties": { "P29_001": "03205", "P29_002": "A203320500108", "P29_003": "16013", "P29_004": "ぴっころこども園", "P29_005": "岩手県花巻市諏訪町2-4-7", "P29_006": "4", "P29_007": "0", "P29_008": "00", "P29_009": null }, "geometry": { "type": "Point", "coordinates": [ 141.110986297830721, 39.374937418450571 ] } },
{ "type": "Feature", "properties": { "P29_001": "03206", "P29_002": "A203320600018", "P29_003": "16013", "P29_004": "ふたば認定こども園双葉幼稚園", "P29_005": "岩手県北上市花園町2-5-50", "P29_006": "4", "P29_007": "0", "P29_008": "00", "P29_009": null }, "geometry": { "type": "Point", "coordinates": [ 141.11991051021775, 39.289101003558642 ] } },
{ "type": "Feature", "properties": { "P29_001": "03206", "P29_002": "A203320600027", "P29_003": "16013", "P29_004": "幼保連携型認定こども園いわさき認定こども園", "P29_005": "岩手県北上市和賀町岩崎18-57-14", "P29_006": "4", "P29_007": "0", "P29_008": "00", "P29_009": null }, "geometry": { "type": "Point", "coordinates": [ 141.039130870317763, 39.280986611757221 ] } },
{ "type": "Feature", "properties": { "P29_001": "03206", "P29_002": "A203320600036", "P29_003": "16013", "P29_004": "幼保連携型認定こども園　いいとよ保育園", "P29_005": "岩手県北上市村崎野12-74-1", "P29_006": "4", "P29_007": "0", "P29_008": "00", "P29_009": null }, "geometry": { "type": "Point", "coordinates": [ 141.097130784619651, 39.332745952060925 ] } },
{ "type": "Feature", "properties": { "P29_001": "03206", "P29_002": "A203320600045", "P29_003": "16013", "P29_004": "幼保連携型認定こども園専修大学北上幼稚園", "P29_005": "岩手県北上市鍛冶町1-4-70", "P29_006": "4", "P29_007": "0", "P29_008": "00", "P29_009": null }, "geometry": { "type": "Point", "coordinates": [ 141.108470460011944, 39.289157119215346 ] } },
{ "type": "Feature", "properties": { "P29_001": "03206", "P29_002": "A203320600054", "P29_003": "16013", "P29_004": "ふたば認定こども園横川目こども園", "P29_005": "岩手県北上市和賀町横川目10地割20-5", "P29_006": "4", "P29_007": "0", "P29_008": "00", "P29_009": null }, "geometry": { "type": "Point", "coordinates": [ 140.979179119904416, 39.307462302325106 ] } },
{ "type": "Feature", "properties": { "P29_001": "03206", "P29_002": "A203320600063", "P29_003": "16013", "P29_004": "認定こども園おにやなぎ保育園", "P29_005": "岩手県北上市鬼柳町都鳥13-1", "P29_006": "4", "P29_007": "0", "P29_008": "00", "P29_009": null }, "geometry": { "type": "Point", "coordinates": [ 141.097055702335382, 39.277417158912947 ] } },
{ "type": "Feature", "properties": { "P29_001": "03206", "P29_002": "A203320600072", "P29_003": "16013", "P29_004": "たちばなこども園", "P29_005": "岩手県北上市立花7地割100-1", "P29_006": "4", "P29_007": "0", "P29_008": "00", "P29_009": null }, "geometry": { "type": "Point", "coordinates": [ 141.136362488282657, 39.280615396201405 ] } },
{ "type": "Feature", "properties": { "P29_001": "03207", "P29_002": "A203320700017", "P29_003": "16013", "P29_004": "幼保連携型認定こども園久慈幼稚園", "P29_005": "岩手県久慈市本町3-11", "P29_006": "4", "P29_007": "0", "P29_008": "00", "P29_009": null }, "geometry": { "type": "Point", "coordinates": [ 141.769136652089969, 40.184930268652984 ] } },
{ "type": "Feature", "properties": { "P29_001": "03207", "P29_002": "A203320700026", "P29_003": "16013", "P29_004": "幼保連携型認定こども園くじあさひ認定こども園", "P29_005": "岩手県久慈市田屋町2-25-3", "P29_006": "4", "P29_007": "0", "P29_008": "00", "P29_009": null }, "geometry": { "type": "Point", "coordinates": [ 141.775064052913166, 40.197273758780533 ] } },
{ "type": "Feature", "properties": { "P29_001": "03207", "P29_002": "A203320700035", "P29_003": "16013", "P29_004": "認定こども園かわぬき", "P29_005": "岩手県久慈市大沢8-10-8", "P29_006": "4", "P29_007": "0", "P29_008": "00", "P29_009": null }, "geometry": { "type": "Point", "coordinates": [ 141.747538689798915, 40.190147838333395 ] } },
{ "type": "Feature", "properties": { "P29_001": "03207", "P29_002": "A203320700044", "P29_003": "16013", "P29_004": "認定こども園侍浜保育園", "P29_005": "岩手県久慈市侍浜町外屋敷6-10-4", "P29_006": "4", "P29_007": "0", "P29_008": "00", "P29_009": null }, "geometry": { "type": "Point", "coordinates": [ 141.787340004436828, 40.27055299773459 ] } },
{ "type": "Feature", "properties": { "P29_001": "03207", "P29_002": "A203320700053", "P29_003": "16013", "P29_004": "幼保連携型認定こども園門前保育園", "P29_005": "岩手県久慈市新中の橋4-11-4", "P29_006": "4", "P29_007": "0", "P29_008": "00", "P29_009": null }, "geometry": { "type": "Point", "coordinates": [ 141.768641175683229, 40.195664068632389 ] } },
{ "type": "Feature", "properties": { "P29_001": "03208", "P29_002": "A203320800016", "P29_003": "16013", "P29_004": "幼保連携型認定こども園めぐみ遠野聖光こども園", "P29_005": "岩手県遠野市中央通り3-10", "P29_006": "4", "P29_007": "0", "P29_008": "00", "P29_009": null }, "geometry": { "type": "Point", "coordinates": [ 141.527147995591775, 39.330278002957371 ] } },
{ "type": "Feature", "properties": { "P29_001": "03209", "P29_002": "A203320900015", "P29_003": "16013", "P29_004": "修紅短期大学附属認定こども園", "P29_005": "岩手県一関市萩荘字竹際71-2", "P29_006": "4", "P29_007": "0", "P29_008": "00", "P29_009": null }, "geometry": { "type": "Point", "coordinates": [ 141.10929399912078, 38.91400300360381 ] } },
{ "type": "Feature", "properties": { "P29_001": "03209", "P29_002": "A203320900024", "P29_003": "16013", "P29_004": "認定こども園一関幼稚園", "P29_005": "岩手県一関市字釣山31-4", "P29_006": "4", "P29_007": "0", "P29_008": "00", "P29_009": null }, "geometry": { "type": "Point", "coordinates": [ 141.131208288996049, 38.920824051415444 ] } },
{ "type": "Feature", "properties": { "P29_001": "03209", "P29_002": "A203320900033", "P29_003": "16013", "P29_004": "認定龍澤寺こども園", "P29_005": "岩手県一関市山目町3-2-19", "P29_006": "4", "P29_007": "0", "P29_008": "00", "P29_009": null }, "geometry": { "type": "Point", "coordinates": [ 141.129996403334985, 38.94976962313136 ] } },
{ "type": "Feature", "properties": { "P29_001": "03209", "P29_002": "A203320900042", "P29_003": "16013", "P29_004": "幼保連携型認定こども園花泉こども園", "P29_005": "岩手県一関市花泉町老松字水沢9", "P29_006": "4", "P29_007": "0", "P29_008": "00", "P29_009": null }, "geometry": { "type": "Point", "coordinates": [ 141.194230994821851, 38.831389995263152 ] } },
{ "type": "Feature", "properties": { "P29_001": "03209", "P29_002": "A203320900051", "P29_003": "16013", "P29_004": "認定こども園千厩小羊幼稚園・千厩こひつじ園", "P29_005": "岩手県一関市千厩町千厩字北方130-2", "P29_006": "4", "P29_007": "0", "P29_008": "00", "P29_009": null }, "geometry": { "type": "Point", "coordinates": [ 141.332551718172169, 38.920608308104306 ] } },
{ "type": "Feature", "properties": { "P29_001": "03209", "P29_002": "A203320900060", "P29_003": "16013", "P29_004": "認定こども園一関南保育園", "P29_005": "岩手県一関市関が丘30-1", "P29_006": "4", "P29_007": "0", "P29_008": "00", "P29_009": null }, "geometry": { "type": "Point", "coordinates": [ 141.144954686122787, 38.919653605808449 ] } },
{ "type": "Feature", "properties": { "P29_001": "03209", "P29_002": "A203320900079", "P29_003": "16013", "P29_004": "認定こども園赤荻保育園", "P29_005": "岩手県一関市赤荻字清水8-5", "P29_006": "4", "P29_007": "0", "P29_008": "00", "P29_009": null }, "geometry": { "type": "Point", "coordinates": [ 141.09125299724235, 38.930948000044019 ] } },
{ "type": "Feature", "properties": { "P29_001": "03209", "P29_002": "A203320900088", "P29_003": "16013", "P29_004": "認定こども園花泉保育園", "P29_005": "岩手県一関市花泉町花泉字田束93", "P29_006": "4", "P29_007": "0", "P29_008": "00", "P29_009": null }, "geometry": { "type": "Point", "coordinates": [ 141.154881407749144, 38.844664630309985 ] } },
{ "type": "Feature", "properties": { "P29_001": "03209", "P29_002": "A203320900097", "P29_003": "16013", "P29_004": "公私連携幼保連携型認定こども園わくつこども園", "P29_005": "岩手県一関市花泉町涌津字悪法師38-312", "P29_006": "4", "P29_007": "0", "P29_008": "00", "P29_009": null }, "geometry": { "type": "Point", "coordinates": [ 141.191812274263384, 38.799604817498683 ] } },
{ "type": "Feature", "properties": { "P29_001": "03209", "P29_002": "A203320900104", "P29_003": "16013", "P29_004": "認定こども園一関藤保育園", "P29_005": "岩手県一関市旭町5-15", "P29_006": "4", "P29_007": "0", "P29_008": "00", "P29_009": null }, "geometry": { "type": "Point", "coordinates": [ 141.13263660969227, 38.91837692581322 ] } },
{ "type": "Feature", "properties": { "P29_001": "03209", "P29_002": "A203320900113", "P29_003": "16013", "P29_004": "幼保連携型認定こども園幸町保育園", "P29_005": "岩手県一関市幸町1-14", "P29_006": "4", "P29_007": "0", "P29_008": "00", "P29_009": null }, "geometry": { "type": "Point", "coordinates": [ 141.124247277951241, 38.930022233365875 ] } },
{ "type": "Feature", "properties": { "P29_001": "03209", "P29_002": "A203320900122", "P29_003": "16013", "P29_004": "幼保連携型認定こども園幸町保育園・分園", "P29_005": "岩手県一関市真柴字打越20-5", "P29_006": "4", "P29_007": "0", "P29_008": "00", "P29_009": null }, "geometry": { "type": "Point", "coordinates": [ 141.13171400299143, 38.897867108199101 ] } },
{ "type": "Feature", "properties": { "P29_001": "03209", "P29_002": "A203320900131", "P29_003": "16013", "P29_004": "幼保連携型認定こども園金沢保育園", "P29_005": "岩手県一関市花泉町金沢字大柳60-1", "P29_006": "4", "P29_007": "0", "P29_008": "00", "P29_009": null }, "geometry": { "type": "Point", "coordinates": [ 141.177005000472349, 38.849442997431574 ] } },
{ "type": "Feature", "properties": { "P29_001": "03209", "P29_002": "A203320900140", "P29_003": "16013", "P29_004": "認定こども園桜保育園", "P29_005": "岩手県一関市字東花王町3", "P29_006": "4", "P29_007": "0", "P29_008": "00", "P29_009": null }, "geometry": { "type": "Point", "coordinates": [ 141.140004580172189, 38.933470567343427 ] } },
{ "type": "Feature", "properties": { "P29_001": "03209", "P29_002": "A203320900159", "P29_003": "16013", "P29_004": "たんぽぽこども園", "P29_005": "岩手県一関市赤荻字下谷地212-1", "P29_006": "4", "P29_007": "0", "P29_008": "00", "P29_009": null }, "geometry": { "type": "Point", "coordinates": [ 141.103056584937121, 38.933303308161172 ] } },
{ "type": "Feature", "properties": { "P29_001": "03211", "P29_002": "A203321100011", "P29_003": "16013", "P29_004": "甲東こども園", "P29_005": "岩手県釜石市野田町4-6-8", "P29_006": "4", "P29_007": "0", "P29_008": "00", "P29_009": null }, "geometry": { "type": "Point", "coordinates": [ 141.824727994959488, 39.25931899973429 ] } },
{ "type": "Feature", "properties": { "P29_001": "03211", "P29_002": "A203321100020", "P29_003": "16013", "P29_004": "かまいしこども園", "P29_005": "岩手県釜石市天神町5-13", "P29_006": "4", "P29_007": "0", "P29_008": "00", "P29_009": null }, "geometry": { "type": "Point", "coordinates": [ 141.884719003269623, 39.276672998369278 ] } },
{ "type": "Feature", "properties": { "P29_001": "03213", "P29_002": "A203321300019", "P29_003": "16013", "P29_004": "認定こども園ともいき", "P29_005": "岩手県二戸市福岡字上平27", "P29_006": "4", "P29_007": "0", "P29_008": "00", "P29_009": null }, "geometry": { "type": "Point", "coordinates": [ 141.30382569598288, 40.275772059968943 ] } },
{ "type": "Feature", "properties": { "P29_001": "03213", "P29_002": "A203321300028", "P29_003": "16013", "P29_004": "まつのまるこども園", "P29_005": "岩手県二戸市福岡字橋場19", "P29_006": "4", "P29_007": "0", "P29_008": "00", "P29_009": null }, "geometry": { "type": "Point", "coordinates": [ 141.296428995756827, 40.264888995487304 ] } },
{ "type": "Feature", "properties": { "P29_001": "03213", "P29_002": "A203321300037", "P29_003": "16013", "P29_004": "認定こども園ちゃいるどスクール", "P29_005": "岩手県二戸市石切所字柿ノ木平6-1", "P29_006": "4", "P29_007": "0", "P29_008": "00", "P29_009": null }, "geometry": { "type": "Point", "coordinates": [ 141.307731995122793, 40.26085299879697 ] } },
{ "type": "Feature", "properties": { "P29_001": "03213", "P29_002": "A203321300046", "P29_003": "16013", "P29_004": "認定こども園ちゃいるどスクール", "P29_005": "岩手県二戸市石切所字天神下9-1", "P29_006": "4", "P29_007": "0", "P29_008": "00", "P29_009": null }, "geometry": { "type": "Point", "coordinates": [ 141.307725373442423, 40.260797740894603 ] } },
{ "type": "Feature", "properties": { "P29_001": "03214", "P29_002": "A203321400018", "P29_003": "16013", "P29_004": "平舘こども園", "P29_005": "岩手県八幡平市平舘26-30", "P29_006": "4", "P29_007": "0", "P29_008": "00", "P29_009": null }, "geometry": { "type": "Point", "coordinates": [ 141.09700316299876, 39.944399349843756 ] } },
{ "type": "Feature", "properties": { "P29_001": "03214", "P29_002": "A203321400027", "P29_003": "16013", "P29_004": "あしろこども園", "P29_005": "岩手県八幡平市清水219", "P29_006": "4", "P29_007": "0", "P29_008": "00", "P29_009": null }, "geometry": { "type": "Point", "coordinates": [ 141.048998997610283, 40.105970999327255 ] } },
{ "type": "Feature", "properties": { "P29_001": "03214", "P29_002": "A203321400036", "P29_003": "16013", "P29_004": "大更こども園", "P29_005": "岩手県八幡平市大更21-111-1", "P29_006": "4", "P29_007": "0", "P29_008": "00", "P29_009": null }, "geometry": { "type": "Point", "coordinates": [ 141.099843174970516, 39.90897943930706 ] } },
{ "type": "Feature", "properties": { "P29_001": "03214", "P29_002": "A203321400045", "P29_003": "16013", "P29_004": "杉の子こども園", "P29_005": "岩手県八幡平市大更18-315", "P29_006": "4", "P29_007": "0", "P29_008": "00", "P29_009": null }, "geometry": { "type": "Point", "coordinates": [ 141.095783999475827, 39.899385999577746 ] } },
{ "type": "Feature", "properties": { "P29_001": "03215", "P29_002": "A203321500017", "P29_003": "16013", "P29_004": "認定こども園水沢こども園", "P29_005": "岩手県奥州市水沢字大町26", "P29_006": "4", "P29_007": "0", "P29_008": "00", "P29_009": null }, "geometry": { "type": "Point", "coordinates": [ 141.142723996216631, 39.143125998005125 ] } },
{ "type": "Feature", "properties": { "P29_001": "03215", "P29_002": "A203321500026", "P29_003": "16013", "P29_004": "認定こども園日高ななつ星", "P29_005": "岩手県奥州市水沢字日高小路17", "P29_006": "4", "P29_007": "0", "P29_008": "00", "P29_009": null }, "geometry": { "type": "Point", "coordinates": [ 141.13297800561449, 39.142277996685998 ] } },
{ "type": "Feature", "properties": { "P29_001": "03215", "P29_002": "A203321500035", "P29_003": "16013", "P29_004": "認定こども園こばとこども園", "P29_005": "岩手県奥州市水沢字大橋6", "P29_006": "4", "P29_007": "0", "P29_008": "00", "P29_009": null }, "geometry": { "type": "Point", "coordinates": [ 141.13010800393468, 39.130238995316816 ] } },
{ "type": "Feature", "properties": { "P29_001": "03215", "P29_002": "A203321500044", "P29_003": "16013", "P29_004": "認定こども園日高さくらの木", "P29_005": "岩手県奥州市水沢字北丑沢72-1", "P29_006": "4", "P29_007": "0", "P29_008": "00", "P29_009": null }, "geometry": { "type": "Point", "coordinates": [ 141.139174954321902, 39.154670019125035 ] } },
{ "type": "Feature", "properties": { "P29_001": "03215", "P29_002": "A203321500053", "P29_003": "16013", "P29_004": "幼保連携型認定こども園駒形こどもの杜", "P29_005": "岩手県奥州市水沢中上野町1-83", "P29_006": "4", "P29_007": "0", "P29_008": "00", "P29_009": null }, "geometry": { "type": "Point", "coordinates": [ 141.137743002240683, 39.136183707107264 ] } },
{ "type": "Feature", "properties": { "P29_001": "03215", "P29_002": "A203321500062", "P29_003": "16013", "P29_004": "幼保連携型認定こども園しんじょう幼稚園", "P29_005": "岩手県奥州市水沢真城字大檀10-8", "P29_006": "4", "P29_007": "0", "P29_008": "00", "P29_009": null }, "geometry": { "type": "Point", "coordinates": [ 141.14588704094902, 39.118146346795513 ] } },
{ "type": "Feature", "properties": { "P29_001": "03215", "P29_002": "A203321500071", "P29_003": "16013", "P29_004": "幼保連携型認定こども園ドレミこども園", "P29_005": "岩手県奥州市水沢佐倉河字野田30-7", "P29_006": "4", "P29_007": "0", "P29_008": "00", "P29_009": null }, "geometry": { "type": "Point", "coordinates": [ 141.1615014539382, 39.141785193807763 ] } },
{ "type": "Feature", "properties": { "P29_001": "03215", "P29_002": "A203321500080", "P29_003": "16013", "P29_004": "認定こども園　姉体幼稚園", "P29_005": "岩手県奥州市水沢姉体町字島田40", "P29_006": "4", "P29_007": "0", "P29_008": "00", "P29_009": null }, "geometry": { "type": "Point", "coordinates": [ 141.16778677495904, 39.104699875604702 ] } },
{ "type": "Feature", "properties": { "P29_001": "03215", "P29_002": "A203321500099", "P29_003": "16013", "P29_004": "幼保連携型認定こども園むつみこども園", "P29_005": "岩手県奥州市水沢秋葉町110", "P29_006": "4", "P29_007": "0", "P29_008": "00", "P29_009": null }, "geometry": { "type": "Point", "coordinates": [ 141.143920679082811, 39.147439835669985 ] } },
{ "type": "Feature", "properties": { "P29_001": "03215", "P29_002": "A203321500106", "P29_003": "16013", "P29_004": "幼保連携型認定こども園常盤幼稚園", "P29_005": "岩手県奥州市水沢東大通り3-5-31", "P29_006": "4", "P29_007": "0", "P29_008": "00", "P29_009": null }, "geometry": { "type": "Point", "coordinates": [ 141.156020003658796, 39.138220001494219 ] } },
{ "type": "Feature", "properties": { "P29_001": "03215", "P29_002": "A203321500115", "P29_003": "16013", "P29_004": "幼保連携型認定こども園ドレミのそら", "P29_005": "岩手県奥州市水沢佐倉河字前田43-1", "P29_006": "4", "P29_007": "0", "P29_008": "00", "P29_009": null }, "geometry": { "type": "Point", "coordinates": [ 141.150717157629657, 39.14750872213903 ] } },
{ "type": "Feature", "properties": { "P29_001": "03215", "P29_002": "A203321500124", "P29_003": "16013", "P29_004": "もみじこども園", "P29_005": "岩手県奥州市水沢字水山72-1", "P29_006": "4", "P29_007": "0", "P29_008": "00", "P29_009": null }, "geometry": { "type": "Point", "coordinates": [ 141.129290049937481, 39.146279485115841 ] } },
{ "type": "Feature", "properties": { "P29_001": "03215", "P29_002": "A203321500133", "P29_003": "16013", "P29_004": "八日市幼稚園", "P29_005": "岩手県奥州市江刺岩谷堂字南八日市194", "P29_006": "4", "P29_007": "0", "P29_008": "00", "P29_009": null }, "geometry": { "type": "Point", "coordinates": [ 141.167982847932848, 39.184422375629438 ] } },
{ "type": "Feature", "properties": { "P29_001": "03216", "P29_002": "A203321600016", "P29_003": "16013", "P29_004": "認定こども園ふじなでしここども園", "P29_005": "岩手県滝沢市鵜飼狐洞1-102", "P29_006": "4", "P29_007": "0", "P29_008": "00", "P29_009": null }, "geometry": { "type": "Point", "coordinates": [ 141.086973996609203, 39.737074999687216 ] } },
{ "type": "Feature", "properties": { "P29_001": "03216", "P29_002": "A203321600025", "P29_003": "16013", "P29_004": "認定こども園なでしこ保育園", "P29_005": "岩手県滝沢市室小路251-2", "P29_006": "4", "P29_007": "0", "P29_008": "00", "P29_009": null }, "geometry": { "type": "Point", "coordinates": [ 141.096465666116615, 39.738753091791253 ] } },
{ "type": "Feature", "properties": { "P29_001": "03216", "P29_002": "A203321600034", "P29_003": "16013", "P29_004": "認定こども園つばめ幼稚園", "P29_005": "岩手県滝沢市牧野林1030-2", "P29_006": "4", "P29_007": "0", "P29_008": "00", "P29_009": null }, "geometry": { "type": "Point", "coordinates": [ 141.104744997065438, 39.75009600110392 ] } },
{ "type": "Feature", "properties": { "P29_001": "03216", "P29_002": "A203321600043", "P29_003": "16013", "P29_004": "認定こども園大釜幼稚園保育園", "P29_005": "岩手県滝沢市大釜外館117-5", "P29_006": "4", "P29_007": "0", "P29_008": "00", "P29_009": null }, "geometry": { "type": "Point", "coordinates": [ 141.070441370226376, 39.708116825362282 ] } },
{ "type": "Feature", "properties": { "P29_001": "03303", "P29_002": "A203330300010", "P29_003": "16013", "P29_004": "岩手中央幼稚園", "P29_005": "岩手県岩手郡岩手町沼宮内四ツ又4-6", "P29_006": "4", "P29_007": "0", "P29_008": "00", "P29_009": null }, "geometry": { "type": "Point", "coordinates": [ 141.228697398123472, 39.981614635413791 ] } },
{ "type": "Feature", "properties": { "P29_001": "03321", "P29_002": "A203332100018", "P29_003": "16013", "P29_004": "学校法人岩手キリスト教学園認定こども園ひかりの子", "P29_005": "岩手県紫波郡紫波町日詰字下丸森130", "P29_006": "4", "P29_007": "0", "P29_008": "00", "P29_009": null }, "geometry": { "type": "Point", "coordinates": [ 141.167823994938402, 39.556000997910623 ] } },
{ "type": "Feature", "properties": { "P29_001": "03321", "P29_002": "A203332100027", "P29_003": "16013", "P29_004": "認定こども園赤石幼稚園赤石保育園", "P29_005": "岩手県紫波郡紫波町北日詰字東ノ坊50-5", "P29_006": "4", "P29_007": "0", "P29_008": "00", "P29_009": null }, "geometry": { "type": "Point", "coordinates": [ 141.164915996149972, 39.536441997387293 ] } },
{ "type": "Feature", "properties": { "P29_001": "03322", "P29_002": "A203332200017", "P29_003": "16013", "P29_004": "認定こども園矢巾中央幼稚園・矢巾中央保育園", "P29_005": "岩手県紫波郡矢巾町大字南矢幅6-127-27", "P29_006": "4", "P29_007": "0", "P29_008": "00", "P29_009": null }, "geometry": { "type": "Point", "coordinates": [ 141.139626002794444, 39.612107999286351 ] } },
{ "type": "Feature", "properties": { "P29_001": "03322", "P29_002": "A203332200026", "P29_003": "16013", "P29_004": "幼保連携型認定こども園ふどうこども園", "P29_005": "岩手県紫波郡矢巾町大字室岡第9地割55-1", "P29_006": "4", "P29_007": "0", "P29_008": "00", "P29_009": null }, "geometry": { "type": "Point", "coordinates": [ 141.122449760728301, 39.591275253564511 ] } },
{ "type": "Feature", "properties": { "P29_001": "03322", "P29_002": "A203332200035", "P29_003": "16013", "P29_004": "幼保連携型認定こども園やはばこども園", "P29_005": "岩手県紫波郡矢巾町大字南矢幅6-13-1", "P29_006": "4", "P29_007": "0", "P29_008": "00", "P29_009": null }, "geometry": { "type": "Point", "coordinates": [ 141.140519001030384, 39.610789997886037 ] } },
{ "type": "Feature", "properties": { "P29_001": "03322", "P29_002": "A203332200044", "P29_003": "16013", "P29_004": "幼保連携型認定こども園こずかたこども園", "P29_005": "岩手県紫波郡矢巾町大字又兵エ新田5-335", "P29_006": "4", "P29_007": "0", "P29_008": "00", "P29_009": null }, "geometry": { "type": "Point", "coordinates": [ 141.146852994848302, 39.613517997118315 ] } },
{ "type": "Feature", "properties": { "P29_001": "03322", "P29_002": "A203332200053", "P29_003": "16013", "P29_004": "幼保連携型認定こども園北高田こども園", "P29_005": "岩手県紫波郡矢巾町大字高田9-5-1", "P29_006": "4", "P29_007": "0", "P29_008": "00", "P29_009": null }, "geometry": { "type": "Point", "coordinates": [ 141.171480996265785, 39.626890997510905 ] } },
{ "type": "Feature", "properties": { "P29_001": "03381", "P29_002": "A203338100015", "P29_003": "16013", "P29_004": "認定こども園たいよう保育園", "P29_005": "岩手県胆沢郡金ケ崎町西根寺下101", "P29_006": "4", "P29_007": "0", "P29_008": "00", "P29_009": null }, "geometry": { "type": "Point", "coordinates": [ 141.121315004967897, 39.193245001520268 ] } },
{ "type": "Feature", "properties": { "P29_001": "03461", "P29_002": "A203346100018", "P29_003": "16013", "P29_004": "認定こども園みどり幼稚園", "P29_005": "岩手県上閉伊郡大槌町大槌15-95-264", "P29_006": "4", "P29_007": "0", "P29_008": "00", "P29_009": null }, "geometry": { "type": "Point", "coordinates": [ 141.896842335236698, 39.369211280796243 ] } },
{ "type": "Feature", "properties": { "P29_001": "03461", "P29_002": "A203346100027", "P29_003": "16013", "P29_004": "幼保連携型認定こども園つつみこども園", "P29_005": "岩手県上閉伊郡大槌町吉里吉里2-2-3", "P29_006": "4", "P29_007": "0", "P29_008": "00", "P29_009": null }, "geometry": { "type": "Point", "coordinates": [ 141.939728345026651, 39.370442434585968 ] } },
{ "type": "Feature", "properties": { "P29_001": "03461", "P29_002": "A203346100036", "P29_003": "16013", "P29_004": "幼保連携型認定こども園おおつちこども園", "P29_005": "岩手県上閉伊郡大槌町小槌第26地割161-5", "P29_006": "4", "P29_007": "0", "P29_008": "00", "P29_009": null }, "geometry": { "type": "Point", "coordinates": [ 141.892039995547947, 39.355996998355593 ] } },
{ "type": "Feature", "properties": { "P29_001": "03461", "P29_002": "A203346100045", "P29_003": "16013", "P29_004": "幼保連携型認定こども園さくらこども園", "P29_005": "岩手県上閉伊郡大槌町大槌第14地割141-1", "P29_006": "4", "P29_007": "0", "P29_008": "00", "P29_009": null }, "geometry": { "type": "Point", "coordinates": [ 141.895233921811666, 39.366256324023851 ] } },
{ "type": "Feature", "properties": { "P29_001": "03482", "P29_002": "A203348200013", "P29_003": "16013", "P29_004": "とよまねこども園", "P29_005": "岩手県下閉伊郡山田町豊間根3-177-10", "P29_006": "4", "P29_007": "0", "P29_008": "00", "P29_009": null }, "geometry": { "type": "Point", "coordinates": [ 141.926055883539192, 39.531625762889277 ] } },
{ "type": "Feature", "properties": { "P29_001": "03507", "P29_002": "A203350700014", "P29_003": "16013", "P29_004": "幼保連携型認定こども園なかのこども園", "P29_005": "岩手県九戸郡洋野町中野9-29-22", "P29_006": "4", "P29_007": "0", "P29_008": "00", "P29_009": null }, "geometry": { "type": "Point", "coordinates": [ 141.777670003030522, 40.302330000724645 ] } },
{ "type": "Feature", "properties": { "P29_001": "03507", "P29_002": "A203350700023", "P29_003": "16013", "P29_004": "種市こども園", "P29_005": "岩手県九戸郡洋野町種市17-12-1", "P29_006": "4", "P29_007": "0", "P29_008": "00", "P29_009": null }, "geometry": { "type": "Point", "coordinates": [ 141.718493504684517, 40.398884823657937 ] } }
]
}
