{
"type": "FeatureCollection",
"name": "geo_03_訪問看護",
"crs": { "type": "name", "properties": { "name": "urn:ogc:def:crs:OGC:1.3:CRS84" } },
"features": [
{ "type": "Feature", "properties": { "内容": "医療法人　遠山病院【訪問看護】岩手県盛岡市下ノ橋町6-14", "url": "https://www.kaigokensaku.mhlw.go.jp/03/index.php?action_kouhyou_detail_004_kani=true&JigyosyoCd=0310110309-00&ServiceCd=130&Type=search", "url2": "http://www.toyama-byouin.jp" }, "geometry": { "type": "Point", "coordinates": [ 141.14885670000001, 39.6970506 ] } },
{ "type": "Feature", "properties": { "内容": "一般財団法人　岩手済生会ころの訪問看護ステーション三田【訪問看護】岩手県盛岡市加賀野3丁目14番1号", "url": "https://www.kaigokensaku.mhlw.go.jp/03/index.php?action_kouhyou_detail_004_kani=true&JigyosyoCd=0360190425-00&ServiceCd=130&Type=search", "url2": "http://www.hoyoin.jp/kokoro/" }, "geometry": { "type": "Point", "coordinates": [ 141.169324, 39.7077583 ] } },
{ "type": "Feature", "properties": { "内容": "観山荘訪問看護ステーション【訪問看護】岩手県盛岡市高松４丁目２０－４３ソーシャルケアセンター２Ｆ", "url": "https://www.kaigokensaku.mhlw.go.jp/03/index.php?action_kouhyou_detail_004_kani=true&JigyosyoCd=0360190458-00&ServiceCd=130&Type=search", "url2": "https://morioka-kanzanso.jp/station/" }, "geometry": { "type": "Point", "coordinates": [ 141.135622712303189, 39.731374093947714 ] } },
{ "type": "Feature", "properties": { "内容": "訪問看護ステーション　せいわ【訪問看護】岩手県盛岡市手代森９地割70番地1", "url": "https://www.kaigokensaku.mhlw.go.jp/03/index.php?action_kouhyou_detail_004_kani=true&JigyosyoCd=0370103608-00&ServiceCd=130&Type=search", "url2": "http://www.i-seiwa.com/" }, "geometry": { "type": "Point", "coordinates": [ 141.184935399999972, 39.6591636 ] } },
{ "type": "Feature", "properties": { "内容": "訪問看護ステーションみなみちゃんち渋民【訪問看護】岩手県盛岡市渋民字渋民７７－２", "url": "https://www.kaigokensaku.mhlw.go.jp/03/index.php?action_kouhyou_detail_004_kani=true&JigyosyoCd=0360190615-00&ServiceCd=130&Type=search", "url2": null }, "geometry": { "type": "Point", "coordinates": [ 141.173403900000011, 39.8456453 ] } },
{ "type": "Feature", "properties": { "内容": "escort訪問看護ステーション【訪問看護】岩手県盛岡市みたけ２丁目10番70号ナーシングホームもりおか内", "url": "https://www.kaigokensaku.mhlw.go.jp/03/index.php?action_kouhyou_detail_004_kani=true&JigyosyoCd=0360190623-00&ServiceCd=130&Type=search", "url2": "http://life-escort.com/" }, "geometry": { "type": "Point", "coordinates": [ 141.127727, 39.7441127 ] } },
{ "type": "Feature", "properties": { "内容": "ソルド訪問看護ステーション【訪問看護】岩手県盛岡市内丸１番６号", "url": "https://www.kaigokensaku.mhlw.go.jp/03/index.php?action_kouhyou_detail_004_kani=true&JigyosyoCd=0370107963-00&ServiceCd=130&Type=search", "url2": "http://www.aromasold.com/" }, "geometry": { "type": "Point", "coordinates": [ 141.14907, 39.6993011 ] } },
{ "type": "Feature", "properties": { "内容": "訪問看護架け橋【訪問看護】岩手県盛岡市向中野二丁目２０番２号", "url": "https://www.kaigokensaku.mhlw.go.jp/03/index.php?action_kouhyou_detail_004_kani=true&JigyosyoCd=0360190755-00&ServiceCd=130&Type=search", "url2": "https://morioka-kakehashi.com" }, "geometry": { "type": "Point", "coordinates": [ 141.1371417, 39.6845727 ] } },
{ "type": "Feature", "properties": { "内容": "医心館訪問看護ステーション盛岡【訪問看護】岩手県盛岡市本宮６丁目1-25", "url": "https://www.kaigokensaku.mhlw.go.jp/03/index.php?action_kouhyou_detail_004_kani=true&JigyosyoCd=0360190342-00&ServiceCd=130&Type=search", "url2": null }, "geometry": { "type": "Point", "coordinates": [ 141.125278500000036, 39.6873122 ] } },
{ "type": "Feature", "properties": { "内容": "メディコート訪問看護事業所【訪問看護】岩手県盛岡市上堂三丁目16番32号　２階", "url": "https://www.kaigokensaku.mhlw.go.jp/03/index.php?action_kouhyou_detail_004_kani=true&JigyosyoCd=0360190649-00&ServiceCd=130&Type=search", "url2": null }, "geometry": { "type": "Point", "coordinates": [ 141.1287633, 39.7287371 ] } },
{ "type": "Feature", "properties": { "内容": "ブライトステージ【訪問看護】岩手県盛岡市肴町3-18", "url": "https://www.kaigokensaku.mhlw.go.jp/03/index.php?action_kouhyou_detail_004_kani=true&JigyosyoCd=0370103277-00&ServiceCd=130&Type=search", "url2": "http://www.brightstage.co.jp/index.html" }, "geometry": { "type": "Point", "coordinates": [ 141.1541024351597, 39.699400454833885 ] } },
{ "type": "Feature", "properties": { "内容": "訪問看護事業所ななかまど【訪問看護】岩手県盛岡市津志田町3丁目6-15", "url": "https://www.kaigokensaku.mhlw.go.jp/03/index.php?action_kouhyou_detail_004_kani=true&JigyosyoCd=0370107898-00&ServiceCd=130&Type=search", "url2": "http://www.kouwa.iwate.jp" }, "geometry": { "type": "Point", "coordinates": [ 141.152218800000014, 39.6651036 ] } },
{ "type": "Feature", "properties": { "内容": "訪問看護ステーション・アイ【訪問看護】岩手県盛岡市北山1丁目5番33号", "url": "https://www.kaigokensaku.mhlw.go.jp/03/index.php?action_kouhyou_detail_004_kani=true&JigyosyoCd=0370105579-00&ServiceCd=130&Type=search", "url2": null }, "geometry": { "type": "Point", "coordinates": [ 141.152038377909861, 39.71300953722524 ] } },
{ "type": "Feature", "properties": { "内容": "盛岡市医師会訪問看護ステーション【訪問看護】岩手県盛岡市愛宕町18番6号", "url": "https://www.kaigokensaku.mhlw.go.jp/03/index.php?action_kouhyou_detail_004_kani=true&JigyosyoCd=0360190011-00&ServiceCd=130&Type=search", "url2": "https://morioka-med.or.jp/hp-station" }, "geometry": { "type": "Point", "coordinates": [ 141.157680264417991, 39.710540328038206 ] } },
{ "type": "Feature", "properties": { "内容": "訪問看護ステーションゆうあい【訪問看護】岩手県盛岡市永井12地割10番地", "url": "https://www.kaigokensaku.mhlw.go.jp/03/index.php?action_kouhyou_detail_004_kani=true&JigyosyoCd=0360190078-00&ServiceCd=130&Type=search", "url2": "https://www.yu-ai-hp.net" }, "geometry": { "type": "Point", "coordinates": [ 141.137227582892848, 39.658515853264277 ] } },
{ "type": "Feature", "properties": { "内容": "訪問看護ステーションさつき【訪問看護】岩手県盛岡市北飯岡二丁目16番73号", "url": "https://www.kaigokensaku.mhlw.go.jp/03/index.php?action_kouhyou_detail_004_kani=true&JigyosyoCd=0360190540-00&ServiceCd=130&Type=search", "url2": null }, "geometry": { "type": "Point", "coordinates": [ 141.132300338742112, 39.674064551982234 ] } },
{ "type": "Feature", "properties": { "内容": "訪問看護ステーションベル【訪問看護】岩手県盛岡市本宮1丁目15-8盛岸ビル91　201号", "url": "https://www.kaigokensaku.mhlw.go.jp/03/index.php?action_kouhyou_detail_004_kani=true&JigyosyoCd=0360190680-00&ServiceCd=130&Type=search", "url2": "https://www.bell923sh.co.jp/" }, "geometry": { "type": "Point", "coordinates": [ 141.1408797, 39.6895657 ] } },
{ "type": "Feature", "properties": { "内容": "訪問看護ステーションはなえみ【訪問看護】岩手県盛岡市永井23地割22番地1", "url": "https://www.kaigokensaku.mhlw.go.jp/03/index.php?action_kouhyou_detail_004_kani=true&JigyosyoCd=0360190565-00&ServiceCd=130&Type=search", "url2": "https://kango-hanaemi.com" }, "geometry": { "type": "Point", "coordinates": [ 141.153417847221363, 39.653642640645799 ] } },
{ "type": "Feature", "properties": { "内容": "盛岡南病院訪問看護ステーション【訪問看護】岩手県盛岡市津志田13地割18-4", "url": "https://www.kaigokensaku.mhlw.go.jp/03/index.php?action_kouhyou_detail_004_kani=true&JigyosyoCd=0360190656-00&ServiceCd=130&Type=search", "url2": null }, "geometry": { "type": "Point", "coordinates": [ 141.156095599999986, 39.6564836 ] } },
{ "type": "Feature", "properties": { "内容": "訪問看護ステーションヴェンティ【訪問看護】岩手県盛岡市青山４丁目２７番４号青山テナントビルB号", "url": "https://www.kaigokensaku.mhlw.go.jp/03/index.php?action_kouhyou_detail_004_kani=true&JigyosyoCd=0360190664-00&ServiceCd=130&Type=search", "url2": null }, "geometry": { "type": "Point", "coordinates": [ 141.1148982, 39.7312285 ] } },
{ "type": "Feature", "properties": { "内容": "訪問看護ステーション悠ライフ盛岡【訪問看護】岩手県盛岡市高松4丁目19-19", "url": "https://www.kaigokensaku.mhlw.go.jp/03/index.php?action_kouhyou_detail_004_kani=true&JigyosyoCd=0360190748-00&ServiceCd=130&Type=search", "url2": "https://www.kind-life-japan.com/" }, "geometry": { "type": "Point", "coordinates": [ 141.136578, 39.7313316 ] } },
{ "type": "Feature", "properties": { "内容": "八角病院訪問看護ステーション【訪問看護】岩手県盛岡市好摩字夏間木７０－１９０", "url": "https://www.kaigokensaku.mhlw.go.jp/03/index.php?action_kouhyou_detail_004_kani=true&JigyosyoCd=0362190001-00&ServiceCd=130&Type=search", "url2": "http://www.nisshindo-g.com/" }, "geometry": { "type": "Point", "coordinates": [ 141.166338699999983, 39.8752669 ] } },
{ "type": "Feature", "properties": { "内容": "ほうもんかんごイスト盛岡【訪問看護】岩手県盛岡市馬場町3番36号", "url": "https://www.kaigokensaku.mhlw.go.jp/03/index.php?action_kouhyou_detail_004_kani=true&JigyosyoCd=0370103103-00&ServiceCd=130&Type=search", "url2": null }, "geometry": { "type": "Point", "coordinates": [ 141.147187719394594, 39.696887321727566 ] } },
{ "type": "Feature", "properties": { "内容": "訪問看護ステーションにぎ和い上田【訪問看護】岩手県盛岡市上田3丁目11-29メゾンヒラノ101", "url": "https://www.kaigokensaku.mhlw.go.jp/03/index.php?action_kouhyou_detail_004_kani=true&JigyosyoCd=0370107914-00&ServiceCd=130&Type=search", "url2": "https://sozonigiwai.wixsite.com/omotenashi/about-3" }, "geometry": { "type": "Point", "coordinates": [ 141.138374700000014, 39.7177375 ] } },
{ "type": "Feature", "properties": { "内容": "愛ケアセンター訪問看護ステーション【訪問看護】岩手県盛岡市三本柳7地割29番地13ヘラインビル１C", "url": "https://www.kaigokensaku.mhlw.go.jp/03/index.php?action_kouhyou_detail_004_kani=true&JigyosyoCd=0360190557-00&ServiceCd=130&Type=search", "url2": "https://www.icare-center.net" }, "geometry": { "type": "Point", "coordinates": [ 141.1655155, 39.6596404 ] } },
{ "type": "Feature", "properties": { "内容": "盛岡医療生活協同組合訪問看護ステーション・かわくぼ【訪問看護】岩手県盛岡市津志田26地割30番地１", "url": "https://www.kaigokensaku.mhlw.go.jp/03/index.php?action_kouhyou_detail_004_kani=true&JigyosyoCd=0360190037-00&ServiceCd=130&Type=search", "url2": "http://morioka-hidamari.com/" }, "geometry": { "type": "Point", "coordinates": [ 141.156487299999981, 39.6723621 ] } },
{ "type": "Feature", "properties": { "内容": "指定訪問看護ステーションまつぞの【訪問看護】岩手県盛岡市西松園三丁目21番10号", "url": "https://www.kaigokensaku.mhlw.go.jp/03/index.php?action_kouhyou_detail_004_kani=true&JigyosyoCd=0360190102-00&ServiceCd=130&Type=search", "url2": "http:/www.matsuzono.jp" }, "geometry": { "type": "Point", "coordinates": [ 141.162310160118864, 39.756414521205215 ] } },
{ "type": "Feature", "properties": { "内容": "訪問看護ステーションまごころ【訪問看護】岩手県盛岡市三ツ割４丁目４－４３", "url": "https://www.kaigokensaku.mhlw.go.jp/03/index.php?action_kouhyou_detail_004_kani=true&JigyosyoCd=0360190169-00&ServiceCd=130&Type=search", "url2": "https://www.pn-magokoro.net/" }, "geometry": { "type": "Point", "coordinates": [ 141.160748888121816, 39.728926377883688 ] } },
{ "type": "Feature", "properties": { "内容": "シーキューブ訪問看護リハビリステーション【訪問看護】岩手県盛岡市北飯岡2丁目21-18", "url": "https://www.kaigokensaku.mhlw.go.jp/03/index.php?action_kouhyou_detail_004_kani=true&JigyosyoCd=0360190292-00&ServiceCd=130&Type=search", "url2": "http://www.ccube-station.com/" }, "geometry": { "type": "Point", "coordinates": [ 141.130356184159268, 39.673869470296616 ] } },
{ "type": "Feature", "properties": { "内容": "訪問看護ステーションらら【訪問看護】岩手県盛岡市永井11地割23番地", "url": "https://www.kaigokensaku.mhlw.go.jp/03/index.php?action_kouhyou_detail_004_kani=true&JigyosyoCd=0360190318-00&ServiceCd=130&Type=search", "url2": null }, "geometry": { "type": "Point", "coordinates": [ 141.139498284569839, 39.655524084271811 ] } },
{ "type": "Feature", "properties": { "内容": "一般財団法人岩手済生医会訪問看護ステーションなかつがわ【訪問看護】岩手県盛岡市下米内二丁目4番12号中津川病院　2階", "url": "https://www.kaigokensaku.mhlw.go.jp/03/index.php?action_kouhyou_detail_004_kani=true&JigyosyoCd=0360190417-00&ServiceCd=130&Type=search", "url2": "http://www.iwate-nakatugawa-hp.jp/" }, "geometry": { "type": "Point", "coordinates": [ 141.176075800000035, 39.7180628 ] } },
{ "type": "Feature", "properties": { "内容": "訪問看護事業所ほのぼの【訪問看護】岩手県盛岡市湯沢東３丁目17番13号", "url": "https://www.kaigokensaku.mhlw.go.jp/03/index.php?action_kouhyou_detail_004_kani=true&JigyosyoCd=0360190441-00&ServiceCd=130&Type=search", "url2": null }, "geometry": { "type": "Point", "coordinates": [ 141.101052940538182, 39.639952043586135 ] } },
{ "type": "Feature", "properties": { "内容": "訪問看護リーフ【訪問看護】岩手県盛岡市小杉山11-5-2Ｆ", "url": "https://www.kaigokensaku.mhlw.go.jp/03/index.php?action_kouhyou_detail_004_kani=true&JigyosyoCd=0360190508-00&ServiceCd=130&Type=search", "url2": null }, "geometry": { "type": "Point", "coordinates": [ 141.168916599999989, 39.6997476 ] } },
{ "type": "Feature", "properties": { "内容": "ツクイ盛岡訪問看護ステーション【訪問看護】岩手県盛岡市中央通2丁目2番5号甲南アセット盛岡ビル205", "url": "https://www.kaigokensaku.mhlw.go.jp/03/index.php?action_kouhyou_detail_004_kani=true&JigyosyoCd=0360190672-00&ServiceCd=130&Type=search", "url2": "https://www.tsukui.net/" }, "geometry": { "type": "Point", "coordinates": [ 141.1462746, 39.704913 ] } },
{ "type": "Feature", "properties": { "内容": "ジェイナース盛南訪問看護ステーション【訪問看護】岩手県盛岡市津志田町2丁目5-5クリオールⅠ201号", "url": "https://www.kaigokensaku.mhlw.go.jp/03/index.php?action_kouhyou_detail_004_kani=true&JigyosyoCd=0360190763-00&ServiceCd=130&Type=search", "url2": "https://www.j-ns-llc.net/station.html" }, "geometry": { "type": "Point", "coordinates": [ 141.1546806, 39.6656701 ] } },
{ "type": "Feature", "properties": { "内容": "プレーゴ訪問看護ステーション【訪問看護】岩手県盛岡市本宮3丁目9番地2号", "url": "https://www.kaigokensaku.mhlw.go.jp/03/index.php?action_kouhyou_detail_004_kani=true&JigyosyoCd=0360190771-00&ServiceCd=130&Type=search", "url2": "https://genkinakaigo.co.jp/" }, "geometry": { "type": "Point", "coordinates": [ 141.133398800000037, 39.6931998 ] } },
{ "type": "Feature", "properties": { "内容": "たぐち訪問看護ステーション【訪問看護】岩手県盛岡市本町通1丁目3番6号", "url": "https://www.kaigokensaku.mhlw.go.jp/03/index.php?action_kouhyou_detail_004_kani=true&JigyosyoCd=0360100010-00&ServiceCd=130&Type=search", "url2": null }, "geometry": { "type": "Point", "coordinates": [ 141.15658069999995, 39.706708 ] } },
{ "type": "Feature", "properties": { "内容": "指定訪問看護ステーション盛岡つなぎ温泉病院メディケアプラザ【訪問看護】岩手県盛岡市繋字尾入野64-9", "url": "https://www.kaigokensaku.mhlw.go.jp/03/index.php?action_kouhyou_detail_004_kani=true&JigyosyoCd=0360190136-00&ServiceCd=130&Type=search", "url2": "http://tsunagi-hp.net/" }, "geometry": { "type": "Point", "coordinates": [ 141.023567599999978, 39.6895172 ] } },
{ "type": "Feature", "properties": { "内容": "訪問看護ステーション虹ノ橋【訪問看護】岩手県盛岡市下ノ橋町6-14医療法人遠山病院内", "url": "https://www.kaigokensaku.mhlw.go.jp/03/index.php?action_kouhyou_detail_004_kani=true&JigyosyoCd=0360190250-00&ServiceCd=130&Type=search", "url2": null }, "geometry": { "type": "Point", "coordinates": [ 141.148960616007997, 39.697130153446402 ] } },
{ "type": "Feature", "properties": { "内容": "ジェイナース訪問看護ステーション【訪問看護】岩手県盛岡市みたけ三丁目23-3スペースMYA2階", "url": "https://www.kaigokensaku.mhlw.go.jp/03/index.php?action_kouhyou_detail_004_kani=true&JigyosyoCd=0360190524-00&ServiceCd=130&Type=search", "url2": "https://www.j-ns-llc.net/station.html" }, "geometry": { "type": "Point", "coordinates": [ 141.1149957, 39.7394023 ] } },
{ "type": "Feature", "properties": { "内容": "内丸病院訪問看護ステーション【訪問看護】岩手県盛岡市本町通一丁目6番3号本町通桜苑ビル101号", "url": "https://www.kaigokensaku.mhlw.go.jp/03/index.php?action_kouhyou_detail_004_kani=true&JigyosyoCd=0360190573-00&ServiceCd=130&Type=search", "url2": "http://www.uchimaru-hospital.jp/" }, "geometry": { "type": "Point", "coordinates": [ 141.1559162, 39.7067712 ] } },
{ "type": "Feature", "properties": { "内容": "訪問看護ステーション晴れ【訪問看護】岩手県盛岡市門一丁目18-17", "url": "https://www.kaigokensaku.mhlw.go.jp/03/index.php?action_kouhyou_detail_004_kani=true&JigyosyoCd=0370107997-00&ServiceCd=130&Type=search", "url2": null }, "geometry": { "type": "Point", "coordinates": [ 141.170236242327917, 39.66926758123757 ] } },
{ "type": "Feature", "properties": { "内容": "訪問看護ステーションデューン盛岡【訪問看護】岩手県盛岡市盛岡駅西通1-27-65Mシティ杜の大橋101号", "url": "https://www.kaigokensaku.mhlw.go.jp/03/index.php?action_kouhyou_detail_004_kani=true&JigyosyoCd=0360190268-00&ServiceCd=130&Type=search", "url2": "https://www.nfield.co.jp/" }, "geometry": { "type": "Point", "coordinates": [ 141.129975, 39.7003385 ] } },
{ "type": "Feature", "properties": { "内容": "社団医療法人啓愛会訪問看護ステーションこうじん【訪問看護】岩手県盛岡市中太田泉田28番地", "url": "https://www.kaigokensaku.mhlw.go.jp/03/index.php?action_kouhyou_detail_004_kani=true&JigyosyoCd=0360190466-00&ServiceCd=130&Type=search", "url2": "http://www.kojin-hp.jp/" }, "geometry": { "type": "Point", "coordinates": [ 141.1103627, 39.7007063 ] } },
{ "type": "Feature", "properties": { "内容": "訪問看護ステーションサキアイ【訪問看護】岩手県盛岡市本町通３丁目3-21", "url": "https://www.kaigokensaku.mhlw.go.jp/03/index.php?action_kouhyou_detail_004_kani=true&JigyosyoCd=0360190607-00&ServiceCd=130&Type=search", "url2": "https://sakiai.jpn.com" }, "geometry": { "type": "Point", "coordinates": [ 141.1458699, 39.7074162 ] } },
{ "type": "Feature", "properties": { "内容": "訪問看護ステーションさらん【訪問看護】岩手県盛岡市上堂3丁目17-40D号室", "url": "https://www.kaigokensaku.mhlw.go.jp/03/index.php?action_kouhyou_detail_004_kani=true&JigyosyoCd=0360190706-00&ServiceCd=130&Type=search", "url2": "https://houkan-saran.com" }, "geometry": { "type": "Point", "coordinates": [ 141.1282889, 39.7286879 ] } },
{ "type": "Feature", "properties": { "内容": "訪問看護ブランチ【訪問看護】岩手県盛岡市仙北2丁目1-20", "url": "https://www.kaigokensaku.mhlw.go.jp/03/index.php?action_kouhyou_detail_004_kani=true&JigyosyoCd=0370107823-00&ServiceCd=130&Type=search", "url2": null }, "geometry": { "type": "Point", "coordinates": [ 141.1492275, 39.6869166 ] } },
{ "type": "Feature", "properties": { "内容": "訪問看護ステーションねこのて【訪問看護】岩手県盛岡市中堤町30番42号", "url": "https://www.kaigokensaku.mhlw.go.jp/03/index.php?action_kouhyou_detail_004_kani=true&JigyosyoCd=0360190698-00&ServiceCd=130&Type=search", "url2": null }, "geometry": { "type": "Point", "coordinates": [ 141.1044339, 39.720997 ] } },
{ "type": "Feature", "properties": { "内容": "ファミリーナース盛岡【訪問看護】岩手県盛岡市永井16-87", "url": "https://www.kaigokensaku.mhlw.go.jp/03/index.php?action_kouhyou_detail_004_kani=true&JigyosyoCd=0360190714-00&ServiceCd=130&Type=search", "url2": null }, "geometry": { "type": "Point", "coordinates": [ 141.145027, 39.6522767 ] } },
{ "type": "Feature", "properties": { "内容": "訪問看護ステーションみそら宮古【訪問看護】岩手県宮古市大通２丁目2-24MamBird店舗C", "url": "https://www.kaigokensaku.mhlw.go.jp/03/index.php?action_kouhyou_detail_004_kani=true&JigyosyoCd=0360290076-00&ServiceCd=130&Type=search", "url2": "https://www.ichikara-misora.co.jp/" }, "geometry": { "type": "Point", "coordinates": [ 141.952768, 39.6407857 ] } },
{ "type": "Feature", "properties": { "内容": "訪問看護ステーションかがやきナースケア【訪問看護】岩手県宮古市磯鶏西6番14号", "url": "https://www.kaigokensaku.mhlw.go.jp/03/index.php?action_kouhyou_detail_004_kani=true&JigyosyoCd=0360290035-00&ServiceCd=130&Type=search", "url2": "http://www.riasbb.net/~kagayakilife/" }, "geometry": { "type": "Point", "coordinates": [ 141.960297800000035, 39.6300994 ] } },
{ "type": "Feature", "properties": { "内容": "訪問看護ステーションメディケア【訪問看護】岩手県宮古市崎鍬ヶ崎第1地割字寒風11番地２６", "url": "https://www.kaigokensaku.mhlw.go.jp/03/index.php?action_kouhyou_detail_004_kani=true&JigyosyoCd=0370200537-00&ServiceCd=130&Type=search", "url2": null }, "geometry": { "type": "Point", "coordinates": [ 141.959786399999984, 39.6678225 ] } },
{ "type": "Feature", "properties": { "内容": "咲希訪問看護ステーション【訪問看護】岩手県宮古市保久田3-46", "url": "https://www.kaigokensaku.mhlw.go.jp/03/index.php?action_kouhyou_detail_004_kani=true&JigyosyoCd=0370200990-00&ServiceCd=130&Type=search", "url2": "http://sakihoukan.co.jp" }, "geometry": { "type": "Point", "coordinates": [ 141.949316400606619, 39.642892844623297 ] } },
{ "type": "Feature", "properties": { "内容": "訪問看護ステーションほほえみ【訪問看護】岩手県宮古市崎鍬ヶ崎第９地割３９番地２７介護老人保健施設ほほえみの里", "url": "https://www.kaigokensaku.mhlw.go.jp/03/index.php?action_kouhyou_detail_004_kani=true&JigyosyoCd=0360290043-00&ServiceCd=130&Type=search", "url2": "http://www.hohoeminosato.jp/" }, "geometry": { "type": "Point", "coordinates": [ 141.957528300000035, 39.6683752 ] } },
{ "type": "Feature", "properties": { "内容": "宮古山口訪問看護ステーション【訪問看護】岩手県宮古市山口五丁目3番20号", "url": "https://www.kaigokensaku.mhlw.go.jp/03/index.php?action_kouhyou_detail_004_kani=true&JigyosyoCd=0360290001-00&ServiceCd=130&Type=search", "url2": "http://www.shinwa-kai.jp/" }, "geometry": { "type": "Point", "coordinates": [ 141.9322168, 39.6557372 ] } },
{ "type": "Feature", "properties": { "内容": "宮古・山田訪問看護ステーションゆずる【訪問看護】岩手県宮古市実田1丁目3番37号", "url": "https://www.kaigokensaku.mhlw.go.jp/03/index.php?action_kouhyou_detail_004_kani=true&JigyosyoCd=0360290068-00&ServiceCd=130&Type=search", "url2": "http://www.hvrpf.jp/" }, "geometry": { "type": "Point", "coordinates": [ 141.958662299999986, 39.6257178 ] } },
{ "type": "Feature", "properties": { "内容": "気仙訪問看護ステーション【訪問看護】岩手県大船渡市大船渡町字山馬越188番地", "url": "https://www.kaigokensaku.mhlw.go.jp/03/index.php?action_kouhyou_detail_004_kani=true&JigyosyoCd=0360390009-00&ServiceCd=130&Type=search", "url2": "http://www.shokyukai.or.jp" }, "geometry": { "type": "Point", "coordinates": [ 141.710399, 39.0715906 ] } },
{ "type": "Feature", "properties": { "内容": "SOMPOケア大船渡訪問看護【訪問看護】岩手県大船渡市盛町字みどり町8-13", "url": "https://www.kaigokensaku.mhlw.go.jp/03/index.php?action_kouhyou_detail_004_kani=true&JigyosyoCd=0360390025-00&ServiceCd=130&Type=search", "url2": "https://www.sompocare.com" }, "geometry": { "type": "Point", "coordinates": [ 141.712174, 39.0845009 ] } },
{ "type": "Feature", "properties": { "内容": "訪問看護ステーション花笑み【訪問看護】岩手県大船渡市盛町字町9番地19", "url": "https://www.kaigokensaku.mhlw.go.jp/03/index.php?action_kouhyou_detail_004_kani=true&JigyosyoCd=0360390033-00&ServiceCd=130&Type=search", "url2": "https://hanaemi0203.wixsite.com/mysite-1" }, "geometry": { "type": "Point", "coordinates": [ 141.709866200108337, 39.086256988813993 ] } },
{ "type": "Feature", "properties": { "内容": "独立行政法人国立病院機構花巻病院　訪問看護ステーション　ともに【訪問看護】岩手県花巻市諏訪５００番地", "url": "https://www.kaigokensaku.mhlw.go.jp/03/index.php?action_kouhyou_detail_004_kani=true&JigyosyoCd=0370501892-00&ServiceCd=130&Type=search", "url2": null }, "geometry": { "type": "Point", "coordinates": [ 141.105872383919774, 39.368543344276631 ] } },
{ "type": "Feature", "properties": { "内容": "訪問看護ステーションはちどり【訪問看護】岩手県花巻市大通り二丁目１-１７", "url": "https://www.kaigokensaku.mhlw.go.jp/03/index.php?action_kouhyou_detail_004_kani=true&JigyosyoCd=0370501975-00&ServiceCd=130&Type=search", "url2": null }, "geometry": { "type": "Point", "coordinates": [ 141.113165365081784, 39.389312921312722 ] } },
{ "type": "Feature", "properties": { "内容": "総合花巻病院訪問看護ステーション【訪問看護】岩手県花巻市御田屋町4番56号", "url": "https://www.kaigokensaku.mhlw.go.jp/03/index.php?action_kouhyou_detail_004_kani=true&JigyosyoCd=0360590046-00&ServiceCd=130&Type=search", "url2": "http://www.hanamakihospital.or.jp" }, "geometry": { "type": "Point", "coordinates": [ 141.1231608, 39.3853839 ] } },
{ "type": "Feature", "properties": { "内容": "くくる花巻訪問看護ステーション【訪問看護】岩手県花巻市野田351番地1", "url": "https://www.kaigokensaku.mhlw.go.jp/03/index.php?action_kouhyou_detail_004_kani=true&JigyosyoCd=0360590038-00&ServiceCd=130&Type=search", "url2": "http://www.kukuruhanamaki.com/" }, "geometry": { "type": "Point", "coordinates": [ 141.098582562131156, 39.399257621182997 ] } },
{ "type": "Feature", "properties": { "内容": "ゆう訪問看護ステーション【訪問看護】岩手県花巻市二枚橋町北１丁目１３番地", "url": "https://www.kaigokensaku.mhlw.go.jp/03/index.php?action_kouhyou_detail_004_kani=true&JigyosyoCd=0370502031-00&ServiceCd=130&Type=search", "url2": "http://u-houkan.video-c.jp" }, "geometry": { "type": "Point", "coordinates": [ 141.1294339, 39.4445135 ] } },
{ "type": "Feature", "properties": { "内容": "ゆかわ脳外科訪問看護ステーション愛【訪問看護】岩手県花巻市西大通り2丁目2-10", "url": "https://www.kaigokensaku.mhlw.go.jp/03/index.php?action_kouhyou_detail_004_kani=true&JigyosyoCd=0370500555-00&ServiceCd=130&Type=search", "url2": "https://yukawa-nougeka.jp" }, "geometry": { "type": "Point", "coordinates": [ 141.105724199999941, 39.3915806 ] } },
{ "type": "Feature", "properties": { "内容": "医療法人優親会　及川放射線科内科医院【訪問看護】岩手県北上市立花１０地割２８番地１", "url": "https://www.kaigokensaku.mhlw.go.jp/03/index.php?action_kouhyou_detail_004_kani=true&JigyosyoCd=0310611215-00&ServiceCd=130&Type=search", "url2": null }, "geometry": { "type": "Point", "coordinates": [ 141.132803100000046, 39.2821267 ] } },
{ "type": "Feature", "properties": { "内容": "医心館訪問看護ステーション北上【訪問看護】岩手県北上市さくら通り５丁目14番１０号", "url": "https://www.kaigokensaku.mhlw.go.jp/03/index.php?action_kouhyou_detail_004_kani=true&JigyosyoCd=0370601700-00&ServiceCd=130&Type=search", "url2": null }, "geometry": { "type": "Point", "coordinates": [ 141.110321099999965, 39.3023034 ] } },
{ "type": "Feature", "properties": { "内容": "SOMPOケア北上訪問看護【訪問看護】岩手県北上市さくら通り四丁目14-17", "url": "https://www.kaigokensaku.mhlw.go.jp/03/index.php?action_kouhyou_detail_004_kani=true&JigyosyoCd=0370601783-00&ServiceCd=130&Type=search", "url2": "https://www.sompocare.com/" }, "geometry": { "type": "Point", "coordinates": [ 141.1142308, 39.299277 ] } },
{ "type": "Feature", "properties": { "内容": "訪問看護ステーション北上済生会【訪問看護】岩手県北上市九年橋三丁目15番33号", "url": "https://www.kaigokensaku.mhlw.go.jp/03/index.php?action_kouhyou_detail_004_kani=true&JigyosyoCd=0370601593-00&ServiceCd=130&Type=search", "url2": "https://www.saiseikai-hp.or.jp/" }, "geometry": { "type": "Point", "coordinates": [ 141.10800050966759, 39.284908099034645 ] } },
{ "type": "Feature", "properties": { "内容": "訪問看護ステーションあゆみ【訪問看護】岩手県北上市さくら通り4丁目１－３５", "url": "https://www.kaigokensaku.mhlw.go.jp/03/index.php?action_kouhyou_detail_004_kani=true&JigyosyoCd=0360690077-00&ServiceCd=130&Type=search", "url2": "https://k-ayumi9.wixsite.com/mysite" }, "geometry": { "type": "Point", "coordinates": [ 141.112348900000029, 39.2993576 ] } },
{ "type": "Feature", "properties": { "内容": "ハートケアステーション絆【訪問看護】岩手県北上市口内町森212", "url": "https://www.kaigokensaku.mhlw.go.jp/03/index.php?action_kouhyou_detail_004_kani=true&JigyosyoCd=0370601296-00&ServiceCd=130&Type=search", "url2": "https://kizuna-planet.jp/" }, "geometry": { "type": "Point", "coordinates": [ 141.193969599999946, 39.3105029 ] } },
{ "type": "Feature", "properties": { "内容": "訪問看護事業所きたかみ【訪問看護】岩手県北上市鬼柳町荒高３７番地１有料老人ホームきたかみ", "url": "https://www.kaigokensaku.mhlw.go.jp/03/index.php?action_kouhyou_detail_004_kani=true&JigyosyoCd=0370601668-00&ServiceCd=130&Type=search", "url2": "https://bear-rise.deci.jp" }, "geometry": { "type": "Point", "coordinates": [ 141.101910882539357, 39.273812054645269 ] } },
{ "type": "Feature", "properties": { "内容": "グッドタイム訪問看護ステーション・岩手【訪問看護】岩手県北上市村崎野15地割278", "url": "https://www.kaigokensaku.mhlw.go.jp/03/index.php?action_kouhyou_detail_004_kani=true&JigyosyoCd=0370601734-00&ServiceCd=130&Type=search", "url2": null }, "geometry": { "type": "Point", "coordinates": [ 141.113539300000014, 39.3237235 ] } },
{ "type": "Feature", "properties": { "内容": "医療法人彩桜会さくらPORT訪問看護ステーション【訪問看護】岩手県北上市川岸1丁目1番20号さくらPORTオフィス　1F", "url": "https://www.kaigokensaku.mhlw.go.jp/03/index.php?action_kouhyou_detail_004_kani=true&JigyosyoCd=0370601825-00&ServiceCd=130&Type=search", "url2": "https://sakuraportclinic.com/houmon" }, "geometry": { "type": "Point", "coordinates": [ 141.1227365, 39.2800415 ] } },
{ "type": "Feature", "properties": { "内容": "日高見訪問看護リハビリステーション【訪問看護】岩手県北上市北鬼柳22-46", "url": "https://www.kaigokensaku.mhlw.go.jp/03/index.php?action_kouhyou_detail_004_kani=true&JigyosyoCd=0360690010-00&ServiceCd=130&Type=search", "url2": null }, "geometry": { "type": "Point", "coordinates": [ 141.095272350981531, 39.291350215153997 ] } },
{ "type": "Feature", "properties": { "内容": "あおやぎ訪問看護ステーション【訪問看護】岩手県北上市青柳町2丁目6-9", "url": "https://www.kaigokensaku.mhlw.go.jp/03/index.php?action_kouhyou_detail_004_kani=true&JigyosyoCd=0370601809-00&ServiceCd=130&Type=search", "url2": "https://keiwakai.sakura.ne.jp/keiwakai/topics/" }, "geometry": { "type": "Point", "coordinates": [ 141.1155164, 39.28458 ] } },
{ "type": "Feature", "properties": { "内容": "訪問看護ステーションデューン北上【訪問看護】岩手県北上市青柳町1丁目2番24号葵ビル2階", "url": "https://www.kaigokensaku.mhlw.go.jp/03/index.php?action_kouhyou_detail_004_kani=true&JigyosyoCd=0360690085-00&ServiceCd=130&Type=search", "url2": null }, "geometry": { "type": "Point", "coordinates": [ 141.120268099999947, 39.2846538 ] } },
{ "type": "Feature", "properties": { "内容": "リハビリタウンくじ訪問看護ステーション【訪問看護】岩手県久慈市中の橋一丁目5番地竹下医院内", "url": "https://www.kaigokensaku.mhlw.go.jp/03/index.php?action_kouhyou_detail_004_kani=true&JigyosyoCd=0350780003-00&ServiceCd=130&Type=search", "url2": "http://www.takesita-iin.com/" }, "geometry": { "type": "Point", "coordinates": [ 141.767616993840534, 40.191926060684246 ] } },
{ "type": "Feature", "properties": { "内容": "MER訪問看護ステーション【訪問看護】岩手県久慈市寺里30-79-8リバーサイドハイツ1号", "url": "https://www.kaigokensaku.mhlw.go.jp/03/index.php?action_kouhyou_detail_004_kani=true&JigyosyoCd=0370700684-00&ServiceCd=130&Type=search", "url2": "https://r.goope.jp/merhoukan-kuji/" }, "geometry": { "type": "Point", "coordinates": [ 141.748600829144266, 40.193435303920097 ] } },
{ "type": "Feature", "properties": { "内容": "訪問看護ステーションとおの【訪問看護】岩手県遠野市松崎町白岩字薬研渕１－３", "url": "https://www.kaigokensaku.mhlw.go.jp/03/index.php?action_kouhyou_detail_004_kani=true&JigyosyoCd=0360890008-00&ServiceCd=130&Type=search", "url2": "http://www.tono-shakyo.jp/" }, "geometry": { "type": "Point", "coordinates": [ 141.536671500000011, 39.3434499 ] } },
{ "type": "Feature", "properties": { "内容": "訪問看護ステーションまごころ【訪問看護】岩手県遠野市穀町１２－２５サンコーポ宮田２０３", "url": "https://www.kaigokensaku.mhlw.go.jp/03/index.php?action_kouhyou_detail_004_kani=true&JigyosyoCd=0360890016-00&ServiceCd=130&Type=search", "url2": null }, "geometry": { "type": "Point", "coordinates": [ 141.536358299999961, 39.3290711 ] } },
{ "type": "Feature", "properties": { "内容": "一関市国民健康保険室根診療所【訪問看護】岩手県一関市室根町折壁字八幡沖１１７", "url": "https://www.kaigokensaku.mhlw.go.jp/03/index.php?action_kouhyou_detail_004_kani=true&JigyosyoCd=0310911409-00&ServiceCd=130&Type=search", "url2": null }, "geometry": { "type": "Point", "coordinates": [ 141.441233199999942, 38.936239 ] } },
{ "type": "Feature", "properties": { "内容": "訪問看護ステーションケアリー岩手一関【訪問看護】岩手県一関市中里字舟場64番1", "url": "https://www.kaigokensaku.mhlw.go.jp/03/index.php?action_kouhyou_detail_004_kani=true&JigyosyoCd=0360990097-00&ServiceCd=130&Type=search", "url2": null }, "geometry": { "type": "Point", "coordinates": [ 141.1511765, 38.935986100000015 ] } },
{ "type": "Feature", "properties": { "内容": "訪問看護ステーションホスピス西城【訪問看護】岩手県一関市八幡町２番38号", "url": "https://www.kaigokensaku.mhlw.go.jp/03/index.php?action_kouhyou_detail_004_kani=true&JigyosyoCd=0360990105-00&ServiceCd=130&Type=search", "url2": null }, "geometry": { "type": "Point", "coordinates": [ 141.1331978, 38.9267753 ] } },
{ "type": "Feature", "properties": { "内容": "ケアビレッジ一関ケアサービスステーション訪問看護事業所【訪問看護】岩手県一関市赤荻字月町176番", "url": "https://www.kaigokensaku.mhlw.go.jp/03/index.php?action_kouhyou_detail_004_kani=true&JigyosyoCd=0360990071-00&ServiceCd=130&Type=search", "url2": "http://ritsuwa.com" }, "geometry": { "type": "Point", "coordinates": [ 141.103413499999988, 38.9397862 ] } },
{ "type": "Feature", "properties": { "内容": "公益社団法人岩手県看護協会立東山訪問看護ステーション【訪問看護】岩手県一関市東山町長坂字西本町58-5", "url": "https://www.kaigokensaku.mhlw.go.jp/03/index.php?action_kouhyou_detail_004_kani=true&JigyosyoCd=0362790016-00&ServiceCd=130&Type=search", "url2": "http://www.iwate-kango.or.jp/ippann01.html" }, "geometry": { "type": "Point", "coordinates": [ 141.256402500000036, 38.9983791 ] } },
{ "type": "Feature", "properties": { "内容": "公益社団法人岩手県看護協会立千厩訪問看護ステーション【訪問看護】岩手県一関市千厩町千厩字町81番地", "url": "https://www.kaigokensaku.mhlw.go.jp/03/index.php?action_kouhyou_detail_004_kani=true&JigyosyoCd=0362790024-00&ServiceCd=130&Type=search", "url2": "http://www.iwate-kango.or.jp/" }, "geometry": { "type": "Point", "coordinates": [ 141.329758199999986, 38.9171844 ] } },
{ "type": "Feature", "properties": { "内容": "花泉訪問看護ステーション【訪問看護】岩手県一関市花泉町涌津字悪法師３８－３１", "url": "https://www.kaigokensaku.mhlw.go.jp/03/index.php?action_kouhyou_detail_004_kani=true&JigyosyoCd=0362690018-00&ServiceCd=130&Type=search", "url2": null }, "geometry": { "type": "Point", "coordinates": [ 141.1909968, 38.800511 ] } },
{ "type": "Feature", "properties": { "内容": "株式会社きくちまさこ訪問看護ステーション【訪問看護】岩手県一関市千厩町奥玉字沢前17-2", "url": "https://www.kaigokensaku.mhlw.go.jp/03/index.php?action_kouhyou_detail_004_kani=true&JigyosyoCd=0370901407-00&ServiceCd=130&Type=search", "url2": "http://masakokikuchi.web.fc2.com/" }, "geometry": { "type": "Point", "coordinates": [ 141.352834, 38.9559478 ] } },
{ "type": "Feature", "properties": { "内容": "訪問看護ステーションさくら【訪問看護】岩手県一関市東山町長坂字町325番地", "url": "https://www.kaigokensaku.mhlw.go.jp/03/index.php?action_kouhyou_detail_004_kani=true&JigyosyoCd=0370901670-00&ServiceCd=130&Type=search", "url2": "https://www.akasi.info/" }, "geometry": { "type": "Point", "coordinates": [ 141.252007724606301, 38.991540745133364 ] } },
{ "type": "Feature", "properties": { "内容": "いつもの訪問看護ステーション【訪問看護】岩手県一関市新大町108番地", "url": "https://www.kaigokensaku.mhlw.go.jp/03/index.php?action_kouhyou_detail_004_kani=true&JigyosyoCd=0370901944-00&ServiceCd=130&Type=search", "url2": null }, "geometry": { "type": "Point", "coordinates": [ 141.133845799999989, 38.9241573 ] } },
{ "type": "Feature", "properties": { "内容": "一関中央訪問看護ステーションなのはな【訪問看護】岩手県一関市中央町二丁目５番１３号", "url": "https://www.kaigokensaku.mhlw.go.jp/03/index.php?action_kouhyou_detail_004_kani=true&JigyosyoCd=0360990022-00&ServiceCd=130&Type=search", "url2": "http://i3syukai.com" }, "geometry": { "type": "Point", "coordinates": [ 141.129507289024332, 38.937267728463034 ] } },
{ "type": "Feature", "properties": { "内容": "ふじさわ訪問看護ステーション【訪問看護】岩手県一関市藤沢町藤沢字町裏52番地2", "url": "https://www.kaigokensaku.mhlw.go.jp/03/index.php?action_kouhyou_detail_004_kani=true&JigyosyoCd=0360990055-00&ServiceCd=130&Type=search", "url2": "http://www.fmhe.net" }, "geometry": { "type": "Point", "coordinates": [ 141.349916900000039, 38.8586455 ] } },
{ "type": "Feature", "properties": { "内容": "訪問看護あゆみ【訪問看護】岩手県一関市滝沢字宮田118番地122", "url": "https://www.kaigokensaku.mhlw.go.jp/03/index.php?action_kouhyou_detail_004_kani=true&JigyosyoCd=0360990089-00&ServiceCd=130&Type=search", "url2": "https://www.i-ayumi.net/" }, "geometry": { "type": "Point", "coordinates": [ 141.168482294772502, 38.932019738605057 ] } },
{ "type": "Feature", "properties": { "内容": "訪問看護ステーションペルシモン【訪問看護】岩手県一関市東五代１１番－２号", "url": "https://www.kaigokensaku.mhlw.go.jp/03/index.php?action_kouhyou_detail_004_kani=true&JigyosyoCd=0370901977-00&ServiceCd=130&Type=search", "url2": null }, "geometry": { "type": "Point", "coordinates": [ 141.1318082, 38.9418238 ] } },
{ "type": "Feature", "properties": { "内容": "一関病院訪問看護ステーションわかば【訪問看護】岩手県一関市大手町3番36号", "url": "https://www.kaigokensaku.mhlw.go.jp/03/index.php?action_kouhyou_detail_004_kani=true&JigyosyoCd=0370901779-00&ServiceCd=130&Type=search", "url2": "http://www.ichi-hp.jp/" }, "geometry": { "type": "Point", "coordinates": [ 141.134611, 38.9296466 ] } },
{ "type": "Feature", "properties": { "内容": "ウィル訪問看護ステーション昭和病院【訪問看護】岩手県一関市田村町6番3号", "url": "https://www.kaigokensaku.mhlw.go.jp/03/index.php?action_kouhyou_detail_004_kani=true&JigyosyoCd=0370901936-00&ServiceCd=130&Type=search", "url2": "https://aiseikai-shp.or.jp/" }, "geometry": { "type": "Point", "coordinates": [ 141.1328138, 38.930064 ] } },
{ "type": "Feature", "properties": { "内容": "松原訪問看護ステーション【訪問看護】岩手県陸前高田市高田町字中田69-2", "url": "https://www.kaigokensaku.mhlw.go.jp/03/index.php?action_kouhyou_detail_004_kani=true&JigyosyoCd=0361090004-00&ServiceCd=130&Type=search", "url2": "http://www.shokyukai.or.jp" }, "geometry": { "type": "Point", "coordinates": [ 141.635732671163964, 39.0209961 ] } },
{ "type": "Feature", "properties": { "内容": "リハ特化型訪問看護ステーションさんぽ【訪問看護】岩手県陸前高田市高田町字館の沖303番地1アバッセタカタ専門店街", "url": "https://www.kaigokensaku.mhlw.go.jp/03/index.php?action_kouhyou_detail_004_kani=true&JigyosyoCd=0361090020-00&ServiceCd=130&Type=search", "url2": "https://lots.co.jp" }, "geometry": { "type": "Point", "coordinates": [ 141.629233155819719, 39.016987700883554 ] } },
{ "type": "Feature", "properties": { "内容": "小泉医院【訪問看護】釜石市中妻町３-６-６", "url": "https://www.kaigokensaku.mhlw.go.jp/03/index.php?action_kouhyou_detail_004_kani=true&JigyosyoCd=0311110563-00&ServiceCd=130&Type=search", "url2": null }, "geometry": { "type": "Point", "coordinates": [ 141.855916200000024, 39.2689942 ] } },
{ "type": "Feature", "properties": { "内容": "釜石ファミリークリニック【訪問看護】岩手県釜石市大渡町3-15-26釜石市保健福祉センター内", "url": "https://www.kaigokensaku.mhlw.go.jp/03/index.php?action_kouhyou_detail_004_kani=true&JigyosyoCd=0311110829-00&ServiceCd=130&Type=search", "url2": null }, "geometry": { "type": "Point", "coordinates": [ 141.878444599999966, 39.2737686 ] } },
{ "type": "Feature", "properties": { "内容": "あゆみ訪問看護ステーション【訪問看護】岩手県釜石市大町二丁目2番24号", "url": "https://www.kaigokensaku.mhlw.go.jp/03/index.php?action_kouhyou_detail_004_kani=true&JigyosyoCd=0361190010-00&ServiceCd=130&Type=search", "url2": "https://welfare-care.co.jp/" }, "geometry": { "type": "Point", "coordinates": [ 141.880891147290868, 39.273876488161847 ] } },
{ "type": "Feature", "properties": { "内容": "フジクラ訪問看護リハビリステーション【訪問看護】岩手県釜石市栗林町２２－１４－５", "url": "https://www.kaigokensaku.mhlw.go.jp/03/index.php?action_kouhyou_detail_004_kani=true&JigyosyoCd=0361190028-00&ServiceCd=130&Type=search", "url2": null }, "geometry": { "type": "Point", "coordinates": [ 141.833202699999987, 39.3424875 ] } },
{ "type": "Feature", "properties": { "内容": "二戸市国民健康保険浄法寺診療所【訪問看護】岩手県二戸市浄法寺町小池6番地1", "url": "https://www.kaigokensaku.mhlw.go.jp/03/index.php?action_kouhyou_detail_004_kani=true&JigyosyoCd=0311310262-00&ServiceCd=130&Type=search", "url2": null }, "geometry": { "type": "Point", "coordinates": [ 141.154895200000027, 40.1866496 ] } },
{ "type": "Feature", "properties": { "内容": "公益社団法人岩手県看護協会立二戸訪問看護ステーション【訪問看護】岩手県二戸市福岡字八幡下11-1", "url": "https://www.kaigokensaku.mhlw.go.jp/03/index.php?action_kouhyou_detail_004_kani=true&JigyosyoCd=0361390008-00&ServiceCd=130&Type=search", "url2": "http://www.iwate-kango.or.jp/" }, "geometry": { "type": "Point", "coordinates": [ 141.295581369229239, 40.262805887262957 ] } },
{ "type": "Feature", "properties": { "内容": "八幡平市立病院【訪問看護】岩手県八幡平市大更25-328-1", "url": "https://www.kaigokensaku.mhlw.go.jp/03/index.php?action_kouhyou_detail_004_kani=true&JigyosyoCd=0311410203-00&ServiceCd=130&Type=search", "url2": "https://www.city.hachimantai.lg.jp/site/byoin/" }, "geometry": { "type": "Point", "coordinates": [ 141.101980700000013, 39.9136606 ] } },
{ "type": "Feature", "properties": { "内容": "奥州市国民健康保険まごころ病院【訪問看護】岩手県奥州市胆沢南都田字大持40番地", "url": "https://www.kaigokensaku.mhlw.go.jp/03/index.php?action_kouhyou_detail_004_kani=true&JigyosyoCd=0311510879-00&ServiceCd=130&Type=search", "url2": "https://www.city.oshu.iwate.jp/site/magokoro/" }, "geometry": { "type": "Point", "coordinates": [ 141.067911800000047, 39.1291199 ] } },
{ "type": "Feature", "properties": { "内容": "訪問看護ゆたかな家っこ【訪問看護】岩手県奥州市胆沢若柳字下松原80番地", "url": "https://www.kaigokensaku.mhlw.go.jp/03/index.php?action_kouhyou_detail_004_kani=true&JigyosyoCd=0371500836-00&ServiceCd=130&Type=search", "url2": "http://www.yutaka-oshu.com" }, "geometry": { "type": "Point", "coordinates": [ 141.064856421812465, 39.132512642270392 ] } },
{ "type": "Feature", "properties": { "内容": "指定訪問看護ステーションさくら【訪問看護】岩手県奥州市江刺愛宕字沼ノ上３２", "url": "https://www.kaigokensaku.mhlw.go.jp/03/index.php?action_kouhyou_detail_004_kani=true&JigyosyoCd=0361590029-00&ServiceCd=130&Type=search", "url2": null }, "geometry": { "type": "Point", "coordinates": [ 141.14486009999996, 39.2006257 ] } },
{ "type": "Feature", "properties": { "内容": "清和会訪問看護ステーションひまわり【訪問看護】岩手県奥州市水沢東大通り1丁目5番30号", "url": "https://www.kaigokensaku.mhlw.go.jp/03/index.php?action_kouhyou_detail_004_kani=true&JigyosyoCd=0371501255-00&ServiceCd=130&Type=search", "url2": "https://www.seiwakai-med.or.jp/himawari" }, "geometry": { "type": "Point", "coordinates": [ 141.1482493, 39.1396494 ] } },
{ "type": "Feature", "properties": { "内容": "水沢病院訪問看護ステーションきらり【訪問看護】岩手県奥州市水沢大手町三丁目1番地奥州市総合水沢病院", "url": "https://www.kaigokensaku.mhlw.go.jp/03/index.php?action_kouhyou_detail_004_kani=true&JigyosyoCd=0371500919-00&ServiceCd=130&Type=search", "url2": "http://www.mizhsp-iwate.jp/" }, "geometry": { "type": "Point", "coordinates": [ 141.138876699999969, 39.146594400000019 ] } },
{ "type": "Feature", "properties": { "内容": "指定訪問看護ステーションたまちゃん【訪問看護】岩手県奥州市江刺岩谷堂字二本木７１－１", "url": "https://www.kaigokensaku.mhlw.go.jp/03/index.php?action_kouhyou_detail_004_kani=true&JigyosyoCd=0361290018-00&ServiceCd=130&Type=search", "url2": "https://www.ousyu-tamachan.com/" }, "geometry": { "type": "Point", "coordinates": [ 141.16880059999994, 39.1892799 ] } },
{ "type": "Feature", "properties": { "内容": "社団医療法人啓愛会東水沢訪問看護ステーション【訪問看護】岩手県奥州市水沢羽田町駅前2丁目８７-２東水沢訪問看護ステーション", "url": "https://www.kaigokensaku.mhlw.go.jp/03/index.php?action_kouhyou_detail_004_kani=true&JigyosyoCd=0371500968-00&ServiceCd=130&Type=search", "url2": "http://www.keiaikai-miyama.jp/" }, "geometry": { "type": "Point", "coordinates": [ 141.184067499999969, 39.145277 ] } },
{ "type": "Feature", "properties": { "内容": "ひたちの会虹色訪問看護ステーション【訪問看護】岩手県奥州市前沢山下２３番地５", "url": "https://www.kaigokensaku.mhlw.go.jp/03/index.php?action_kouhyou_detail_004_kani=true&JigyosyoCd=0371501263-00&ServiceCd=130&Type=search", "url2": "https://24hirainbow.com/" }, "geometry": { "type": "Point", "coordinates": [ 141.1226558, 39.0563588 ] } },
{ "type": "Feature", "properties": { "内容": "訪問看護ステーション　デューン滝沢【訪問看護】岩手県滝沢市葉の木沢山506番28葉の木沢山事務所", "url": "https://www.kaigokensaku.mhlw.go.jp/03/index.php?action_kouhyou_detail_004_kani=true&JigyosyoCd=0361690092-00&ServiceCd=130&Type=search", "url2": "https://www.nfield.co.jp/" }, "geometry": { "type": "Point", "coordinates": [ 141.1428769, 39.771884900000025 ] } },
{ "type": "Feature", "properties": { "内容": "訪問看護蕾【訪問看護】岩手県滝沢市大釜163番11ナーシングホーム夢咲", "url": "https://www.kaigokensaku.mhlw.go.jp/03/index.php?action_kouhyou_detail_004_kani=true&JigyosyoCd=0361690076-00&ServiceCd=130&Type=search", "url2": null }, "geometry": { "type": "Point", "coordinates": [ 141.0718867, 39.7115082 ] } },
{ "type": "Feature", "properties": { "内容": "サン・ケアサービスセンター訪問看護事業所【訪問看護】岩手県滝沢市鵜飼大緩47番地28", "url": "https://www.kaigokensaku.mhlw.go.jp/03/index.php?action_kouhyou_detail_004_kani=true&JigyosyoCd=0361690019-00&ServiceCd=130&Type=search", "url2": null }, "geometry": { "type": "Point", "coordinates": [ 141.094829900000036, 39.7341983 ] } },
{ "type": "Feature", "properties": { "内容": "訪問看護ステーション巣子【訪問看護】岩手県滝沢市巣子1172番地27", "url": "https://www.kaigokensaku.mhlw.go.jp/03/index.php?action_kouhyou_detail_004_kani=true&JigyosyoCd=0361690035-00&ServiceCd=130&Type=search", "url2": null }, "geometry": { "type": "Point", "coordinates": [ 141.131211568723927, 39.778688257009705 ] } },
{ "type": "Feature", "properties": { "内容": "リハヴィレッジいわて訪問看護ステーション【訪問看護】岩手県滝沢市鵜飼諸葛川１６番地１９", "url": "https://www.kaigokensaku.mhlw.go.jp/03/index.php?action_kouhyou_detail_004_kani=true&JigyosyoCd=0361690043-00&ServiceCd=130&Type=search", "url2": "https://www.rehavillageiwatehoumonkango.com/" }, "geometry": { "type": "Point", "coordinates": [ 141.098459559524571, 39.731586635368714 ] } },
{ "type": "Feature", "properties": { "内容": "社会福祉法人康済会訪問看護ステーション滝沢【訪問看護】岩手県滝沢市大釜竹鼻163-14", "url": "https://www.kaigokensaku.mhlw.go.jp/03/index.php?action_kouhyou_detail_004_kani=true&JigyosyoCd=0362190035-00&ServiceCd=130&Type=search", "url2": "http://www.uguisu.or.jp/" }, "geometry": { "type": "Point", "coordinates": [ 141.072048741203275, 39.703107776313615 ] } },
{ "type": "Feature", "properties": { "内容": "訪問看護ステーション琥珀【訪問看護】岩手県滝沢市鵜飼笹森1-93", "url": "https://www.kaigokensaku.mhlw.go.jp/03/index.php?action_kouhyou_detail_004_kani=true&JigyosyoCd=0361690068-00&ServiceCd=130&Type=search", "url2": "https://miotsukushi-kohaku.com/" }, "geometry": { "type": "Point", "coordinates": [ 141.089563378821026, 39.733388103757591 ] } },
{ "type": "Feature", "properties": { "内容": "訪問看護ステーションありがとう【訪問看護】岩手県滝沢市篠木黒畑56-1丹内ビル３-2号", "url": "https://www.kaigokensaku.mhlw.go.jp/03/index.php?action_kouhyou_detail_004_kani=true&JigyosyoCd=0362190068-00&ServiceCd=130&Type=search", "url2": "http://www.yuuyui.com/" }, "geometry": { "type": "Point", "coordinates": [ 141.079135587127666, 39.706468385165962 ] } },
{ "type": "Feature", "properties": { "内容": "いわてリハビリテーションセンター【訪問看護】岩手県岩手郡雫石町七ツ森16番地243", "url": "https://www.kaigokensaku.mhlw.go.jp/03/index.php?action_kouhyou_detail_004_kani=true&JigyosyoCd=0312110919-00&ServiceCd=130&Type=search", "url2": "http://www.irc.or.jp" }, "geometry": { "type": "Point", "coordinates": [ 141.012918, 39.7037568 ] } },
{ "type": "Feature", "properties": { "内容": "しずくいし訪問看護ステーション心【訪問看護】岩手県岩手郡雫石町万田渡74-1", "url": "https://www.kaigokensaku.mhlw.go.jp/03/index.php?action_kouhyou_detail_004_kani=true&JigyosyoCd=0362190084-00&ServiceCd=130&Type=search", "url2": "https://cocorokango-shizukuishi.com" }, "geometry": { "type": "Point", "coordinates": [ 140.970648784313568, 39.697039221266579 ] } },
{ "type": "Feature", "properties": { "内容": "佐渡医院訪問看護【訪問看護】岩手県岩手郡岩手町大字五日市第10地割175-15", "url": "https://www.kaigokensaku.mhlw.go.jp/03/index.php?action_kouhyou_detail_004_kani=true&JigyosyoCd=0312110968-00&ServiceCd=130&Type=search", "url2": "http://www.sawatari-iin.com/" }, "geometry": { "type": "Point", "coordinates": [ 141.2201096, 39.9738122 ] } },
{ "type": "Feature", "properties": { "内容": "訪問看護ステーション和や家～なごやか～【訪問看護】岩手県岩手郡岩手町大字沼宮内第18地割85番地2", "url": "https://www.kaigokensaku.mhlw.go.jp/03/index.php?action_kouhyou_detail_004_kani=true&JigyosyoCd=0362190076-00&ServiceCd=130&Type=search", "url2": "https://kaigoiwate.com/" }, "geometry": { "type": "Point", "coordinates": [ 141.237463599999955, 39.9995513 ] } },
{ "type": "Feature", "properties": { "内容": "訪問看護ステーションピースハート【訪問看護】岩手県紫波郡紫波町桜町字三本木171番地", "url": "https://www.kaigokensaku.mhlw.go.jp/03/index.php?action_kouhyou_detail_004_kani=true&JigyosyoCd=0362290033-00&ServiceCd=130&Type=search", "url2": "https://www.peaceheart.jp" }, "geometry": { "type": "Point", "coordinates": [ 141.1710089, 39.5410239 ] } },
{ "type": "Feature", "properties": { "内容": "訪問看護ステーション縁【訪問看護】岩手県紫波郡紫波町中島前郷39-55", "url": "https://www.kaigokensaku.mhlw.go.jp/03/index.php?action_kouhyou_detail_004_kani=true&JigyosyoCd=0372200956-00&ServiceCd=130&Type=search", "url2": null }, "geometry": { "type": "Point", "coordinates": [ 141.157927100000052, 39.5797538 ] } },
{ "type": "Feature", "properties": { "内容": "ひばり訪問看護ステーションいわて【訪問看護】岩手県紫波郡紫波町日詰字朝日田265-4", "url": "https://www.kaigokensaku.mhlw.go.jp/03/index.php?action_kouhyou_detail_004_kani=true&JigyosyoCd=0362290066-00&ServiceCd=130&Type=search", "url2": "https://hibari-nurse.com/" }, "geometry": { "type": "Point", "coordinates": [ 141.1675013, 39.559446 ] } },
{ "type": "Feature", "properties": { "内容": "特定非営利活動法人しわ訪問看護ステーション虹【訪問看護】岩手県紫波郡紫波町北日詰字大日堂2番地1虹のいえ　２階", "url": "https://www.kaigokensaku.mhlw.go.jp/03/index.php?action_kouhyou_detail_004_kani=true&JigyosyoCd=0362290017-00&ServiceCd=130&Type=search", "url2": null }, "geometry": { "type": "Point", "coordinates": [ 141.165604087171886, 39.538926834237849 ] } },
{ "type": "Feature", "properties": { "内容": "訪問看護ステーション南昌【訪問看護】岩手県紫波郡矢巾町大字広宮沢第１地割2番181医療法人社団帰厚　南昌病院", "url": "https://www.kaigokensaku.mhlw.go.jp/03/index.php?action_kouhyou_detail_004_kani=true&JigyosyoCd=0362290058-00&ServiceCd=130&Type=search", "url2": null }, "geometry": { "type": "Point", "coordinates": [ 141.0867039, 39.6218092 ] } },
{ "type": "Feature", "properties": { "内容": "訪問看護ステーション結いの手【訪問看護】岩手県紫波郡矢巾町医大通二丁目7番7号CocoテラスY2階", "url": "https://www.kaigokensaku.mhlw.go.jp/03/index.php?action_kouhyou_detail_004_kani=true&JigyosyoCd=0362290025-00&ServiceCd=130&Type=search", "url2": "https://www.goodnurse-yuinote.com/" }, "geometry": { "type": "Point", "coordinates": [ 141.165368735079369, 39.616091019805232 ] } },
{ "type": "Feature", "properties": { "内容": "訪問看護ステーションにぎ和い【訪問看護】岩手県紫波郡矢巾町大字高田第13地割224番地4住宅型有料老人ホームにぎ和い", "url": "https://www.kaigokensaku.mhlw.go.jp/03/index.php?action_kouhyou_detail_004_kani=true&JigyosyoCd=0362290041-00&ServiceCd=130&Type=search", "url2": null }, "geometry": { "type": "Point", "coordinates": [ 141.1712004, 39.6297421 ] } },
{ "type": "Feature", "properties": { "内容": "訪問看護ステーションやはば【訪問看護】岩手県紫波郡矢巾町大字又兵ェ新田第5地割335番地医療福祉多機能ビル　ケアセンター南昌", "url": "https://www.kaigokensaku.mhlw.go.jp/03/index.php?action_kouhyou_detail_004_kani=true&JigyosyoCd=0362290009-00&ServiceCd=130&Type=search", "url2": "https://ccnansyou.com" }, "geometry": { "type": "Point", "coordinates": [ 141.146965201960711, 39.613464129282711 ] } },
{ "type": "Feature", "properties": { "内容": "町立西和賀さわうち病院【訪問看護】岩手県和賀郡西和賀町沢内字大野13-3-12", "url": "https://www.kaigokensaku.mhlw.go.jp/03/index.php?action_kouhyou_detail_004_kani=true&JigyosyoCd=0312410475-00&ServiceCd=130&Type=search", "url2": "http://www.town.nishiwaga.lg.jp/" }, "geometry": { "type": "Point", "coordinates": [ 140.761474799999974, 39.3724417 ] } },
{ "type": "Feature", "properties": { "内容": "金ケ崎町訪問看護ステーション【訪問看護】岩手県胆沢郡金ケ崎町西根鑓水98", "url": "https://www.kaigokensaku.mhlw.go.jp/03/index.php?action_kouhyou_detail_004_kani=true&JigyosyoCd=0362590002-00&ServiceCd=130&Type=search", "url2": "http://www.town.kanegasaki.iwate.jp" }, "geometry": { "type": "Point", "coordinates": [ 141.111416400000053, 39.1957198 ] } },
{ "type": "Feature", "properties": { "内容": "花憩庵訪問看護ステーション【訪問看護】岩手県胆沢郡金ケ崎町西根谷来浦46番地1", "url": "https://www.kaigokensaku.mhlw.go.jp/03/index.php?action_kouhyou_detail_004_kani=true&JigyosyoCd=0362590036-00&ServiceCd=130&Type=search", "url2": "https://hanakeian.jp" }, "geometry": { "type": "Point", "coordinates": [ 141.115001900000038, 39.199438899999976 ] } },
{ "type": "Feature", "properties": { "内容": "未来かなえ訪問看護ステーション「すみちゃん」【訪問看護】岩手県気仙郡住田町世田米字川向96-5住田町保健福祉センター内", "url": "https://www.kaigokensaku.mhlw.go.jp/03/index.php?action_kouhyou_detail_004_kani=true&JigyosyoCd=0362890014-00&ServiceCd=130&Type=search", "url2": "https://sumichan.jp" }, "geometry": { "type": "Point", "coordinates": [ 141.575552, 39.1412078 ] } },
{ "type": "Feature", "properties": { "内容": "あゆみ訪問看護ステーション山田【訪問看護】岩手県下閉伊郡山田町飯岡第６地割９番１", "url": "https://www.kaigokensaku.mhlw.go.jp/03/index.php?action_kouhyou_detail_004_kani=true&JigyosyoCd=0373000827-00&ServiceCd=130&Type=search", "url2": null }, "geometry": { "type": "Point", "coordinates": [ 141.943356600000016, 39.4602459 ] } },
{ "type": "Feature", "properties": { "内容": "社会福祉法人恩賜財団岩手県済生会岩泉病院【訪問看護】岩手県下閉伊郡岩泉町岩泉字中家１９番地１", "url": "https://www.kaigokensaku.mhlw.go.jp/03/index.php?action_kouhyou_detail_004_kani=true&JigyosyoCd=0313010225-00&ServiceCd=130&Type=search", "url2": "http://www1.ocn.ne.jp/~nadesiko/" }, "geometry": { "type": "Point", "coordinates": [ 141.795031, 39.8476694 ] } },
{ "type": "Feature", "properties": { "内容": "国保田野畑村診療所【訪問看護】岩手県下閉伊郡田野畑村田野畑120番地3", "url": "https://www.kaigokensaku.mhlw.go.jp/03/index.php?action_kouhyou_detail_004_kani=true&JigyosyoCd=0313010217-00&ServiceCd=130&Type=search", "url2": null }, "geometry": { "type": "Point", "coordinates": [ 141.894167599999946, 39.9317251 ] } },
{ "type": "Feature", "properties": { "内容": "われもこう訪問看護ステーション【訪問看護】岩手県九戸郡野田村大字野田第28地割18番地4", "url": "https://www.kaigokensaku.mhlw.go.jp/03/index.php?action_kouhyou_detail_004_kani=true&JigyosyoCd=0363190018-00&ServiceCd=130&Type=search", "url2": null }, "geometry": { "type": "Point", "coordinates": [ 141.818600679762227, 40.113796279971226 ] } },
{ "type": "Feature", "properties": { "内容": "あすみ訪問看護ステーション【訪問看護】岩手県九戸郡洋野町種市第23地割65番地6水上アパート105号室", "url": "https://www.kaigokensaku.mhlw.go.jp/03/index.php?action_kouhyou_detail_004_kani=true&JigyosyoCd=0373100783-00&ServiceCd=130&Type=search", "url2": "https://www.asumi-kango.jp/index.html" }, "geometry": { "type": "Point", "coordinates": [ 141.710001799999986, 40.4096531 ] } },
{ "type": "Feature", "properties": { "内容": "岩手県立一戸病院【訪問看護】岩手県二戸郡一戸町一戸字砂森60番地1", "url": "https://www.kaigokensaku.mhlw.go.jp/03/index.php?action_kouhyou_detail_004_kani=true&JigyosyoCd=0313210296-00&ServiceCd=130&Type=search", "url2": "http://www.ichinohe-hp.com/" }, "geometry": { "type": "Point", "coordinates": [ 141.3050366, 40.2075318 ] } },
{ "type": "Feature", "properties": { "内容": "岩手県立一戸病院訪問看護ステーションいちのへ【訪問看護】岩手県二戸郡一戸町一戸字砂森60番地１", "url": "https://www.kaigokensaku.mhlw.go.jp/03/index.php?action_kouhyou_detail_004_kani=true&JigyosyoCd=0363290016-00&ServiceCd=130&Type=search", "url2": "http://www.ichinohe-hp.com/" }, "geometry": { "type": "Point", "coordinates": [ 141.305071700000013, 40.2071844 ] } }
]
}
