{
"type": "FeatureCollection",
"name": "geo_03_認知症対応型共同生活介護",
"crs": { "type": "name", "properties": { "name": "urn:ogc:def:crs:OGC:1.3:CRS84" } },
"features": [
{ "type": "Feature", "properties": { "内容": "グループホームサンパーク笑う門【認知症対応型共同生活介護】岩手県盛岡市門一丁目15-27", "url2": "https://www.kaigokensaku.mhlw.go.jp/03/index.php?action_kouhyou_detail_004_kani=true&JigyosyoCd=0390100048-00&ServiceCd=320&Type=search" }, "geometry": { "type": "Point", "coordinates": [ 141.170972200000051, 39.6703651 ] } },
{ "type": "Feature", "properties": { "内容": "グループホームふきのとう北松園【認知症対応型共同生活介護】岩手県盛岡市北松園4丁目36番87号", "url2": "https://www.kaigokensaku.mhlw.go.jp/03/index.php?action_kouhyou_detail_004_kani=true&JigyosyoCd=0390100220-00&ServiceCd=320&Type=search" }, "geometry": { "type": "Point", "coordinates": [ 141.176792344705177, 39.762909743521369 ] } },
{ "type": "Feature", "properties": { "内容": "グループホームシリウス姫神【認知症対応型共同生活介護】岩手県盛岡市渋民字駅105番地", "url2": "https://www.kaigokensaku.mhlw.go.jp/03/index.php?action_kouhyou_detail_004_kani=true&JigyosyoCd=0390100154-00&ServiceCd=320&Type=search" }, "geometry": { "type": "Point", "coordinates": [ 141.168056100000058, 39.843604 ] } },
{ "type": "Feature", "properties": { "内容": "グループホームさくらぎ【認知症対応型共同生活介護】岩手県盛岡市高松3丁目13番15号", "url2": "https://www.kaigokensaku.mhlw.go.jp/03/index.php?action_kouhyou_detail_004_kani=true&JigyosyoCd=0390100410-00&ServiceCd=320&Type=search" }, "geometry": { "type": "Point", "coordinates": [ 141.14242873873286, 39.727988127331351 ] } },
{ "type": "Feature", "properties": { "内容": "あったかいごグループホーム東安庭【認知症対応型共同生活介護】岩手県盛岡市東安庭1丁目23-70あったかいごグループホーム東安庭", "url2": "https://www.kaigokensaku.mhlw.go.jp/03/index.php?action_kouhyou_detail_004_kani=true&JigyosyoCd=0390100642-00&ServiceCd=320&Type=search" }, "geometry": { "type": "Point", "coordinates": [ 141.164768, 39.6796266 ] } },
{ "type": "Feature", "properties": { "内容": "グループホームあったかいご神子田マルシェ【認知症対応型共同生活介護】岩手県盛岡市神子田町6-12", "url2": "https://www.kaigokensaku.mhlw.go.jp/03/index.php?action_kouhyou_detail_004_kani=true&JigyosyoCd=0390100659-00&ServiceCd=320&Type=search" }, "geometry": { "type": "Point", "coordinates": [ 141.1601699, 39.6886949 ] } },
{ "type": "Feature", "properties": { "内容": "グループホームみんなのいえ【認知症対応型共同生活介護】岩手県盛岡市向中野2丁目55番6号", "url2": "https://www.kaigokensaku.mhlw.go.jp/03/index.php?action_kouhyou_detail_004_kani=true&JigyosyoCd=0390100675-00&ServiceCd=320&Type=search" }, "geometry": { "type": "Point", "coordinates": [ 141.1378145, 39.6806097 ] } },
{ "type": "Feature", "properties": { "内容": "グループホーム田園【認知症対応型共同生活介護】岩手県盛岡市太田3-17-36", "url2": "https://www.kaigokensaku.mhlw.go.jp/03/index.php?action_kouhyou_detail_004_kani=true&JigyosyoCd=0370101875-00&ServiceCd=320&Type=search" }, "geometry": { "type": "Point", "coordinates": [ 141.117606799999947, 39.696058099999981 ] } },
{ "type": "Feature", "properties": { "内容": "グループホームたんぽぽ【認知症対応型共同生活介護】岩手県盛岡市稲荷町2-5", "url2": "https://www.kaigokensaku.mhlw.go.jp/03/index.php?action_kouhyou_detail_004_kani=true&JigyosyoCd=0390100170-00&ServiceCd=320&Type=search" }, "geometry": { "type": "Point", "coordinates": [ 141.116381171966651, 39.70981505523001 ] } },
{ "type": "Feature", "properties": { "内容": "グループホームあやめ【認知症対応型共同生活介護】岩手県盛岡市神子田町８－２７", "url2": "https://www.kaigokensaku.mhlw.go.jp/03/index.php?action_kouhyou_detail_004_kani=true&JigyosyoCd=0390100246-00&ServiceCd=320&Type=search" }, "geometry": { "type": "Point", "coordinates": [ 141.161233700000025, 39.6861022 ] } },
{ "type": "Feature", "properties": { "内容": "グループホームなの花【認知症対応型共同生活介護】岩手県盛岡市仙北2-4-2", "url2": "https://www.kaigokensaku.mhlw.go.jp/03/index.php?action_kouhyou_detail_004_kani=true&JigyosyoCd=0390100394-00&ServiceCd=320&Type=search" }, "geometry": { "type": "Point", "coordinates": [ 141.149332299999969, 39.675181 ] } },
{ "type": "Feature", "properties": { "内容": "グループホームやまぶき【認知症対応型共同生活介護】岩手県盛岡市梨木町5-55", "url2": "https://www.kaigokensaku.mhlw.go.jp/03/index.php?action_kouhyou_detail_004_kani=true&JigyosyoCd=0390100592-00&ServiceCd=320&Type=search" }, "geometry": { "type": "Point", "coordinates": [ 141.136393895403899, 39.709347247929827 ] } },
{ "type": "Feature", "properties": { "内容": "盛岡医療生活協同組合グループホーム「さくらの家」【認知症対応型共同生活介護】岩手県盛岡市永井19地割37番地５", "url2": "https://www.kaigokensaku.mhlw.go.jp/03/index.php?action_kouhyou_detail_004_kani=true&JigyosyoCd=0370101404-00&ServiceCd=320&Type=search" }, "geometry": { "type": "Point", "coordinates": [ 141.145645100000024, 39.6500835 ] } },
{ "type": "Feature", "properties": { "内容": "グループホーム若園荘【認知症対応型共同生活介護】岩手県盛岡市若園町８－１１", "url2": "https://www.kaigokensaku.mhlw.go.jp/03/index.php?action_kouhyou_detail_004_kani=true&JigyosyoCd=0390100287-00&ServiceCd=320&Type=search" }, "geometry": { "type": "Point", "coordinates": [ 141.160188799999986, 39.7040362 ] } },
{ "type": "Feature", "properties": { "内容": "グループホームぬぐまるの家【認知症対応型共同生活介護】岩手県盛岡市北山1丁目16番15号", "url2": "https://www.kaigokensaku.mhlw.go.jp/03/index.php?action_kouhyou_detail_004_kani=true&JigyosyoCd=0390100329-00&ServiceCd=320&Type=search" }, "geometry": { "type": "Point", "coordinates": [ 141.150158799999986, 39.7158179 ] } },
{ "type": "Feature", "properties": { "内容": "グループホーム喜久〇【認知症対応型共同生活介護】岩手県盛岡市高松4丁目3番6号", "url2": "https://www.kaigokensaku.mhlw.go.jp/03/index.php?action_kouhyou_detail_004_kani=true&JigyosyoCd=0390100626-00&ServiceCd=320&Type=search" }, "geometry": { "type": "Point", "coordinates": [ 141.136234706977831, 39.726572570317984 ] } },
{ "type": "Feature", "properties": { "内容": "ツクイ盛岡本宮グループホーム【認知症対応型共同生活介護】岩手県盛岡市本宮6丁目6番10号ツクイ盛岡本宮グループホーム", "url2": "https://www.kaigokensaku.mhlw.go.jp/03/index.php?action_kouhyou_detail_004_kani=true&JigyosyoCd=0390100774-00&ServiceCd=320&Type=search" }, "geometry": { "type": "Point", "coordinates": [ 141.124283379762289, 39.686519120172989 ] } },
{ "type": "Feature", "properties": { "内容": "グループホームやまぼうし桜台【認知症対応型共同生活介護】岩手県盛岡市桜台二丁目１８番地３号", "url2": "https://www.kaigokensaku.mhlw.go.jp/03/index.php?action_kouhyou_detail_004_kani=true&JigyosyoCd=0390100261-00&ServiceCd=320&Type=search" }, "geometry": { "type": "Point", "coordinates": [ 141.197581300000024, 39.7494267 ] } },
{ "type": "Feature", "properties": { "内容": "グループホーム絆【認知症対応型共同生活介護】岩手県盛岡市仙北三丁目１４－４１", "url2": "https://www.kaigokensaku.mhlw.go.jp/03/index.php?action_kouhyou_detail_004_kani=true&JigyosyoCd=0370101362-00&ServiceCd=320&Type=search" }, "geometry": { "type": "Point", "coordinates": [ 141.153056800000059, 39.6799361 ] } },
{ "type": "Feature", "properties": { "内容": "岩手高齢協ほっと南仙北【認知症対応型共同生活介護】岩手県盛岡市南仙北2-3-37", "url2": "https://www.kaigokensaku.mhlw.go.jp/03/index.php?action_kouhyou_detail_004_kani=true&JigyosyoCd=0370101610-00&ServiceCd=320&Type=search" }, "geometry": { "type": "Point", "coordinates": [ 141.148830211114472, 39.675632146866441 ] } },
{ "type": "Feature", "properties": { "内容": "岩手高齢協ほっともとみや【認知症対応型共同生活介護】岩手県盛岡市本宮６丁目１４－１２", "url2": "https://www.kaigokensaku.mhlw.go.jp/03/index.php?action_kouhyou_detail_004_kani=true&JigyosyoCd=0390100022-00&ServiceCd=320&Type=search" }, "geometry": { "type": "Point", "coordinates": [ 141.122126, 39.6874426 ] } },
{ "type": "Feature", "properties": { "内容": "けあビジョンホーム盛岡【認知症対応型共同生活介護】岩手県盛岡市好摩字夏間木70-252", "url2": "https://www.kaigokensaku.mhlw.go.jp/03/index.php?action_kouhyou_detail_004_kani=true&JigyosyoCd=0390100790-00&ServiceCd=320&Type=search" }, "geometry": { "type": "Point", "coordinates": [ 141.169128897900407, 39.869488859799247 ] } },
{ "type": "Feature", "properties": { "内容": "グループホーム都南太陽荘【認知症対応型共同生活介護】岩手県盛岡市津志田中央二丁目3番20号", "url2": "https://www.kaigokensaku.mhlw.go.jp/03/index.php?action_kouhyou_detail_004_kani=true&JigyosyoCd=0370101917-00&ServiceCd=320&Type=search" }, "geometry": { "type": "Point", "coordinates": [ 141.1590182, 39.6605855 ] } },
{ "type": "Feature", "properties": { "内容": "グループホーム愛の手【認知症対応型共同生活介護】岩手県盛岡市青山一丁目19-51", "url2": "https://www.kaigokensaku.mhlw.go.jp/03/index.php?action_kouhyou_detail_004_kani=true&JigyosyoCd=0390100030-00&ServiceCd=320&Type=search" }, "geometry": { "type": "Point", "coordinates": [ 141.111672253967271, 39.720727785218543 ] } },
{ "type": "Feature", "properties": { "内容": "流通商事株式会社グループホームゆうゆう黒川【認知症対応型共同生活介護】岩手県盛岡市黒川７地割３７番地８", "url2": "https://www.kaigokensaku.mhlw.go.jp/03/index.php?action_kouhyou_detail_004_kani=true&JigyosyoCd=0390100055-00&ServiceCd=320&Type=search" }, "geometry": { "type": "Point", "coordinates": [ 141.191763900000069, 39.636313700000017 ] } },
{ "type": "Feature", "properties": { "内容": "グループホームふくじゅそう【認知症対応型共同生活介護】岩手県盛岡市三ツ割字上岩清水５－１", "url2": "https://www.kaigokensaku.mhlw.go.jp/03/index.php?action_kouhyou_detail_004_kani=true&JigyosyoCd=0390100089-00&ServiceCd=320&Type=search" }, "geometry": { "type": "Point", "coordinates": [ 141.160007700000051, 39.7239227 ] } },
{ "type": "Feature", "properties": { "内容": "グループホームゆうゆう渋民【認知症対応型共同生活介護】岩手県盛岡市渋民字泉田178", "url2": "https://www.kaigokensaku.mhlw.go.jp/03/index.php?action_kouhyou_detail_004_kani=true&JigyosyoCd=0390100139-00&ServiceCd=320&Type=search" }, "geometry": { "type": "Point", "coordinates": [ 141.169001735998592, 39.848141636011803 ] } },
{ "type": "Feature", "properties": { "内容": "グループホーム浅岸静福園【認知症対応型共同生活介護】岩手県盛岡市浅岸字橋場１６－２", "url2": "https://www.kaigokensaku.mhlw.go.jp/03/index.php?action_kouhyou_detail_004_kani=true&JigyosyoCd=0390100147-00&ServiceCd=320&Type=search" }, "geometry": { "type": "Point", "coordinates": [ 141.186166700000058, 39.7136359 ] } },
{ "type": "Feature", "properties": { "内容": "グループホームやちだもの家山岸【認知症対応型共同生活介護】岩手県盛岡市山岸4丁目24-1", "url2": "https://www.kaigokensaku.mhlw.go.jp/03/index.php?action_kouhyou_detail_004_kani=true&JigyosyoCd=0390100402-00&ServiceCd=320&Type=search" }, "geometry": { "type": "Point", "coordinates": [ 141.170383117196735, 39.723404332385883 ] } },
{ "type": "Feature", "properties": { "内容": "グループホームやちだもの家青山駅前【認知症対応型共同生活介護】岩手県盛岡市上堂二丁目3番16号", "url2": "https://www.kaigokensaku.mhlw.go.jp/03/index.php?action_kouhyou_detail_004_kani=true&JigyosyoCd=0390100873-00&ServiceCd=320&Type=search" }, "geometry": { "type": "Point", "coordinates": [ 141.1208344, 39.7257832 ] } },
{ "type": "Feature", "properties": { "内容": "JAライフサポートグループホームひきめの森【認知症対応型共同生活介護】岩手県宮古市蟇目第5地割48番2号", "url2": "https://www.kaigokensaku.mhlw.go.jp/03/index.php?action_kouhyou_detail_004_kani=true&JigyosyoCd=0390200293-00&ServiceCd=320&Type=search" }, "geometry": { "type": "Point", "coordinates": [ 141.8378265, 39.6302517 ] } },
{ "type": "Feature", "properties": { "内容": "ＪＡライフサポートグループホーム花＊花【認知症対応型共同生活介護】岩手県宮古市蟇目第3地割15番1", "url2": "https://www.kaigokensaku.mhlw.go.jp/03/index.php?action_kouhyou_detail_004_kani=true&JigyosyoCd=0390200327-00&ServiceCd=320&Type=search" }, "geometry": { "type": "Point", "coordinates": [ 141.837232200000017, 39.6271326 ] } },
{ "type": "Feature", "properties": { "内容": "グループホームサンフラワー【認知症対応型共同生活介護】岩手県宮古市板屋4丁目4番2号", "url2": "https://www.kaigokensaku.mhlw.go.jp/03/index.php?action_kouhyou_detail_004_kani=true&JigyosyoCd=0390200079-00&ServiceCd=320&Type=search" }, "geometry": { "type": "Point", "coordinates": [ 141.915804500000036, 39.6375055 ] } },
{ "type": "Feature", "properties": { "内容": "グループホームゆうゆう八木沢【認知症対応型共同生活介護】岩手県宮古市八木沢第５地割８５番地１", "url2": "https://www.kaigokensaku.mhlw.go.jp/03/index.php?action_kouhyou_detail_004_kani=true&JigyosyoCd=0390200228-00&ServiceCd=320&Type=search" }, "geometry": { "type": "Point", "coordinates": [ 141.940899502485678, 39.616769163964719 ] } },
{ "type": "Feature", "properties": { "内容": "グループホームゆい八木沢【認知症対応型共同生活介護】岩手県宮古市八木沢四丁目５番33号", "url2": "https://www.kaigokensaku.mhlw.go.jp/03/index.php?action_kouhyou_detail_004_kani=true&JigyosyoCd=0390200376-00&ServiceCd=320&Type=search" }, "geometry": { "type": "Point", "coordinates": [ 141.941865799999988, 39.6168966 ] } },
{ "type": "Feature", "properties": { "内容": "グループホームすまいる2号館【認知症対応型共同生活介護】岩手県宮古市崎鍬ヶ崎第9地割39番地70", "url2": "https://www.kaigokensaku.mhlw.go.jp/03/index.php?action_kouhyou_detail_004_kani=true&JigyosyoCd=0390200103-00&ServiceCd=320&Type=search" }, "geometry": { "type": "Point", "coordinates": [ 141.958556, 39.6679919 ] } },
{ "type": "Feature", "properties": { "内容": "グループホームすまいる【認知症対応型共同生活介護】岩手県宮古市崎鍬ヶ崎第９地割３９番地３４", "url2": "https://www.kaigokensaku.mhlw.go.jp/03/index.php?action_kouhyou_detail_004_kani=true&JigyosyoCd=0390200111-00&ServiceCd=320&Type=search" }, "geometry": { "type": "Point", "coordinates": [ 141.95807549999995, 39.6688196 ] } },
{ "type": "Feature", "properties": { "内容": "グループホームたろう【認知症対応型共同生活介護】岩手県宮古市崎鍬ヶ崎第９地割３９番地１", "url2": "https://www.kaigokensaku.mhlw.go.jp/03/index.php?action_kouhyou_detail_004_kani=true&JigyosyoCd=0390200129-00&ServiceCd=320&Type=search" }, "geometry": { "type": "Point", "coordinates": [ 141.958556, 39.6679919 ] } },
{ "type": "Feature", "properties": { "内容": "グループホームふじのかわ【認知症対応型共同生活介護】岩手県宮古市藤の川11番5号", "url2": "https://www.kaigokensaku.mhlw.go.jp/03/index.php?action_kouhyou_detail_004_kani=true&JigyosyoCd=0390200152-00&ServiceCd=320&Type=search" }, "geometry": { "type": "Point", "coordinates": [ 141.956895799999984, 39.6162066 ] } },
{ "type": "Feature", "properties": { "内容": "グループホームおもつべ【認知症対応型共同生活介護】岩手県宮古市田老字重津部34番地77", "url2": "https://www.kaigokensaku.mhlw.go.jp/03/index.php?action_kouhyou_detail_004_kani=true&JigyosyoCd=0390200210-00&ServiceCd=320&Type=search" }, "geometry": { "type": "Point", "coordinates": [ 141.964887850262471, 39.764192043089857 ] } },
{ "type": "Feature", "properties": { "内容": "老人グループホーム柿の木ホーム【認知症対応型共同生活介護】岩手県宮古市山口五丁目3-30", "url2": "https://www.kaigokensaku.mhlw.go.jp/03/index.php?action_kouhyou_detail_004_kani=true&JigyosyoCd=0370200297-00&ServiceCd=320&Type=search" }, "geometry": { "type": "Point", "coordinates": [ 141.9322168, 39.6557372 ] } },
{ "type": "Feature", "properties": { "内容": "グループホームひなた【認知症対応型共同生活介護】岩手県宮古市津軽石第13地割208番地160", "url2": "https://www.kaigokensaku.mhlw.go.jp/03/index.php?action_kouhyou_detail_004_kani=true&JigyosyoCd=0390200301-00&ServiceCd=320&Type=search" }, "geometry": { "type": "Point", "coordinates": [ 141.932115247676848, 39.558487718897354 ] } },
{ "type": "Feature", "properties": { "内容": "グループホームあすも【認知症対応型共同生活介護】岩手県宮古市田の神二丁目４番２８号", "url2": "https://www.kaigokensaku.mhlw.go.jp/03/index.php?action_kouhyou_detail_004_kani=true&JigyosyoCd=0390200319-00&ServiceCd=320&Type=search" }, "geometry": { "type": "Point", "coordinates": [ 141.938015899999982, 39.6480026 ] } },
{ "type": "Feature", "properties": { "内容": "グループホームえくぼ【認知症対応型共同生活介護】岩手県宮古市長根四丁目13番1号", "url2": "https://www.kaigokensaku.mhlw.go.jp/03/index.php?action_kouhyou_detail_004_kani=true&JigyosyoCd=0390200046-00&ServiceCd=320&Type=search" }, "geometry": { "type": "Point", "coordinates": [ 141.927208899999982, 39.643869 ] } },
{ "type": "Feature", "properties": { "内容": "グループホームさくらつつみ【認知症対応型共同生活介護】岩手県宮古市田鎖第５地割３３－４", "url2": "https://www.kaigokensaku.mhlw.go.jp/03/index.php?action_kouhyou_detail_004_kani=true&JigyosyoCd=0390200137-00&ServiceCd=320&Type=search" }, "geometry": { "type": "Point", "coordinates": [ 141.906639499999983, 39.6177326 ] } },
{ "type": "Feature", "properties": { "内容": "グループホーム・愛宕の丘【認知症対応型共同生活介護】岩手県宮古市中里団地４－１１", "url2": "https://www.kaigokensaku.mhlw.go.jp/03/index.php?action_kouhyou_detail_004_kani=true&JigyosyoCd=0390200160-00&ServiceCd=320&Type=search" }, "geometry": { "type": "Point", "coordinates": [ 141.960167, 39.6481417 ] } },
{ "type": "Feature", "properties": { "内容": "あお空グループホーム赤前【認知症対応型共同生活介護】岩手県宮古市赤前第4地割83番地", "url2": "https://www.kaigokensaku.mhlw.go.jp/03/index.php?action_kouhyou_detail_004_kani=true&JigyosyoCd=0390200178-00&ServiceCd=320&Type=search" }, "geometry": { "type": "Point", "coordinates": [ 141.950625899999977, 39.5786859 ] } },
{ "type": "Feature", "properties": { "内容": "グループホーム・樫内【認知症対応型共同生活介護】岩手県宮古市田老字西向山119-16", "url2": "https://www.kaigokensaku.mhlw.go.jp/03/index.php?action_kouhyou_detail_004_kani=true&JigyosyoCd=0390200202-00&ServiceCd=320&Type=search" }, "geometry": { "type": "Point", "coordinates": [ 141.98243320000006, 39.7111007 ] } },
{ "type": "Feature", "properties": { "内容": "あお空グループホーム向町【認知症対応型共同生活介護】岩手県宮古市向町２番34号坂下賃貸ビル3Ｆ", "url2": "https://www.kaigokensaku.mhlw.go.jp/03/index.php?action_kouhyou_detail_004_kani=true&JigyosyoCd=0390200335-00&ServiceCd=320&Type=search" }, "geometry": { "type": "Point", "coordinates": [ 141.954270400000041, 39.6416673 ] } },
{ "type": "Feature", "properties": { "内容": "グループホーム「綾の里」【認知症対応型共同生活介護】岩手県大船渡市三陸町綾里字清水１２５－２", "url2": "https://www.kaigokensaku.mhlw.go.jp/03/index.php?action_kouhyou_detail_004_kani=true&JigyosyoCd=0370300311-00&ServiceCd=320&Type=search" }, "geometry": { "type": "Point", "coordinates": [ 141.79721795438391, 39.054656713836088 ] } },
{ "type": "Feature", "properties": { "内容": "グループホームまちぐるみ【認知症対応型共同生活介護】岩手県大船渡市盛町字町3-1蔵ハウス大船渡　グループホームまちぐるみ", "url2": "https://www.kaigokensaku.mhlw.go.jp/03/index.php?action_kouhyou_detail_004_kani=true&JigyosyoCd=0390300051-00&ServiceCd=320&Type=search" }, "geometry": { "type": "Point", "coordinates": [ 141.707716, 39.0867588 ] } },
{ "type": "Feature", "properties": { "内容": "グループホームさくら亭【認知症対応型共同生活介護】岩手県大船渡市盛町字町３－８", "url2": "https://www.kaigokensaku.mhlw.go.jp/03/index.php?action_kouhyou_detail_004_kani=true&JigyosyoCd=0390300192-00&ServiceCd=320&Type=search" }, "geometry": { "type": "Point", "coordinates": [ 141.7079842, 39.0863303 ] } },
{ "type": "Feature", "properties": { "内容": "認知症高齢者グループホームさんりく【認知症対応型共同生活介護】岩手県大船渡市三陸町越喜来字所通９１番地", "url2": "https://www.kaigokensaku.mhlw.go.jp/03/index.php?action_kouhyou_detail_004_kani=true&JigyosyoCd=0370300196-00&ServiceCd=320&Type=search" }, "geometry": { "type": "Point", "coordinates": [ 141.806189068816593, 39.125282259686514 ] } },
{ "type": "Feature", "properties": { "内容": "グループホーム「後ノ入」【認知症対応型共同生活介護】岩手県大船渡市赤崎町字後ノ入７３番地３", "url2": "https://www.kaigokensaku.mhlw.go.jp/03/index.php?action_kouhyou_detail_004_kani=true&JigyosyoCd=0390300085-00&ServiceCd=320&Type=search" }, "geometry": { "type": "Point", "coordinates": [ 141.746641, 39.0770862 ] } },
{ "type": "Feature", "properties": { "内容": "グループホーム「ひまわり」【認知症対応型共同生活介護】岩手県大船渡市大船渡町字山馬越197番地", "url2": "https://www.kaigokensaku.mhlw.go.jp/03/index.php?action_kouhyou_detail_004_kani=true&JigyosyoCd=0390300176-00&ServiceCd=320&Type=search" }, "geometry": { "type": "Point", "coordinates": [ 141.7110161, 39.070629 ] } },
{ "type": "Feature", "properties": { "内容": "グループホームぽっかぽか花巻中央【認知症対応型共同生活介護】岩手県花巻市南万丁目１１６３番地３", "url2": "https://www.kaigokensaku.mhlw.go.jp/03/index.php?action_kouhyou_detail_004_kani=true&JigyosyoCd=0390500056-00&ServiceCd=320&Type=search" }, "geometry": { "type": "Point", "coordinates": [ 141.099794400000064, 39.3888475 ] } },
{ "type": "Feature", "properties": { "内容": "グループホームおおたに【認知症対応型共同生活介護】岩手県花巻市湯口字松原55番地23", "url2": "https://www.kaigokensaku.mhlw.go.jp/03/index.php?action_kouhyou_detail_004_kani=true&JigyosyoCd=0370500779-00&ServiceCd=320&Type=search" }, "geometry": { "type": "Point", "coordinates": [ 141.020356799999945, 39.4056494 ] } },
{ "type": "Feature", "properties": { "内容": "はなみずき石鳥谷【認知症対応型共同生活介護】岩手県花巻市石鳥谷町上口１丁目3-1", "url2": "https://www.kaigokensaku.mhlw.go.jp/03/index.php?action_kouhyou_detail_004_kani=true&JigyosyoCd=0372300244-00&ServiceCd=320&Type=search" }, "geometry": { "type": "Point", "coordinates": [ 141.157440599999973, 39.5012771 ] } },
{ "type": "Feature", "properties": { "内容": "グループホーム宮ノ里【認知症対応型共同生活介護】岩手県花巻市西宮野目第１３地割１２１番２", "url2": "https://www.kaigokensaku.mhlw.go.jp/03/index.php?action_kouhyou_detail_004_kani=true&JigyosyoCd=0390500122-00&ServiceCd=320&Type=search" }, "geometry": { "type": "Point", "coordinates": [ 141.119713300000058, 39.413081 ] } },
{ "type": "Feature", "properties": { "内容": "グループホームいしどりや荘【認知症対応型共同生活介護】岩手県花巻市石鳥谷町好地14-10", "url2": "https://www.kaigokensaku.mhlw.go.jp/03/index.php?action_kouhyou_detail_004_kani=true&JigyosyoCd=0390500148-00&ServiceCd=320&Type=search" }, "geometry": { "type": "Point", "coordinates": [ 141.161151300000029, 39.5032076 ] } },
{ "type": "Feature", "properties": { "内容": "認知症高齢者グループホーム銀河の里【認知症対応型共同生活介護】岩手県花巻市幸田4-116-1", "url2": "https://www.kaigokensaku.mhlw.go.jp/03/index.php?action_kouhyou_detail_004_kani=true&JigyosyoCd=0370500449-00&ServiceCd=320&Type=search" }, "geometry": { "type": "Point", "coordinates": [ 141.19670229999997, 39.3973654 ] } },
{ "type": "Feature", "properties": { "内容": "認知症高齢者グループホーム銀河の里第２【認知症対応型共同生活介護】岩手県花巻市幸田4-116-1", "url2": "https://www.kaigokensaku.mhlw.go.jp/03/index.php?action_kouhyou_detail_004_kani=true&JigyosyoCd=0390500205-00&ServiceCd=320&Type=search" }, "geometry": { "type": "Point", "coordinates": [ 141.2020933, 39.4025843 ] } },
{ "type": "Feature", "properties": { "内容": "JAいわて花巻グループホームとどろき【認知症対応型共同生活介護】岩手県花巻市北笹間13地割71番地", "url2": "https://www.kaigokensaku.mhlw.go.jp/03/index.php?action_kouhyou_detail_004_kani=true&JigyosyoCd=0390500296-00&ServiceCd=320&Type=search" }, "geometry": { "type": "Point", "coordinates": [ 141.051331914016743, 39.357680764507087 ] } },
{ "type": "Feature", "properties": { "内容": "グループホーム金矢【認知症対応型共同生活介護】岩手県花巻市湯本第19地割380番地1", "url2": "https://www.kaigokensaku.mhlw.go.jp/03/index.php?action_kouhyou_detail_004_kani=true&JigyosyoCd=0390500304-00&ServiceCd=320&Type=search" }, "geometry": { "type": "Point", "coordinates": [ 141.0711622, 39.4424261 ] } },
{ "type": "Feature", "properties": { "内容": "グループホームぶどう苑【認知症対応型共同生活介護】岩手県花巻市大迫町大迫1-4-55", "url2": "https://www.kaigokensaku.mhlw.go.jp/03/index.php?action_kouhyou_detail_004_kani=true&JigyosyoCd=0372300327-00&ServiceCd=320&Type=search" }, "geometry": { "type": "Point", "coordinates": [ 141.291847, 39.469234 ] } },
{ "type": "Feature", "properties": { "内容": "グループホームなごみ【認知症対応型共同生活介護】岩手県花巻市東和町安俵６区９７番地", "url2": "https://www.kaigokensaku.mhlw.go.jp/03/index.php?action_kouhyou_detail_004_kani=true&JigyosyoCd=0372400259-00&ServiceCd=320&Type=search" }, "geometry": { "type": "Point", "coordinates": [ 141.223719599999981, 39.3850699 ] } },
{ "type": "Feature", "properties": { "内容": "グループホームなごみⅡ【認知症対応型共同生活介護】岩手県花巻市東和町安俵6区97番地", "url2": "https://www.kaigokensaku.mhlw.go.jp/03/index.php?action_kouhyou_detail_004_kani=true&JigyosyoCd=0390500114-00&ServiceCd=320&Type=search" }, "geometry": { "type": "Point", "coordinates": [ 141.223719599999981, 39.3850699 ] } },
{ "type": "Feature", "properties": { "内容": "グループホームりんどう【認知症対応型共同生活介護】岩手県花巻市石鳥谷町北寺林１１－１４０３", "url2": "https://www.kaigokensaku.mhlw.go.jp/03/index.php?action_kouhyou_detail_004_kani=true&JigyosyoCd=0390500130-00&ServiceCd=320&Type=search" }, "geometry": { "type": "Point", "coordinates": [ 141.139697800000022, 39.4995102 ] } },
{ "type": "Feature", "properties": { "内容": "グループホームこぶなと【認知症対応型共同生活介護】岩手県花巻市下小舟渡262-1", "url2": "https://www.kaigokensaku.mhlw.go.jp/03/index.php?action_kouhyou_detail_004_kani=true&JigyosyoCd=0390500155-00&ServiceCd=320&Type=search" }, "geometry": { "type": "Point", "coordinates": [ 141.125566400000054, 39.3937113 ] } },
{ "type": "Feature", "properties": { "内容": "グループホームだんけ胡四王【認知症対応型共同生活介護】岩手県花巻市胡四王一丁目１５番地５", "url2": "https://www.kaigokensaku.mhlw.go.jp/03/index.php?action_kouhyou_detail_004_kani=true&JigyosyoCd=0390500189-00&ServiceCd=320&Type=search" }, "geometry": { "type": "Point", "coordinates": [ 141.168920500000013, 39.408174700000032 ] } },
{ "type": "Feature", "properties": { "内容": "横川目グループホーム長寿園【認知症対応型共同生活介護】岩手県北上市和賀町横川目13―3－4", "url2": "https://www.kaigokensaku.mhlw.go.jp/03/index.php?action_kouhyou_detail_004_kani=true&JigyosyoCd=0390600153-00&ServiceCd=320&Type=search" }, "geometry": { "type": "Point", "coordinates": [ 140.971721099999968, 39.3109659 ] } },
{ "type": "Feature", "properties": { "内容": "あいさりグループホーム長寿園【認知症対応型共同生活介護】岩手県北上市相去町和田98-3", "url2": "https://www.kaigokensaku.mhlw.go.jp/03/index.php?action_kouhyou_detail_004_kani=true&JigyosyoCd=0390600211-00&ServiceCd=320&Type=search" }, "geometry": { "type": "Point", "coordinates": [ 141.093828300000041, 39.2357617 ] } },
{ "type": "Feature", "properties": { "内容": "はとおかざきグループホーム長寿園【認知症対応型共同生活介護】岩手県北上市鳩岡崎3-32-1", "url2": "https://www.kaigokensaku.mhlw.go.jp/03/index.php?action_kouhyou_detail_004_kani=true&JigyosyoCd=0390600286-00&ServiceCd=320&Type=search" }, "geometry": { "type": "Point", "coordinates": [ 141.083325330163547, 39.312104888936176 ] } },
{ "type": "Feature", "properties": { "内容": "グループホームいいとよ【認知症対応型共同生活介護】岩手県北上市村崎野12地割74番地28", "url2": "https://www.kaigokensaku.mhlw.go.jp/03/index.php?action_kouhyou_detail_004_kani=true&JigyosyoCd=0370600512-00&ServiceCd=320&Type=search" }, "geometry": { "type": "Point", "coordinates": [ 141.098493599999983, 39.3325567 ] } },
{ "type": "Feature", "properties": { "内容": "グループホームわがの里【認知症対応型共同生活介護】岩手県北上市下江釣子１１地割２番地１７", "url2": "https://www.kaigokensaku.mhlw.go.jp/03/index.php?action_kouhyou_detail_004_kani=true&JigyosyoCd=0390600062-00&ServiceCd=320&Type=search" }, "geometry": { "type": "Point", "coordinates": [ 141.037835299999983, 39.2958286 ] } },
{ "type": "Feature", "properties": { "内容": "グループホームうえのまち【認知症対応型共同生活介護】岩手県北上市上野町一丁目７－１", "url2": "https://www.kaigokensaku.mhlw.go.jp/03/index.php?action_kouhyou_detail_004_kani=true&JigyosyoCd=0390600096-00&ServiceCd=320&Type=search" }, "geometry": { "type": "Point", "coordinates": [ 141.125497799999948, 39.296766400000017 ] } },
{ "type": "Feature", "properties": { "内容": "ニチイケアセンター黒沢尻【認知症対応型共同生活介護】岩手県北上市さくら通り三丁目１８番１０号", "url2": "https://www.kaigokensaku.mhlw.go.jp/03/index.php?action_kouhyou_detail_004_kani=true&JigyosyoCd=0390600187-00&ServiceCd=320&Type=search" }, "geometry": { "type": "Point", "coordinates": [ 141.113684899999953, 39.2981716 ] } },
{ "type": "Feature", "properties": { "内容": "ニチイケアセンター北上駅前【認知症対応型共同生活介護】岩手県北上市若宮町一丁目5番5号", "url2": "https://www.kaigokensaku.mhlw.go.jp/03/index.php?action_kouhyou_detail_004_kani=true&JigyosyoCd=0390600294-00&ServiceCd=320&Type=search" }, "geometry": { "type": "Point", "coordinates": [ 141.118526699999961, 39.2791239 ] } },
{ "type": "Feature", "properties": { "内容": "あったかいごグループホーム大堤【認知症対応型共同生活介護】岩手県北上市大堤東２丁目1-32", "url2": "https://www.kaigokensaku.mhlw.go.jp/03/index.php?action_kouhyou_detail_004_kani=true&JigyosyoCd=0390600401-00&ServiceCd=320&Type=search" }, "geometry": { "type": "Point", "coordinates": [ 141.10867749999997, 39.2629772 ] } },
{ "type": "Feature", "properties": { "内容": "グループホームくちない【認知症対応型共同生活介護】岩手県北上市口内町久田２５－１０", "url2": "https://www.kaigokensaku.mhlw.go.jp/03/index.php?action_kouhyou_detail_004_kani=true&JigyosyoCd=0390600195-00&ServiceCd=320&Type=search" }, "geometry": { "type": "Point", "coordinates": [ 141.210629599999947, 39.2889088 ] } },
{ "type": "Feature", "properties": { "内容": "グループホームつどい【認知症対応型共同生活介護】岩手県北上市諏訪町1丁目3番17号", "url2": "https://www.kaigokensaku.mhlw.go.jp/03/index.php?action_kouhyou_detail_004_kani=true&JigyosyoCd=0390600203-00&ServiceCd=320&Type=search" }, "geometry": { "type": "Point", "coordinates": [ 141.1190604, 39.2870138 ] } },
{ "type": "Feature", "properties": { "内容": "グループホームつどい花園町【認知症対応型共同生活介護】岩手県北上市花園町2丁目2番25号", "url2": "https://www.kaigokensaku.mhlw.go.jp/03/index.php?action_kouhyou_detail_004_kani=true&JigyosyoCd=0390600336-00&ServiceCd=320&Type=search" }, "geometry": { "type": "Point", "coordinates": [ 141.1188181, 39.2885089 ] } },
{ "type": "Feature", "properties": { "内容": "グループホームやちだもの家北上【認知症対応型共同生活介護】岩手県北上市立花17地割1-2ケアタウンやちだもの家北上A棟", "url2": "https://www.kaigokensaku.mhlw.go.jp/03/index.php?action_kouhyou_detail_004_kani=true&JigyosyoCd=0390600229-00&ServiceCd=320&Type=search" }, "geometry": { "type": "Point", "coordinates": [ 141.13987961387781, 39.28204581091348 ] } },
{ "type": "Feature", "properties": { "内容": "グループホームおおきな木【認知症対応型共同生活介護】岩手県北上市村崎野２０地割６４番地３", "url2": "https://www.kaigokensaku.mhlw.go.jp/03/index.php?action_kouhyou_detail_004_kani=true&JigyosyoCd=0390600377-00&ServiceCd=320&Type=search" }, "geometry": { "type": "Point", "coordinates": [ 141.106918736660447, 39.342855612635411 ] } },
{ "type": "Feature", "properties": { "内容": "認知症対応型共同生活介護しらかば園【認知症対応型共同生活介護】岩手県久慈市山形町川井10-55-1", "url2": "https://www.kaigokensaku.mhlw.go.jp/03/index.php?action_kouhyou_detail_004_kani=true&JigyosyoCd=0390700110-00&ServiceCd=320&Type=search" }, "geometry": { "type": "Point", "coordinates": [ 141.5704819, 40.1491396 ] } },
{ "type": "Feature", "properties": { "内容": "グループホームひだまり【認知症対応型共同生活介護】岩手県久慈市栄町32地割37番地９", "url2": "https://www.kaigokensaku.mhlw.go.jp/03/index.php?action_kouhyou_detail_004_kani=true&JigyosyoCd=0390700029-00&ServiceCd=320&Type=search" }, "geometry": { "type": "Point", "coordinates": [ 141.759565025165926, 40.195552741137043 ] } },
{ "type": "Feature", "properties": { "内容": "グループホームあさひ【認知症対応型共同生活介護】岩手県久慈市旭町第１０地割６６番地１", "url2": "https://www.kaigokensaku.mhlw.go.jp/03/index.php?action_kouhyou_detail_004_kani=true&JigyosyoCd=0390700052-00&ServiceCd=320&Type=search" }, "geometry": { "type": "Point", "coordinates": [ 141.7789957, 40.1987205 ] } },
{ "type": "Feature", "properties": { "内容": "グループホームあさひ東館【認知症対応型共同生活介護】岩手県久慈市旭町第11地割22番地6", "url2": "https://www.kaigokensaku.mhlw.go.jp/03/index.php?action_kouhyou_detail_004_kani=true&JigyosyoCd=0390700060-00&ServiceCd=320&Type=search" }, "geometry": { "type": "Point", "coordinates": [ 141.780159700000013, 40.1989704 ] } },
{ "type": "Feature", "properties": { "内容": "グループホームやすらぎの里【認知症対応型共同生活介護】岩手県久慈市新中の橋第4地割12番地2", "url2": "https://www.kaigokensaku.mhlw.go.jp/03/index.php?action_kouhyou_detail_004_kani=true&JigyosyoCd=0370700288-00&ServiceCd=320&Type=search" }, "geometry": { "type": "Point", "coordinates": [ 141.769095240413606, 40.195374428809352 ] } },
{ "type": "Feature", "properties": { "内容": "グループホームかなえ【認知症対応型共同生活介護】岩手県遠野市穀町１３番地１号", "url2": "https://www.kaigokensaku.mhlw.go.jp/03/index.php?action_kouhyou_detail_004_kani=true&JigyosyoCd=0390800142-00&ServiceCd=320&Type=search" }, "geometry": { "type": "Point", "coordinates": [ 141.5345706, 39.3291918 ] } },
{ "type": "Feature", "properties": { "内容": "グループホーム長寿庵【認知症対応型共同生活介護】岩手県遠野市材木町2-22", "url2": "https://www.kaigokensaku.mhlw.go.jp/03/index.php?action_kouhyou_detail_004_kani=true&JigyosyoCd=0390800043-00&ServiceCd=320&Type=search" }, "geometry": { "type": "Point", "coordinates": [ 141.5300942, 39.3335356 ] } },
{ "type": "Feature", "properties": { "内容": "グループホームあったかいごひといち【認知症対応型共同生活介護】岩手県遠野市中央通り5-25", "url2": "https://www.kaigokensaku.mhlw.go.jp/03/index.php?action_kouhyou_detail_004_kani=true&JigyosyoCd=0390800126-00&ServiceCd=320&Type=search" }, "geometry": { "type": "Point", "coordinates": [ 141.5311017, 39.3294561 ] } },
{ "type": "Feature", "properties": { "内容": "グループホームおらほの家【認知症対応型共同生活介護】岩手県遠野市下組町１１－４９", "url2": "https://www.kaigokensaku.mhlw.go.jp/03/index.php?action_kouhyou_detail_004_kani=true&JigyosyoCd=0370800211-00&ServiceCd=320&Type=search" }, "geometry": { "type": "Point", "coordinates": [ 141.517296399999964, 39.3257653 ] } },
{ "type": "Feature", "properties": { "内容": "グループホームおらほの家（別家）【認知症対応型共同生活介護】岩手県遠野市下組町11-49", "url2": "https://www.kaigokensaku.mhlw.go.jp/03/index.php?action_kouhyou_detail_004_kani=true&JigyosyoCd=0390800092-00&ServiceCd=320&Type=search" }, "geometry": { "type": "Point", "coordinates": [ 141.516699286683121, 39.325826715196577 ] } },
{ "type": "Feature", "properties": { "内容": "グループホームひだまり上郷【認知症対応型共同生活介護】岩手県遠野市上郷町佐比内46-23-2", "url2": "https://www.kaigokensaku.mhlw.go.jp/03/index.php?action_kouhyou_detail_004_kani=true&JigyosyoCd=0390800084-00&ServiceCd=320&Type=search" }, "geometry": { "type": "Point", "coordinates": [ 141.592755200000056, 39.2852826 ] } },
{ "type": "Feature", "properties": { "内容": "あお空グループホーム青笹【認知症対応型共同生活介護】岩手県遠野市青笹町11-3-11", "url2": "https://www.kaigokensaku.mhlw.go.jp/03/index.php?action_kouhyou_detail_004_kani=true&JigyosyoCd=0390800068-00&ServiceCd=320&Type=search" }, "geometry": { "type": "Point", "coordinates": [ 141.571681347639128, 39.319945367272986 ] } },
{ "type": "Feature", "properties": { "内容": "ケアビレッジ一関ケアサービスステーション認知症対応型共同生活介護事業所【認知症対応型共同生活介護】岩手県一関市赤荻字月町176番地", "url2": "https://www.kaigokensaku.mhlw.go.jp/03/index.php?action_kouhyou_detail_004_kani=true&JigyosyoCd=0390900405-00&ServiceCd=320&Type=search" }, "geometry": { "type": "Point", "coordinates": [ 141.10199080000001, 38.9408433 ] } },
{ "type": "Feature", "properties": { "内容": "高齢者グループホームいこいの華【認知症対応型共同生活介護】岩手県一関市花泉町花泉字地平21－8", "url2": "https://www.kaigokensaku.mhlw.go.jp/03/index.php?action_kouhyou_detail_004_kani=true&JigyosyoCd=0390900082-00&ServiceCd=320&Type=search" }, "geometry": { "type": "Point", "coordinates": [ 141.17754709999997, 38.8338094 ] } },
{ "type": "Feature", "properties": { "内容": "高齢者グループホームいこいの友【認知症対応型共同生活介護】岩手県一関市三関字仲田101", "url2": "https://www.kaigokensaku.mhlw.go.jp/03/index.php?action_kouhyou_detail_004_kani=true&JigyosyoCd=0390900272-00&ServiceCd=320&Type=search" }, "geometry": { "type": "Point", "coordinates": [ 141.149704199999974, 38.9260169 ] } },
{ "type": "Feature", "properties": { "内容": "グループホームことぶき【認知症対応型共同生活介護】岩手県一関市川崎町薄衣字久伝２６番地", "url2": "https://www.kaigokensaku.mhlw.go.jp/03/index.php?action_kouhyou_detail_004_kani=true&JigyosyoCd=0370901019-00&ServiceCd=320&Type=search" }, "geometry": { "type": "Point", "coordinates": [ 141.274171499999966, 38.9003654 ] } },
{ "type": "Feature", "properties": { "内容": "孝養ハイツグループホーム【認知症対応型共同生活介護】岩手県一関市室根町折壁字向山６７－３", "url2": "https://www.kaigokensaku.mhlw.go.jp/03/index.php?action_kouhyou_detail_004_kani=true&JigyosyoCd=0390900025-00&ServiceCd=320&Type=search" }, "geometry": { "type": "Point", "coordinates": [ 141.440141700000027, 38.9354945 ] } },
{ "type": "Feature", "properties": { "内容": "認知症高齢者グループホームほっとスマイル【認知症対応型共同生活介護】岩手県一関市三関字小沢47-2", "url2": "https://www.kaigokensaku.mhlw.go.jp/03/index.php?action_kouhyou_detail_004_kani=true&JigyosyoCd=0390900033-00&ServiceCd=320&Type=search" }, "geometry": { "type": "Point", "coordinates": [ 141.147210099999938, 38.9217924 ] } },
{ "type": "Feature", "properties": { "内容": "グループホームにこにこだいとう【認知症対応型共同生活介護】岩手県一関市大東町猿沢字板倉６０－１", "url2": "https://www.kaigokensaku.mhlw.go.jp/03/index.php?action_kouhyou_detail_004_kani=true&JigyosyoCd=0372700641-00&ServiceCd=320&Type=search" }, "geometry": { "type": "Point", "coordinates": [ 141.294608899999957, 39.034001 ] } },
{ "type": "Feature", "properties": { "内容": "グループホームにこにこひがしやま【認知症対応型共同生活介護】岩手県一関市東山町長坂字北磐井里187番地3", "url2": "https://www.kaigokensaku.mhlw.go.jp/03/index.php?action_kouhyou_detail_004_kani=true&JigyosyoCd=0390900074-00&ServiceCd=320&Type=search" }, "geometry": { "type": "Point", "coordinates": [ 141.261657199999945, 39.0106112 ] } },
{ "type": "Feature", "properties": { "内容": "認知症高齢者グループホームゆいとり【認知症対応型共同生活介護】岩手県一関市赤荻字月町17", "url2": "https://www.kaigokensaku.mhlw.go.jp/03/index.php?action_kouhyou_detail_004_kani=true&JigyosyoCd=0370900425-00&ServiceCd=320&Type=search" }, "geometry": { "type": "Point", "coordinates": [ 141.105613299999959, 38.9399612 ] } },
{ "type": "Feature", "properties": { "内容": "認知症高齢者グループホームつどい【認知症対応型共同生活介護】岩手県一関市中里字石川瀬１３－１", "url2": "https://www.kaigokensaku.mhlw.go.jp/03/index.php?action_kouhyou_detail_004_kani=true&JigyosyoCd=0370901001-00&ServiceCd=320&Type=search" }, "geometry": { "type": "Point", "coordinates": [ 141.151627049769559, 38.941019721740098 ] } },
{ "type": "Feature", "properties": { "内容": "認知症高齢者グループホーム金木犀【認知症対応型共同生活介護】岩手県一関市宮前町14-9", "url2": "https://www.kaigokensaku.mhlw.go.jp/03/index.php?action_kouhyou_detail_004_kani=true&JigyosyoCd=0390900330-00&ServiceCd=320&Type=search" }, "geometry": { "type": "Point", "coordinates": [ 141.126544428836041, 38.938689729466887 ] } },
{ "type": "Feature", "properties": { "内容": "グループホームさくらのいえ【認知症対応型共同生活介護】岩手県一関市三関字日照77-2", "url2": "https://www.kaigokensaku.mhlw.go.jp/03/index.php?action_kouhyou_detail_004_kani=true&JigyosyoCd=0370900540-00&ServiceCd=320&Type=search" }, "geometry": { "type": "Point", "coordinates": [ 141.149390199999971, 38.9290249 ] } },
{ "type": "Feature", "properties": { "内容": "グループホーム美葉【認知症対応型共同生活介護】岩手県一関市千厩町千厩字岩間３８番地４", "url2": "https://www.kaigokensaku.mhlw.go.jp/03/index.php?action_kouhyou_detail_004_kani=true&JigyosyoCd=0372700716-00&ServiceCd=320&Type=search" }, "geometry": { "type": "Point", "coordinates": [ 141.358921399999986, 38.9174386 ] } },
{ "type": "Feature", "properties": { "内容": "グループホームなかがわ【認知症対応型共同生活介護】岩手県一関市大東町中川字中大畑97番地1", "url2": "https://www.kaigokensaku.mhlw.go.jp/03/index.php?action_kouhyou_detail_004_kani=true&JigyosyoCd=0390900108-00&ServiceCd=320&Type=search" }, "geometry": { "type": "Point", "coordinates": [ 141.382780599999933, 39.0648861 ] } },
{ "type": "Feature", "properties": { "内容": "グループホームぽらん千厩【認知症対応型共同生活介護】岩手県一関市千厩町千厩字前田２２９", "url2": "https://www.kaigokensaku.mhlw.go.jp/03/index.php?action_kouhyou_detail_004_kani=true&JigyosyoCd=0390900116-00&ServiceCd=320&Type=search" }, "geometry": { "type": "Point", "coordinates": [ 141.338503899999978, 38.9146498 ] } },
{ "type": "Feature", "properties": { "内容": "シルバーヘルス認知症対応型共同生活介護事業所「昴」【認知症対応型共同生活介護】岩手県一関市字沢298番地2", "url2": "https://www.kaigokensaku.mhlw.go.jp/03/index.php?action_kouhyou_detail_004_kani=true&JigyosyoCd=0390900124-00&ServiceCd=320&Type=search" }, "geometry": { "type": "Point", "coordinates": [ 141.151361612828026, 38.901877525126721 ] } },
{ "type": "Feature", "properties": { "内容": "グループホームぽらん室根【認知症対応型共同生活介護】岩手県一関市折壁字兵沢１１４番地１", "url2": "https://www.kaigokensaku.mhlw.go.jp/03/index.php?action_kouhyou_detail_004_kani=true&JigyosyoCd=0390900140-00&ServiceCd=320&Type=search" }, "geometry": { "type": "Point", "coordinates": [ 141.462360900000022, 38.9499406 ] } },
{ "type": "Feature", "properties": { "内容": "グループホームすりさわ【認知症対応型共同生活介護】岩手県一関市大東町摺沢字但馬崎２５番地１６", "url2": "https://www.kaigokensaku.mhlw.go.jp/03/index.php?action_kouhyou_detail_004_kani=true&JigyosyoCd=0390900165-00&ServiceCd=320&Type=search" }, "geometry": { "type": "Point", "coordinates": [ 141.329765299999963, 38.9949101 ] } },
{ "type": "Feature", "properties": { "内容": "グループホームふるさと【認知症対応型共同生活介護】岩手県一関市花泉町金沢字運南田170-1グループホームふるさと", "url2": "https://www.kaigokensaku.mhlw.go.jp/03/index.php?action_kouhyou_detail_004_kani=true&JigyosyoCd=0390900306-00&ServiceCd=320&Type=search" }, "geometry": { "type": "Point", "coordinates": [ 141.156603, 38.8613333 ] } },
{ "type": "Feature", "properties": { "内容": "Lagom東五代【認知症対応型共同生活介護】岩手県一関市東五代4-18", "url2": "https://www.kaigokensaku.mhlw.go.jp/03/index.php?action_kouhyou_detail_004_kani=true&JigyosyoCd=0390900447-00&ServiceCd=320&Type=search" }, "geometry": { "type": "Point", "coordinates": [ 141.132933958999615, 38.940345475527614 ] } },
{ "type": "Feature", "properties": { "内容": "グループホームひまわり畑【認知症対応型共同生活介護】岩手県一関市藤沢町徳田字馬場10番地2", "url2": "https://www.kaigokensaku.mhlw.go.jp/03/index.php?action_kouhyou_detail_004_kani=true&JigyosyoCd=0392700019-00&ServiceCd=320&Type=search" }, "geometry": { "type": "Point", "coordinates": [ 141.372842399999968, 38.8667812 ] } },
{ "type": "Feature", "properties": { "内容": "福光園グループホームフクちゃんハウス【認知症対応型共同生活介護】岩手県一関市萩荘字大袋306番地1", "url2": "https://www.kaigokensaku.mhlw.go.jp/03/index.php?action_kouhyou_detail_004_kani=true&JigyosyoCd=0370900573-00&ServiceCd=320&Type=search" }, "geometry": { "type": "Point", "coordinates": [ 141.078657776258495, 38.937729005709123 ] } },
{ "type": "Feature", "properties": { "内容": "グループホームさくら花泉【認知症対応型共同生活介護】岩手県一関市花泉町涌津字二ノ町43-1", "url2": "https://www.kaigokensaku.mhlw.go.jp/03/index.php?action_kouhyou_detail_004_kani=true&JigyosyoCd=0390900090-00&ServiceCd=320&Type=search" }, "geometry": { "type": "Point", "coordinates": [ 141.184216099999958, 38.8288935 ] } },
{ "type": "Feature", "properties": { "内容": "グループホーム金山【認知症対応型共同生活介護】岩手県陸前高田市竹駒町字相川73-30", "url2": "https://www.kaigokensaku.mhlw.go.jp/03/index.php?action_kouhyou_detail_004_kani=true&JigyosyoCd=0391000023-00&ServiceCd=320&Type=search" }, "geometry": { "type": "Point", "coordinates": [ 141.621417, 39.033741400000011 ] } },
{ "type": "Feature", "properties": { "内容": "グループホーム「箱根山」【認知症対応型共同生活介護】岩手県陸前高田市小友町字猪森７７", "url2": "https://www.kaigokensaku.mhlw.go.jp/03/index.php?action_kouhyou_detail_004_kani=true&JigyosyoCd=0391000114-00&ServiceCd=320&Type=search" }, "geometry": { "type": "Point", "coordinates": [ 141.70024774663122, 38.993184855024431 ] } },
{ "type": "Feature", "properties": { "内容": "グループホーム「氷上山」【認知症対応型共同生活介護】岩手県陸前高田市高田町字大隅8番地6地域密着型介護老人福祉施設「陸前高田」", "url2": "https://www.kaigokensaku.mhlw.go.jp/03/index.php?action_kouhyou_detail_004_kani=true&JigyosyoCd=0391000098-00&ServiceCd=320&Type=search" }, "geometry": { "type": "Point", "coordinates": [ 141.636346099999969, 39.0332048 ] } },
{ "type": "Feature", "properties": { "内容": "グループホームさわこ【認知症対応型共同生活介護】岩手県釜石市栗林町9-10-9", "url2": "https://www.kaigokensaku.mhlw.go.jp/03/index.php?action_kouhyou_detail_004_kani=true&JigyosyoCd=0391100070-00&ServiceCd=320&Type=search" }, "geometry": { "type": "Point", "coordinates": [ 135.939140899999984, 34.9918003 ] } },
{ "type": "Feature", "properties": { "内容": "グループホーム・ファミリア【認知症対応型共同生活介護】岩手県釜石市甲子町第15地割86番地5カサ・デ・ファミリア3F", "url2": "https://www.kaigokensaku.mhlw.go.jp/03/index.php?action_kouhyou_detail_004_kani=true&JigyosyoCd=0391100138-00&ServiceCd=320&Type=search" }, "geometry": { "type": "Point", "coordinates": [ 141.829515799999967, 39.2698739 ] } },
{ "type": "Feature", "properties": { "内容": "ＳＯＭＰＯケアそんぽの家ＧＨ釜石平田【認知症対応型共同生活介護】岩手県釜石市大字平田第一地割1番31", "url2": "https://www.kaigokensaku.mhlw.go.jp/03/index.php?action_kouhyou_detail_004_kani=true&JigyosyoCd=0391100153-00&ServiceCd=320&Type=search" }, "geometry": { "type": "Point", "coordinates": [ 141.880337514016674, 39.246853078426525 ] } },
{ "type": "Feature", "properties": { "内容": "スマートホーム・パティオ【認知症対応型共同生活介護】岩手県釜石市小佐野町2-3-39", "url2": "https://www.kaigokensaku.mhlw.go.jp/03/index.php?action_kouhyou_detail_004_kani=true&JigyosyoCd=0391100021-00&ServiceCd=320&Type=search" }, "geometry": { "type": "Point", "coordinates": [ 141.84127060000003, 39.2640638 ] } },
{ "type": "Feature", "properties": { "内容": "グループホームさくら【認知症対応型共同生活介護】岩手県釜石市甲子町第5地割2番地4", "url2": "https://www.kaigokensaku.mhlw.go.jp/03/index.php?action_kouhyou_detail_004_kani=true&JigyosyoCd=0391100096-00&ServiceCd=320&Type=search" }, "geometry": { "type": "Point", "coordinates": [ 141.7621077, 39.2497048 ] } },
{ "type": "Feature", "properties": { "内容": "グループホームございしょの里【認知症対応型共同生活介護】岩手県釜石市鵜住居町第23地割21番地1", "url2": "https://www.kaigokensaku.mhlw.go.jp/03/index.php?action_kouhyou_detail_004_kani=true&JigyosyoCd=0371100413-00&ServiceCd=320&Type=search" }, "geometry": { "type": "Point", "coordinates": [ 141.887917900000048, 39.3223017 ] } },
{ "type": "Feature", "properties": { "内容": "あお空グループホーム釜石【認知症対応型共同生活介護】岩手県釜石市片岸町第2地割13番地-28", "url2": "https://www.kaigokensaku.mhlw.go.jp/03/index.php?action_kouhyou_detail_004_kani=true&JigyosyoCd=0391100047-00&ServiceCd=320&Type=search" }, "geometry": { "type": "Point", "coordinates": [ 141.8886817, 39.334905700000014 ] } },
{ "type": "Feature", "properties": { "内容": "グループホームやかた【認知症対応型共同生活介護】岩手県釜石市大町３丁目９番１６号", "url2": "https://www.kaigokensaku.mhlw.go.jp/03/index.php?action_kouhyou_detail_004_kani=true&JigyosyoCd=0391100062-00&ServiceCd=320&Type=search" }, "geometry": { "type": "Point", "coordinates": [ 141.882030906745968, 39.275515095703909 ] } },
{ "type": "Feature", "properties": { "内容": "グループホームおからぎ【認知症対応型共同生活介護】岩手県二戸市堀野字大川原毛89-12", "url2": "https://www.kaigokensaku.mhlw.go.jp/03/index.php?action_kouhyou_detail_004_kani=true&JigyosyoCd=0391300043-00&ServiceCd=320&Type=search" }, "geometry": { "type": "Point", "coordinates": [ 141.304876799999988, 40.2991452 ] } },
{ "type": "Feature", "properties": { "内容": "グループホームアミーチ【認知症対応型共同生活介護】岩手県二戸市以鳥字上平１５－１－２", "url2": "https://www.kaigokensaku.mhlw.go.jp/03/index.php?action_kouhyou_detail_004_kani=true&JigyosyoCd=0391300100-00&ServiceCd=320&Type=search" }, "geometry": { "type": "Point", "coordinates": [ 141.243140199999971, 40.2400954 ] } },
{ "type": "Feature", "properties": { "内容": "グループホームさくら【認知症対応型共同生活介護】岩手県二戸市石切所字森合31", "url2": "https://www.kaigokensaku.mhlw.go.jp/03/index.php?action_kouhyou_detail_004_kani=true&JigyosyoCd=0391300027-00&ServiceCd=320&Type=search" }, "geometry": { "type": "Point", "coordinates": [ 141.2880106, 40.2609502 ] } },
{ "type": "Feature", "properties": { "内容": "共生型グループホーム白山の里【認知症対応型共同生活介護】岩手県八幡平市田頭12-18-1", "url2": "https://www.kaigokensaku.mhlw.go.jp/03/index.php?action_kouhyou_detail_004_kani=true&JigyosyoCd=0391400041-00&ServiceCd=320&Type=search" }, "geometry": { "type": "Point", "coordinates": [ 141.062701899999979, 39.9300266 ] } },
{ "type": "Feature", "properties": { "内容": "グループホームやがみ【認知症対応型共同生活介護】岩手県八幡平市丑山口28番地１", "url2": "https://www.kaigokensaku.mhlw.go.jp/03/index.php?action_kouhyou_detail_004_kani=true&JigyosyoCd=0391400058-00&ServiceCd=320&Type=search" }, "geometry": { "type": "Point", "coordinates": [ 140.952562100000023, 40.1358885 ] } },
{ "type": "Feature", "properties": { "内容": "認知症対応型グループホームぱんたれい【認知症対応型共同生活介護】岩手県八幡平市田頭22-108-4", "url2": "https://www.kaigokensaku.mhlw.go.jp/03/index.php?action_kouhyou_detail_004_kani=true&JigyosyoCd=0391400108-00&ServiceCd=320&Type=search" }, "geometry": { "type": "Point", "coordinates": [ 141.085904812828062, 39.915026018001136 ] } },
{ "type": "Feature", "properties": { "内容": "むらさき苑かまどわの家【認知症対応型共同生活介護】岩手県八幡平市田頭２４地割３６番地", "url2": "https://www.kaigokensaku.mhlw.go.jp/03/index.php?action_kouhyou_detail_004_kani=true&JigyosyoCd=0372101105-00&ServiceCd=320&Type=search" }, "geometry": { "type": "Point", "coordinates": [ 141.086445, 39.9189703 ] } },
{ "type": "Feature", "properties": { "内容": "グループホームななしぐれ【認知症対応型共同生活介護】岩手県八幡平市堀切第14地割10番地7", "url2": "https://www.kaigokensaku.mhlw.go.jp/03/index.php?action_kouhyou_detail_004_kani=true&JigyosyoCd=0391400017-00&ServiceCd=320&Type=search" }, "geometry": { "type": "Point", "coordinates": [ 141.098122800000027, 39.9542664 ] } },
{ "type": "Feature", "properties": { "内容": "グループホームポランの広場いなせ【認知症対応型共同生活介護】岩手県奥州市江刺稲瀬字水先629", "url2": "https://www.kaigokensaku.mhlw.go.jp/03/index.php?action_kouhyou_detail_004_kani=true&JigyosyoCd=0391500105-00&ServiceCd=320&Type=search" }, "geometry": { "type": "Point", "coordinates": [ 141.12461380000002, 39.2294189 ] } },
{ "type": "Feature", "properties": { "内容": "グループホームはごろも【認知症対応型共同生活介護】岩手県奥州市衣川古戸４５番地", "url2": "https://www.kaigokensaku.mhlw.go.jp/03/index.php?action_kouhyou_detail_004_kani=true&JigyosyoCd=0372500553-00&ServiceCd=320&Type=search" }, "geometry": { "type": "Point", "coordinates": [ 141.064495438028757, 39.038110916524467 ] } },
{ "type": "Feature", "properties": { "内容": "グループホームまえさわ苑折居館【認知症対応型共同生活介護】岩手県奥州市前沢古城字北舘２１番地１", "url2": "https://www.kaigokensaku.mhlw.go.jp/03/index.php?action_kouhyou_detail_004_kani=true&JigyosyoCd=0391500238-00&ServiceCd=320&Type=search" }, "geometry": { "type": "Point", "coordinates": [ 141.135059599999977, 39.093512 ] } },
{ "type": "Feature", "properties": { "内容": "グループホームかつひろの家【認知症対応型共同生活介護】岩手県奥州市江刺岩谷堂字反町361-1", "url2": "https://www.kaigokensaku.mhlw.go.jp/03/index.php?action_kouhyou_detail_004_kani=true&JigyosyoCd=0371200239-00&ServiceCd=320&Type=search" }, "geometry": { "type": "Point", "coordinates": [ 141.184585573064936, 39.182523798924251 ] } },
{ "type": "Feature", "properties": { "内容": "グループホーム花の家【認知症対応型共同生活介護】岩手県奥州市江刺田原字大日195番地１", "url2": "https://www.kaigokensaku.mhlw.go.jp/03/index.php?action_kouhyou_detail_004_kani=true&JigyosyoCd=0371200387-00&ServiceCd=320&Type=search" }, "geometry": { "type": "Point", "coordinates": [ 141.204012400000011, 39.16207 ] } },
{ "type": "Feature", "properties": { "内容": "グループホームシリウス奥州【認知症対応型共同生活介護】岩手県奥州市水沢字水山4番地1", "url2": "https://www.kaigokensaku.mhlw.go.jp/03/index.php?action_kouhyou_detail_004_kani=true&JigyosyoCd=0391500030-00&ServiceCd=320&Type=search" }, "geometry": { "type": "Point", "coordinates": [ 141.130344499999978, 39.1466699 ] } },
{ "type": "Feature", "properties": { "内容": "グループホームシリウス前沢【認知症対応型共同生活介護】岩手県奥州市前沢あすか通四丁目8番地15", "url2": "https://www.kaigokensaku.mhlw.go.jp/03/index.php?action_kouhyou_detail_004_kani=true&JigyosyoCd=0391500063-00&ServiceCd=320&Type=search" }, "geometry": { "type": "Point", "coordinates": [ 141.126650599999948, 39.0583569 ] } },
{ "type": "Feature", "properties": { "内容": "グループホームふじの里【認知症対応型共同生活介護】岩手県奥州市江刺藤里字平37番地2", "url2": "https://www.kaigokensaku.mhlw.go.jp/03/index.php?action_kouhyou_detail_004_kani=true&JigyosyoCd=0391500154-00&ServiceCd=320&Type=search" }, "geometry": { "type": "Point", "coordinates": [ 141.234172299999955, 39.1874707 ] } },
{ "type": "Feature", "properties": { "内容": "グループホームひだまり【認知症対応型共同生活介護】岩手県奥州市水沢羽田町字久保３７番地", "url2": "https://www.kaigokensaku.mhlw.go.jp/03/index.php?action_kouhyou_detail_004_kani=true&JigyosyoCd=0370400376-00&ServiceCd=320&Type=search" }, "geometry": { "type": "Point", "coordinates": [ 141.1827538, 39.1434688 ] } },
{ "type": "Feature", "properties": { "内容": "グループホームぬくもりの家【認知症対応型共同生活介護】岩手県奥州市胆沢南都田字大持30番地", "url2": "https://www.kaigokensaku.mhlw.go.jp/03/index.php?action_kouhyou_detail_004_kani=true&JigyosyoCd=0372500496-00&ServiceCd=320&Type=search" }, "geometry": { "type": "Point", "coordinates": [ 141.06935610000005, 39.129350500000015 ] } },
{ "type": "Feature", "properties": { "内容": "グループホームひだまり２【認知症対応型共同生活介護】岩手県奥州市水沢羽田町久保53番地3", "url2": "https://www.kaigokensaku.mhlw.go.jp/03/index.php?action_kouhyou_detail_004_kani=true&JigyosyoCd=0391500089-00&ServiceCd=320&Type=search" }, "geometry": { "type": "Point", "coordinates": [ 141.18232050000006, 39.1435966 ] } },
{ "type": "Feature", "properties": { "内容": "グループホームじゅあんの園【認知症対応型共同生活介護】岩手県奥州市胆沢南都田字石行30番地１いさわ高齢者複合施設じゅあんの園", "url2": "https://www.kaigokensaku.mhlw.go.jp/03/index.php?action_kouhyou_detail_004_kani=true&JigyosyoCd=0391500204-00&ServiceCd=320&Type=search" }, "geometry": { "type": "Point", "coordinates": [ 141.091831500000012, 39.1414443 ] } },
{ "type": "Feature", "properties": { "内容": "グループホームいさわ【認知症対応型共同生活介護】岩手県奥州市胆沢南都田字蛸の手443", "url2": "https://www.kaigokensaku.mhlw.go.jp/03/index.php?action_kouhyou_detail_004_kani=true&JigyosyoCd=0391500303-00&ServiceCd=320&Type=search" }, "geometry": { "type": "Point", "coordinates": [ 141.073287558413767, 39.113199952924575 ] } },
{ "type": "Feature", "properties": { "内容": "グループホームもたい【認知症対応型共同生活介護】岩手県奥州市前沢生母字中道３番地２", "url2": "https://www.kaigokensaku.mhlw.go.jp/03/index.php?action_kouhyou_detail_004_kani=true&JigyosyoCd=0391500055-00&ServiceCd=320&Type=search" }, "geometry": { "type": "Point", "coordinates": [ 141.173584842163081, 39.058925806425478 ] } },
{ "type": "Feature", "properties": { "内容": "グループホームときわの里【認知症対応型共同生活介護】岩手県奥州市水沢中田町4番19号", "url2": "https://www.kaigokensaku.mhlw.go.jp/03/index.php?action_kouhyou_detail_004_kani=true&JigyosyoCd=0391500147-00&ServiceCd=320&Type=search" }, "geometry": { "type": "Point", "coordinates": [ 141.152678289549243, 39.132561055551584 ] } },
{ "type": "Feature", "properties": { "内容": "グループホームあてるい【認知症対応型共同生活介護】岩手県奥州市水沢佐倉河字石橋7番地", "url2": "https://www.kaigokensaku.mhlw.go.jp/03/index.php?action_kouhyou_detail_004_kani=true&JigyosyoCd=0391500352-00&ServiceCd=320&Type=search" }, "geometry": { "type": "Point", "coordinates": [ 141.153570299999956, 39.1481063 ] } },
{ "type": "Feature", "properties": { "内容": "グループホームえんじゅの里【認知症対応型共同生活介護】岩手県奥州市水沢真城字杉ノ下131番地", "url2": "https://www.kaigokensaku.mhlw.go.jp/03/index.php?action_kouhyou_detail_004_kani=true&JigyosyoCd=0391500360-00&ServiceCd=320&Type=search" }, "geometry": { "type": "Point", "coordinates": [ 141.149429899999973, 39.1131631 ] } },
{ "type": "Feature", "properties": { "内容": "グループホームいちょうの木【認知症対応型共同生活介護】岩手県奥州市水沢佐倉河字十日市85", "url2": "https://www.kaigokensaku.mhlw.go.jp/03/index.php?action_kouhyou_detail_004_kani=true&JigyosyoCd=0370400178-00&ServiceCd=320&Type=search" }, "geometry": { "type": "Point", "coordinates": [ 141.092616899999939, 39.1629341 ] } },
{ "type": "Feature", "properties": { "内容": "ケアホームまごのて【認知症対応型共同生活介護】岩手県滝沢市野沢62-1041", "url2": "https://www.kaigokensaku.mhlw.go.jp/03/index.php?action_kouhyou_detail_004_kani=true&JigyosyoCd=0370101107-00&ServiceCd=320&Type=search" }, "geometry": { "type": "Point", "coordinates": [ 141.1501786, 39.7971591 ] } },
{ "type": "Feature", "properties": { "内容": "グループホームえがおの花大釜【認知症対応型共同生活介護】岩手県滝沢市大釜大畑72番地6", "url2": "https://www.kaigokensaku.mhlw.go.jp/03/index.php?action_kouhyou_detail_004_kani=true&JigyosyoCd=0392100103-00&ServiceCd=320&Type=search" }, "geometry": { "type": "Point", "coordinates": [ 141.076131936909519, 39.706493601887807 ] } },
{ "type": "Feature", "properties": { "内容": "グループホームほほえみの家【認知症対応型共同生活介護】岩手県滝沢市高屋敷平11-1", "url2": "https://www.kaigokensaku.mhlw.go.jp/03/index.php?action_kouhyou_detail_004_kani=true&JigyosyoCd=0372100743-00&ServiceCd=320&Type=search" }, "geometry": { "type": "Point", "coordinates": [ 141.092287446032714, 39.747660241046255 ] } },
{ "type": "Feature", "properties": { "内容": "グループホーム今が一番館【認知症対応型共同生活介護】岩手県滝沢市妻の神157番地3", "url2": "https://www.kaigokensaku.mhlw.go.jp/03/index.php?action_kouhyou_detail_004_kani=true&JigyosyoCd=0372101006-00&ServiceCd=320&Type=search" }, "geometry": { "type": "Point", "coordinates": [ 141.146215699999971, 39.7752588 ] } },
{ "type": "Feature", "properties": { "内容": "グループホームたんたん【認知症対応型共同生活介護】岩手県岩手郡雫石町板橋３－７", "url2": "https://www.kaigokensaku.mhlw.go.jp/03/index.php?action_kouhyou_detail_004_kani=true&JigyosyoCd=0372100941-00&ServiceCd=320&Type=search" }, "geometry": { "type": "Point", "coordinates": [ 141.019636699999978, 39.7018823 ] } },
{ "type": "Feature", "properties": { "内容": "グループホームしずくいし【認知症対応型共同生活介護】岩手県岩手郡雫石町西安庭第15地割字下長谷地８１番地２６", "url2": "https://www.kaigokensaku.mhlw.go.jp/03/index.php?action_kouhyou_detail_004_kani=true&JigyosyoCd=0372100966-00&ServiceCd=320&Type=search" }, "geometry": { "type": "Point", "coordinates": [ 140.968988800000034, 39.6624409 ] } },
{ "type": "Feature", "properties": { "内容": "グループホーム和や家くずまき【認知症対応型共同生活介護】岩手県岩手郡葛巻町葛巻第29地割34番地4グループホーム和や家くずまき", "url2": "https://www.kaigokensaku.mhlw.go.jp/03/index.php?action_kouhyou_detail_004_kani=true&JigyosyoCd=0392100129-00&ServiceCd=320&Type=search" }, "geometry": { "type": "Point", "coordinates": [ 141.406466891265836, 39.98114499772975 ] } },
{ "type": "Feature", "properties": { "内容": "グループホームきらら【認知症対応型共同生活介護】岩手県岩手郡岩手町大字子抱第８地割１１０－７", "url2": "https://www.kaigokensaku.mhlw.go.jp/03/index.php?action_kouhyou_detail_004_kani=true&JigyosyoCd=0372100974-00&ServiceCd=320&Type=search" }, "geometry": { "type": "Point", "coordinates": [ 141.195025500000042, 39.9411931 ] } },
{ "type": "Feature", "properties": { "内容": "グループホームゆい【認知症対応型共同生活介護】岩手県岩手郡岩手町大字江刈内第６地割８番地９", "url2": "https://www.kaigokensaku.mhlw.go.jp/03/index.php?action_kouhyou_detail_004_kani=true&JigyosyoCd=0392100012-00&ServiceCd=320&Type=search" }, "geometry": { "type": "Point", "coordinates": [ 141.218962799999986, 39.964891 ] } },
{ "type": "Feature", "properties": { "内容": "グループホーム和や家～なごやか～【認知症対応型共同生活介護】岩手県岩手郡岩手町大字一方井7-10", "url2": "https://www.kaigokensaku.mhlw.go.jp/03/index.php?action_kouhyou_detail_004_kani=true&JigyosyoCd=0392100111-00&ServiceCd=320&Type=search" }, "geometry": { "type": "Point", "coordinates": [ 141.157070914819343, 39.968125058649989 ] } },
{ "type": "Feature", "properties": { "内容": "地域密着認知症対応型共同生活介護事業所グループホームやすらぎ【認知症対応型共同生活介護】岩手県紫波郡紫波町桜町字三本木46-1", "url2": "https://www.kaigokensaku.mhlw.go.jp/03/index.php?action_kouhyou_detail_004_kani=true&JigyosyoCd=0372200303-00&ServiceCd=320&Type=search" }, "geometry": { "type": "Point", "coordinates": [ 141.171604800000068, 39.5415171 ] } },
{ "type": "Feature", "properties": { "内容": "グループホームゆいっこ【認知症対応型共同生活介護】岩手県紫波郡紫波町土舘字関沢２４番地１", "url2": "https://www.kaigokensaku.mhlw.go.jp/03/index.php?action_kouhyou_detail_004_kani=true&JigyosyoCd=0372200501-00&ServiceCd=320&Type=search" }, "geometry": { "type": "Point", "coordinates": [ 141.100695, 39.5477695 ] } },
{ "type": "Feature", "properties": { "内容": "グループホームゆうゆう北沢【認知症対応型共同生活介護】岩手県紫波郡紫波町北沢字北沢２－１", "url2": "https://www.kaigokensaku.mhlw.go.jp/03/index.php?action_kouhyou_detail_004_kani=true&JigyosyoCd=0372200337-00&ServiceCd=320&Type=search" }, "geometry": { "type": "Point", "coordinates": [ 141.209512899999936, 39.5981336 ] } },
{ "type": "Feature", "properties": { "内容": "グループホーム敬寿荘【認知症対応型共同生活介護】岩手県紫波郡矢巾町又兵ェ新田５－３３５ケアセンター南昌", "url2": "https://www.kaigokensaku.mhlw.go.jp/03/index.php?action_kouhyou_detail_004_kani=true&JigyosyoCd=0372200329-00&ServiceCd=320&Type=search" }, "geometry": { "type": "Point", "coordinates": [ 141.147065786230428, 39.61343820503172 ] } },
{ "type": "Feature", "properties": { "内容": "グループホーム太陽荘【認知症対応型共同生活介護】岩手県紫波郡矢巾町大字又兵ェ新田5-28-2", "url2": "https://www.kaigokensaku.mhlw.go.jp/03/index.php?action_kouhyou_detail_004_kani=true&JigyosyoCd=0372200410-00&ServiceCd=320&Type=search" }, "geometry": { "type": "Point", "coordinates": [ 141.140008200000011, 39.6143517 ] } },
{ "type": "Feature", "properties": { "内容": "介護ステーションゆいっこグループホーム【認知症対応型共同生活介護】岩手県和賀郡西和賀町沢内字新町４地割３２番地１", "url2": "https://www.kaigokensaku.mhlw.go.jp/03/index.php?action_kouhyou_detail_004_kani=true&JigyosyoCd=0392400016-00&ServiceCd=320&Type=search" }, "geometry": { "type": "Point", "coordinates": [ 140.756256105557213, 39.396482745849326 ] } },
{ "type": "Feature", "properties": { "内容": "医療法人社団真心会グループホーム笹の木【認知症対応型共同生活介護】岩手県和賀郡西和賀町湯本30-74-8", "url2": "https://www.kaigokensaku.mhlw.go.jp/03/index.php?action_kouhyou_detail_004_kani=true&JigyosyoCd=0392400040-00&ServiceCd=320&Type=search" }, "geometry": { "type": "Point", "coordinates": [ 140.773258, 39.3404849 ] } },
{ "type": "Feature", "properties": { "内容": "グループホーム四季の郷【認知症対応型共同生活介護】岩手県胆沢郡金ケ崎町西根北荒巻21番地19", "url2": "https://www.kaigokensaku.mhlw.go.jp/03/index.php?action_kouhyou_detail_004_kani=true&JigyosyoCd=0392500062-00&ServiceCd=320&Type=search" }, "geometry": { "type": "Point", "coordinates": [ 141.093006599999967, 39.2212217 ] } },
{ "type": "Feature", "properties": { "内容": "介護予防施設西光荘【認知症対応型共同生活介護】岩手県胆沢郡金ケ崎町西根和光５４４番地２", "url2": "https://www.kaigokensaku.mhlw.go.jp/03/index.php?action_kouhyou_detail_004_kani=true&JigyosyoCd=0392500021-00&ServiceCd=320&Type=search" }, "geometry": { "type": "Point", "coordinates": [ 141.003750599999989, 39.1889111 ] } },
{ "type": "Feature", "properties": { "内容": "グループホームぽっかぽっかの家【認知症対応型共同生活介護】岩手県胆沢郡金ヶ崎町六原坊主屋敷36番地3", "url2": "https://www.kaigokensaku.mhlw.go.jp/03/index.php?action_kouhyou_detail_004_kani=true&JigyosyoCd=0372500447-00&ServiceCd=320&Type=search" }, "geometry": { "type": "Point", "coordinates": [ 141.071132499999976, 39.2416436 ] } },
{ "type": "Feature", "properties": { "内容": "グループホーム平泉【認知症対応型共同生活介護】岩手県西磐井郡平泉町平泉字日照田133-2", "url2": "https://www.kaigokensaku.mhlw.go.jp/03/index.php?action_kouhyou_detail_004_kani=true&JigyosyoCd=0372600262-00&ServiceCd=320&Type=search" }, "geometry": { "type": "Point", "coordinates": [ 141.099018200000046, 38.9777792 ] } },
{ "type": "Feature", "properties": { "内容": "グループホーム「けーせん」【認知症対応型共同生活介護】岩手県西磐井郡平泉町平泉字片岡72番地3グル－プホ－ム「け－せん」", "url2": "https://www.kaigokensaku.mhlw.go.jp/03/index.php?action_kouhyou_detail_004_kani=true&JigyosyoCd=0372600288-00&ServiceCd=320&Type=search" }, "geometry": { "type": "Point", "coordinates": [ 141.108595399999984, 38.971333100000017 ] } },
{ "type": "Feature", "properties": { "内容": "高齢者グループホームいこいの杜【認知症対応型共同生活介護】岩手県西磐井郡平泉町平泉字樋の沢25-1", "url2": "https://www.kaigokensaku.mhlw.go.jp/03/index.php?action_kouhyou_detail_004_kani=true&JigyosyoCd=0392600037-00&ServiceCd=320&Type=search" }, "geometry": { "type": "Point", "coordinates": [ 141.12264719999996, 38.9616349 ] } },
{ "type": "Feature", "properties": { "内容": "グル－プホ－ムかっこう【認知症対応型共同生活介護】岩手県気仙郡住田町下有住字十文字89-2", "url2": "https://www.kaigokensaku.mhlw.go.jp/03/index.php?action_kouhyou_detail_004_kani=true&JigyosyoCd=0392800017-00&ServiceCd=320&Type=search" }, "geometry": { "type": "Point", "coordinates": [ 141.560647199999948, 39.1895098 ] } },
{ "type": "Feature", "properties": { "内容": "けあビジョンホーム大槌【認知症対応型共同生活介護】岩手県上閉伊郡大槌町大槌第15地割51-20", "url2": "https://www.kaigokensaku.mhlw.go.jp/03/index.php?action_kouhyou_detail_004_kani=true&JigyosyoCd=0392900072-00&ServiceCd=320&Type=search" }, "geometry": { "type": "Point", "coordinates": [ 141.899145274868772, 39.368435715902784 ] } },
{ "type": "Feature", "properties": { "内容": "グループホーム城山の杜【認知症対応型共同生活介護】岩手県上閉伊郡大槌町大槌１５－５－１", "url2": "https://www.kaigokensaku.mhlw.go.jp/03/index.php?action_kouhyou_detail_004_kani=true&JigyosyoCd=0392900031-00&ServiceCd=320&Type=search" }, "geometry": { "type": "Point", "coordinates": [ 141.895760600000017, 39.37096 ] } },
{ "type": "Feature", "properties": { "内容": "ホームとよまね【認知症対応型共同生活介護】岩手県下閉伊郡山田町豊間根第２地割６４番１１", "url2": "https://www.kaigokensaku.mhlw.go.jp/03/index.php?action_kouhyou_detail_004_kani=true&JigyosyoCd=0393000013-00&ServiceCd=320&Type=search" }, "geometry": { "type": "Point", "coordinates": [ 141.925984344180279, 39.536372291366256 ] } },
{ "type": "Feature", "properties": { "内容": "ホームとよまね２号館【認知症対応型共同生活介護】岩手県下閉伊郡山田町豊間根第２地割１１１番地３", "url2": "https://www.kaigokensaku.mhlw.go.jp/03/index.php?action_kouhyou_detail_004_kani=true&JigyosyoCd=0393000054-00&ServiceCd=320&Type=search" }, "geometry": { "type": "Point", "coordinates": [ 141.92779459999997, 39.5312795 ] } },
{ "type": "Feature", "properties": { "内容": "グループホームまぶる【認知症対応型共同生活介護】岩手県下閉伊郡山田町大沢４－３８－５", "url2": "https://www.kaigokensaku.mhlw.go.jp/03/index.php?action_kouhyou_detail_004_kani=true&JigyosyoCd=0373000744-00&ServiceCd=320&Type=search" }, "geometry": { "type": "Point", "coordinates": [ 141.960212101022137, 39.496914647907559 ] } },
{ "type": "Feature", "properties": { "内容": "グループホームまぶるいろは館【認知症対応型共同生活介護】岩手県下閉伊郡山田町飯岡６－１４－１", "url2": "https://www.kaigokensaku.mhlw.go.jp/03/index.php?action_kouhyou_detail_004_kani=true&JigyosyoCd=0393000146-00&ServiceCd=320&Type=search" }, "geometry": { "type": "Point", "coordinates": [ 141.936827599999987, 39.4591862 ] } },
{ "type": "Feature", "properties": { "内容": "あお空グループホーム山田【認知症対応型共同生活介護】岩手県下閉伊郡山田町山田第19地割51番地1", "url2": "https://www.kaigokensaku.mhlw.go.jp/03/index.php?action_kouhyou_detail_004_kani=true&JigyosyoCd=0393000120-00&ServiceCd=320&Type=search" }, "geometry": { "type": "Point", "coordinates": [ 141.918905399999971, 39.4769211 ] } },
{ "type": "Feature", "properties": { "内容": "グループホームいわいずみ【認知症対応型共同生活介護】岩手県下閉伊郡岩泉町尼額字下坪41-2", "url2": "https://www.kaigokensaku.mhlw.go.jp/03/index.php?action_kouhyou_detail_004_kani=true&JigyosyoCd=0393000047-00&ServiceCd=320&Type=search" }, "geometry": { "type": "Point", "coordinates": [ 141.779611276721198, 39.839972203072705 ] } },
{ "type": "Feature", "properties": { "内容": "グループホームよろこび【認知症対応型共同生活介護】岩手県下閉伊郡岩泉町門字水上29番地19", "url2": "https://www.kaigokensaku.mhlw.go.jp/03/index.php?action_kouhyou_detail_004_kani=true&JigyosyoCd=0393000138-00&ServiceCd=320&Type=search" }, "geometry": { "type": "Point", "coordinates": [ 141.636630200000013, 39.8831889 ] } },
{ "type": "Feature", "properties": { "内容": "あお空グループホーム小本【認知症対応型共同生活介護】岩手県下閉伊郡岩泉町小本字南中野285番地", "url2": "https://www.kaigokensaku.mhlw.go.jp/03/index.php?action_kouhyou_detail_004_kani=true&JigyosyoCd=0393000070-00&ServiceCd=320&Type=search" }, "geometry": { "type": "Point", "coordinates": [ 141.9688109, 39.8440322 ] } },
{ "type": "Feature", "properties": { "内容": "グループホームたのはた虹の家【認知症対応型共同生活介護】岩手県下閉伊郡田野畑村田野畑１２０－１８", "url2": "https://www.kaigokensaku.mhlw.go.jp/03/index.php?action_kouhyou_detail_004_kani=true&JigyosyoCd=0373000710-00&ServiceCd=320&Type=search" }, "geometry": { "type": "Point", "coordinates": [ 141.893817600000034, 39.9320084 ] } },
{ "type": "Feature", "properties": { "内容": "グループホームつくえ【認知症対応型共同生活介護】岩手県下閉伊郡田野畑村机299番地", "url2": "https://www.kaigokensaku.mhlw.go.jp/03/index.php?action_kouhyou_detail_004_kani=true&JigyosyoCd=0393000088-00&ServiceCd=320&Type=search" }, "geometry": { "type": "Point", "coordinates": [ 141.934838200000058, 39.9636947 ] } },
{ "type": "Feature", "properties": { "内容": "グループホームとりい【認知症対応型共同生活介護】岩手県下閉伊郡普代村第24地割字鳥居5番地1", "url2": "https://www.kaigokensaku.mhlw.go.jp/03/index.php?action_kouhyou_detail_004_kani=true&JigyosyoCd=0373000694-00&ServiceCd=320&Type=search" }, "geometry": { "type": "Point", "coordinates": [ 141.8542857, 40.0136984 ] } },
{ "type": "Feature", "properties": { "内容": "グループホーム花の里かるまい【認知症対応型共同生活介護】岩手県九戸郡軽米町大字軽米第22地割42番地", "url2": "https://www.kaigokensaku.mhlw.go.jp/03/index.php?action_kouhyou_detail_004_kani=true&JigyosyoCd=0393100052-00&ServiceCd=320&Type=search" }, "geometry": { "type": "Point", "coordinates": [ 141.4568557, 40.3147163 ] } },
{ "type": "Feature", "properties": { "内容": "グループホームぬくもり【認知症対応型共同生活介護】岩手県九戸郡野田村大字玉川第５地割４５－２２", "url2": "https://www.kaigokensaku.mhlw.go.jp/03/index.php?action_kouhyou_detail_004_kani=true&JigyosyoCd=0393100128-00&ServiceCd=320&Type=search" }, "geometry": { "type": "Point", "coordinates": [ 141.828533279901194, 40.082656202337439 ] } },
{ "type": "Feature", "properties": { "内容": "認知症高齢者グループホームおりつめ【認知症対応型共同生活介護】岩手県九戸郡九戸村大字伊保内第8地割15番地1", "url2": "https://www.kaigokensaku.mhlw.go.jp/03/index.php?action_kouhyou_detail_004_kani=true&JigyosyoCd=0393100011-00&ServiceCd=320&Type=search" }, "geometry": { "type": "Point", "coordinates": [ 141.421549, 40.2126167 ] } },
{ "type": "Feature", "properties": { "内容": "グループホーム満天【認知症対応型共同生活介護】岩手県九戸郡洋野町中野第３地割３８番１８９", "url2": "https://www.kaigokensaku.mhlw.go.jp/03/index.php?action_kouhyou_detail_004_kani=true&JigyosyoCd=0373100460-00&ServiceCd=320&Type=search" }, "geometry": { "type": "Point", "coordinates": [ 141.7805737, 40.305884400000011 ] } },
{ "type": "Feature", "properties": { "内容": "グループホームくるみ【認知症対応型共同生活介護】岩手県九戸郡洋野町帯島7-44-3", "url2": "https://www.kaigokensaku.mhlw.go.jp/03/index.php?action_kouhyou_detail_004_kani=true&JigyosyoCd=0393100094-00&ServiceCd=320&Type=search" }, "geometry": { "type": "Point", "coordinates": [ 141.6994135, 40.2503969 ] } },
{ "type": "Feature", "properties": { "内容": "グループホームほほえみ【認知症対応型共同生活介護】岩手県九戸郡洋野町種市４１－１５－２", "url2": "https://www.kaigokensaku.mhlw.go.jp/03/index.php?action_kouhyou_detail_004_kani=true&JigyosyoCd=0393100219-00&ServiceCd=320&Type=search" }, "geometry": { "type": "Point", "coordinates": [ 141.659814, 40.3757891 ] } },
{ "type": "Feature", "properties": { "内容": "グループホームにこトピア一戸【認知症対応型共同生活介護】岩手県二戸郡一戸町一戸字向町56番地1", "url2": "https://www.kaigokensaku.mhlw.go.jp/03/index.php?action_kouhyou_detail_004_kani=true&JigyosyoCd=0391300019-00&ServiceCd=320&Type=search" }, "geometry": { "type": "Point", "coordinates": [ 141.298808900249469, 40.215127919602359 ] } }
]
}
