{
"type": "FeatureCollection",
"name": "geo_03_中学校",
"crs": { "type": "name", "properties": { "name": "urn:ogc:def:crs:EPSG::6668" } },
"features": [
{ "type": "Feature", "properties": { "P29_001": "03201", "P29_002": "C103110000016", "P29_003": "16002", "P29_004": "岩手大学教育学部附属中学校", "P29_005": "岩手県盛岡市加賀野3-9-1", "P29_006": "1", "P29_007": "1", "P29_008": "00", "P29_009": null }, "geometry": { "type": "Point", "coordinates": [ 141.168624713655277, 39.705897369237903 ] } },
{ "type": "Feature", "properties": { "P29_001": "03201", "P29_002": "C103220100012", "P29_003": "16002", "P29_004": "盛岡市立下橋中学校", "P29_005": "岩手県盛岡市馬場町1-1", "P29_006": "3", "P29_007": "1", "P29_008": "00", "P29_009": null }, "geometry": { "type": "Point", "coordinates": [ 141.146781252081837, 39.697862363677061 ] } },
{ "type": "Feature", "properties": { "P29_001": "03201", "P29_002": "C103220100021", "P29_003": "16002", "P29_004": "盛岡市立下小路中学校", "P29_005": "岩手県盛岡市愛宕町1-1", "P29_006": "3", "P29_007": "1", "P29_008": "00", "P29_009": null }, "geometry": { "type": "Point", "coordinates": [ 141.156133966192556, 39.708331812520363 ] } },
{ "type": "Feature", "properties": { "P29_001": "03201", "P29_002": "C103220100030", "P29_003": "16002", "P29_004": "盛岡市立厨川中学校", "P29_005": "岩手県盛岡市青山2-7-1", "P29_006": "3", "P29_007": "1", "P29_008": "00", "P29_009": null }, "geometry": { "type": "Point", "coordinates": [ 141.115533289319472, 39.723918052164642 ] } },
{ "type": "Feature", "properties": { "P29_001": "03201", "P29_002": "C103220100049", "P29_003": "16002", "P29_004": "盛岡市立上田中学校", "P29_005": "岩手県盛岡市上田2-1-1", "P29_006": "3", "P29_007": "1", "P29_008": "00", "P29_009": null }, "geometry": { "type": "Point", "coordinates": [ 141.14748146361157, 39.715123254279952 ] } },
{ "type": "Feature", "properties": { "P29_001": "03201", "P29_002": "C103220100058", "P29_003": "16002", "P29_004": "盛岡市立河南中学校", "P29_005": "岩手県盛岡市茶畑2-17-1", "P29_006": "3", "P29_007": "1", "P29_008": "00", "P29_009": null }, "geometry": { "type": "Point", "coordinates": [ 141.162821486607413, 39.691109949182177 ] } },
{ "type": "Feature", "properties": { "P29_001": "03201", "P29_002": "C103220100067", "P29_003": "16002", "P29_004": "盛岡市立仙北中学校", "P29_005": "岩手県盛岡市仙北3-18-1", "P29_006": "3", "P29_007": "1", "P29_008": "00", "P29_009": null }, "geometry": { "type": "Point", "coordinates": [ 141.15358622355555, 39.683398268294297 ] } },
{ "type": "Feature", "properties": { "P29_001": "03201", "P29_002": "C103220100076", "P29_003": "16002", "P29_004": "盛岡市立大宮中学校", "P29_005": "岩手県盛岡市本宮字大宮5-1", "P29_006": "3", "P29_007": "1", "P29_008": "00", "P29_009": null }, "geometry": { "type": "Point", "coordinates": [ 141.112743513454717, 39.683985711228466 ] } },
{ "type": "Feature", "properties": { "P29_001": "03201", "P29_002": "C103220100085", "P29_003": "16002", "P29_004": "盛岡市立米内中学校", "P29_005": "岩手県盛岡市桜台2-19-1", "P29_006": "3", "P29_007": "1", "P29_008": "00", "P29_009": null }, "geometry": { "type": "Point", "coordinates": [ 141.197409175063456, 39.748950695397575 ] } },
{ "type": "Feature", "properties": { "P29_001": "03201", "P29_002": "C103220100094", "P29_003": "16002", "P29_004": "盛岡市立土淵中学校", "P29_005": "岩手県盛岡市土淵字幅2-3", "P29_006": "3", "P29_007": "1", "P29_008": "00", "P29_009": null }, "geometry": { "type": "Point", "coordinates": [ 141.091605023361637, 39.712567134132605 ] } },
{ "type": "Feature", "properties": { "P29_001": "03201", "P29_002": "C103220100101", "P29_003": "16002", "P29_004": "盛岡市立黒石野中学校", "P29_005": "岩手県盛岡市黒石野3-15-1", "P29_006": "3", "P29_007": "1", "P29_008": "00", "P29_009": null }, "geometry": { "type": "Point", "coordinates": [ 141.141625890682178, 39.741225357458582 ] } },
{ "type": "Feature", "properties": { "P29_001": "03201", "P29_002": "C103220100110", "P29_003": "16002", "P29_004": "盛岡市立黒石野中学校北杜分校", "P29_005": "岩手県盛岡市厨川2-3-1", "P29_006": "3", "P29_007": "1", "P29_008": "00", "P29_009": null }, "geometry": { "type": "Point", "coordinates": [ 141.136542689297443, 39.742305343897215 ] } },
{ "type": "Feature", "properties": { "P29_001": "03201", "P29_002": "C103220100129", "P29_003": "16002", "P29_004": "盛岡市立城西中学校", "P29_005": "岩手県盛岡市城西町4-1", "P29_006": "3", "P29_007": "1", "P29_008": "00", "P29_009": null }, "geometry": { "type": "Point", "coordinates": [ 141.12788958833022, 39.704305278985643 ] } },
{ "type": "Feature", "properties": { "P29_001": "03201", "P29_002": "C103220100138", "P29_003": "16002", "P29_004": "盛岡市立城東中学校", "P29_005": "岩手県盛岡市東新庄1-30-1", "P29_006": "3", "P29_007": "1", "P29_008": "00", "P29_009": null }, "geometry": { "type": "Point", "coordinates": [ 141.172840606101403, 39.701858123445895 ] } },
{ "type": "Feature", "properties": { "P29_001": "03216", "P29_002": "C103220100147", "P29_003": "16002", "P29_004": "盛岡市立北陵中学校", "P29_005": "岩手県滝沢市穴口419", "P29_006": "3", "P29_007": "1", "P29_008": "00", "P29_009": null }, "geometry": { "type": "Point", "coordinates": [ 141.115360182354237, 39.749335556501379 ] } },
{ "type": "Feature", "properties": { "P29_001": "03201", "P29_002": "C103220100156", "P29_003": "16002", "P29_004": "盛岡市立松園中学校", "P29_005": "岩手県盛岡市東松園2-14-1", "P29_006": "3", "P29_007": "1", "P29_008": "00", "P29_009": null }, "geometry": { "type": "Point", "coordinates": [ 141.16790595381002, 39.75594208882832 ] } },
{ "type": "Feature", "properties": { "P29_001": "03201", "P29_002": "C103220100165", "P29_003": "16002", "P29_004": "盛岡市立玉山中学校", "P29_005": "岩手県盛岡市日戸字鷹高39-2", "P29_006": "3", "P29_007": "1", "P29_008": "00", "P29_009": null }, "geometry": { "type": "Point", "coordinates": [ 141.18929953641063, 39.795274814112595 ] } },
{ "type": "Feature", "properties": { "P29_001": "03201", "P29_002": "C103220100174", "P29_003": "16002", "P29_004": "盛岡市立巻堀中学校", "P29_005": "岩手県盛岡市好摩字夏間木70-1", "P29_006": "3", "P29_007": "1", "P29_008": "00", "P29_009": null }, "geometry": { "type": "Point", "coordinates": [ 141.168119734759358, 39.87525869118921 ] } },
{ "type": "Feature", "properties": { "P29_001": "03201", "P29_002": "C103220100183", "P29_003": "16002", "P29_004": "盛岡市立渋民中学校", "P29_005": "岩手県盛岡市下田字下田106", "P29_006": "3", "P29_007": "1", "P29_008": "00", "P29_009": null }, "geometry": { "type": "Point", "coordinates": [ 141.163972899471787, 39.850256455757666 ] } },
{ "type": "Feature", "properties": { "P29_001": "03201", "P29_002": "C103220100192", "P29_003": "16002", "P29_004": "盛岡市立見前中学校", "P29_005": "岩手県盛岡市津志田14-34", "P29_006": "3", "P29_007": "1", "P29_008": "00", "P29_009": null }, "geometry": { "type": "Point", "coordinates": [ 141.159481906284299, 39.655299387298349 ] } },
{ "type": "Feature", "properties": { "P29_001": "03201", "P29_002": "C103220100209", "P29_003": "16002", "P29_004": "盛岡市立飯岡中学校", "P29_005": "岩手県盛岡市下飯岡6-51-1", "P29_006": "3", "P29_007": "1", "P29_008": "00", "P29_009": null }, "geometry": { "type": "Point", "coordinates": [ 141.11799829871606, 39.665232868948976 ] } },
{ "type": "Feature", "properties": { "P29_001": "03201", "P29_002": "C103220100218", "P29_003": "16002", "P29_004": "盛岡市立乙部中学校", "P29_005": "岩手県盛岡市黒川21-51", "P29_006": "3", "P29_007": "1", "P29_008": "00", "P29_009": null }, "geometry": { "type": "Point", "coordinates": [ 141.186757383389249, 39.621577973438939 ] } },
{ "type": "Feature", "properties": { "P29_001": "03201", "P29_002": "C103220100227", "P29_003": "16002", "P29_004": "盛岡市立見前南中学校", "P29_005": "岩手県盛岡市西見前16-73", "P29_006": "3", "P29_007": "1", "P29_008": "00", "P29_009": null }, "geometry": { "type": "Point", "coordinates": [ 141.160973304445008, 39.642728462134386 ] } },
{ "type": "Feature", "properties": { "P29_001": "03201", "P29_002": "C103220100236", "P29_003": "16002", "P29_004": "盛岡市立北松園中学校", "P29_005": "岩手県盛岡市北松園4-34-1", "P29_006": "3", "P29_007": "1", "P29_008": "00", "P29_009": null }, "geometry": { "type": "Point", "coordinates": [ 141.175804246058334, 39.760208518088646 ] } },
{ "type": "Feature", "properties": { "P29_001": "03202", "P29_002": "C103220200011", "P29_003": "16002", "P29_004": "宮古市立第一中学校", "P29_005": "岩手県宮古市宮町2-5-7", "P29_006": "3", "P29_007": "1", "P29_008": "00", "P29_009": null }, "geometry": { "type": "Point", "coordinates": [ 141.94490002267375, 39.637859480971031 ] } },
{ "type": "Feature", "properties": { "P29_001": "03202", "P29_002": "C103220200020", "P29_003": "16002", "P29_004": "宮古市立第二中学校", "P29_005": "岩手県宮古市日の出町7-1", "P29_006": "3", "P29_007": "1", "P29_008": "00", "P29_009": null }, "geometry": { "type": "Point", "coordinates": [ 141.95488113427416, 39.653440225287689 ] } },
{ "type": "Feature", "properties": { "P29_001": "03202", "P29_002": "C103220200039", "P29_003": "16002", "P29_004": "宮古市立河南中学校", "P29_005": "岩手県宮古市河南1-1-1", "P29_006": "3", "P29_007": "1", "P29_008": "00", "P29_009": null }, "geometry": { "type": "Point", "coordinates": [ 141.953743432355964, 39.622322361864235 ] } },
{ "type": "Feature", "properties": { "P29_001": "03202", "P29_002": "C103220200048", "P29_003": "16002", "P29_004": "宮古市立宮古西中学校", "P29_005": "岩手県宮古市西ヶ丘2-1-1", "P29_006": "3", "P29_007": "1", "P29_008": "00", "P29_009": null }, "geometry": { "type": "Point", "coordinates": [ 141.912631318494761, 39.6406582496532 ] } },
{ "type": "Feature", "properties": { "P29_001": "03202", "P29_002": "C103220200057", "P29_003": "16002", "P29_004": "宮古市立花輪中学校", "P29_005": "岩手県宮古市花輪第5-132", "P29_006": "3", "P29_007": "1", "P29_008": "00", "P29_009": null }, "geometry": { "type": "Point", "coordinates": [ 141.898608211589107, 39.613928633165791 ] } },
{ "type": "Feature", "properties": { "P29_001": "03202", "P29_002": "C103220200066", "P29_003": "16002", "P29_004": "宮古市立津軽石中学校", "P29_005": "岩手県宮古市津軽石11-57", "P29_006": "3", "P29_007": "1", "P29_008": "00", "P29_009": null }, "geometry": { "type": "Point", "coordinates": [ 141.939179930869585, 39.572286642270413 ] } },
{ "type": "Feature", "properties": { "P29_001": "03202", "P29_002": "C103220200075", "P29_003": "16002", "P29_004": "宮古市立重茂中学校", "P29_005": "岩手県宮古市重茂2-1", "P29_006": "3", "P29_007": "1", "P29_008": "00", "P29_009": null }, "geometry": { "type": "Point", "coordinates": [ 142.019129379735602, 39.587471972041634 ] } },
{ "type": "Feature", "properties": { "P29_001": "03202", "P29_002": "C103220200084", "P29_003": "16002", "P29_004": "宮古市立崎山中学校", "P29_005": "岩手県宮古市崎山3-1-1", "P29_006": "3", "P29_007": "1", "P29_008": "00", "P29_009": null }, "geometry": { "type": "Point", "coordinates": [ 141.961718236842842, 39.679344074349146 ] } },
{ "type": "Feature", "properties": { "P29_001": "03202", "P29_002": "C103220200093", "P29_003": "16002", "P29_004": "宮古市立田老第一中学校", "P29_005": "岩手県宮古市田老字館が森3", "P29_006": "3", "P29_007": "1", "P29_008": "00", "P29_009": null }, "geometry": { "type": "Point", "coordinates": [ 141.969428141465755, 39.739167071673386 ] } },
{ "type": "Feature", "properties": { "P29_001": "03202", "P29_002": "C103220200100", "P29_003": "16002", "P29_004": "宮古市立新里中学校", "P29_005": "岩手県宮古市刈屋15-133", "P29_006": "3", "P29_007": "1", "P29_008": "00", "P29_009": null }, "geometry": { "type": "Point", "coordinates": [ 141.774286493147059, 39.641646313277349 ] } },
{ "type": "Feature", "properties": { "P29_001": "03202", "P29_002": "C103220200119", "P29_003": "16002", "P29_004": "宮古市立川井中学校", "P29_005": "岩手県宮古市箱石1-4", "P29_006": "3", "P29_007": "1", "P29_008": "00", "P29_009": null }, "geometry": { "type": "Point", "coordinates": [ 141.622473807164823, 39.624244191644934 ] } },
{ "type": "Feature", "properties": { "P29_001": "03203", "P29_002": "C103220300010", "P29_003": "16002", "P29_004": "大船渡市立第一中学校", "P29_005": "岩手県大船渡市立根町字宮田89", "P29_006": "3", "P29_007": "1", "P29_008": "00", "P29_009": null }, "geometry": { "type": "Point", "coordinates": [ 141.71383033948652, 39.102470251188166 ] } },
{ "type": "Feature", "properties": { "P29_001": "03203", "P29_002": "C103220300029", "P29_003": "16002", "P29_004": "大船渡市立大船渡中学校", "P29_005": "岩手県大船渡市大船渡町永沢94-1", "P29_006": "3", "P29_007": "1", "P29_008": "00", "P29_009": null }, "geometry": { "type": "Point", "coordinates": [ 141.717307786039356, 39.053104148400372 ] } },
{ "type": "Feature", "properties": { "P29_001": "03203", "P29_002": "C103220300038", "P29_003": "16002", "P29_004": "大船渡市立末崎中学校", "P29_005": "岩手県大船渡市末崎町字平林72-13", "P29_006": "3", "P29_007": "1", "P29_008": "00", "P29_009": null }, "geometry": { "type": "Point", "coordinates": [ 141.711374968109766, 39.004703582694546 ] } },
{ "type": "Feature", "properties": { "P29_001": "03203", "P29_002": "C103220300065", "P29_003": "16002", "P29_004": "大船渡市立東朋中学校", "P29_005": "岩手県大船渡市赤崎町字山口107-1", "P29_006": "3", "P29_007": "1", "P29_008": "00", "P29_009": null }, "geometry": { "type": "Point", "coordinates": [ 141.740821996360125, 39.061585778274491 ] } },
{ "type": "Feature", "properties": { "P29_001": "03205", "P29_002": "C103220500018", "P29_003": "16002", "P29_004": "花巻市立花巻中学校", "P29_005": "岩手県花巻市若葉町2-16-22", "P29_006": "3", "P29_007": "1", "P29_008": "00", "P29_009": null }, "geometry": { "type": "Point", "coordinates": [ 141.102274944150906, 39.389282430437689 ] } },
{ "type": "Feature", "properties": { "P29_001": "03205", "P29_002": "C103220500027", "P29_003": "16002", "P29_004": "花巻市立南城中学校", "P29_005": "岩手県花巻市南城251", "P29_006": "3", "P29_007": "1", "P29_008": "00", "P29_009": null }, "geometry": { "type": "Point", "coordinates": [ 141.119312843191892, 39.366779087521763 ] } },
{ "type": "Feature", "properties": { "P29_001": "03205", "P29_002": "C103220500036", "P29_003": "16002", "P29_004": "花巻市立矢沢中学校", "P29_005": "岩手県花巻市高松5-42", "P29_006": "3", "P29_007": "1", "P29_008": "00", "P29_009": null }, "geometry": { "type": "Point", "coordinates": [ 141.155618779328648, 39.3899070907989 ] } },
{ "type": "Feature", "properties": { "P29_001": "03205", "P29_002": "C103220500045", "P29_003": "16002", "P29_004": "花巻市立湯本中学校", "P29_005": "岩手県花巻市湯本4-1", "P29_006": "3", "P29_007": "1", "P29_008": "00", "P29_009": null }, "geometry": { "type": "Point", "coordinates": [ 141.087689651781375, 39.446289026529051 ] } },
{ "type": "Feature", "properties": { "P29_001": "03205", "P29_002": "C103220500054", "P29_003": "16002", "P29_004": "花巻市立宮野目中学校", "P29_005": "岩手県花巻市西宮野目6-156-2", "P29_006": "3", "P29_007": "1", "P29_008": "00", "P29_009": null }, "geometry": { "type": "Point", "coordinates": [ 141.125433447579439, 39.425770000316284 ] } },
{ "type": "Feature", "properties": { "P29_001": "03205", "P29_002": "C103220500063", "P29_003": "16002", "P29_004": "花巻市立湯口中学校", "P29_005": "岩手県花巻市円万寺字法船23", "P29_006": "3", "P29_007": "1", "P29_008": "00", "P29_009": null }, "geometry": { "type": "Point", "coordinates": [ 141.053618224537985, 39.391195182778205 ] } },
{ "type": "Feature", "properties": { "P29_001": "03205", "P29_002": "C103220500072", "P29_003": "16002", "P29_004": "花巻市立西南中学校", "P29_005": "岩手県花巻市轟木7-12", "P29_006": "3", "P29_007": "1", "P29_008": "00", "P29_009": null }, "geometry": { "type": "Point", "coordinates": [ 141.054093955886088, 39.363162315710852 ] } },
{ "type": "Feature", "properties": { "P29_001": "03205", "P29_002": "C103220500081", "P29_003": "16002", "P29_004": "花巻市立花巻北中学校", "P29_005": "岩手県花巻市天下田182", "P29_006": "3", "P29_007": "1", "P29_008": "00", "P29_009": null }, "geometry": { "type": "Point", "coordinates": [ 141.111116402853668, 39.411158084499135 ] } },
{ "type": "Feature", "properties": { "P29_001": "03205", "P29_002": "C103220500090", "P29_003": "16002", "P29_004": "花巻市立大迫中学校", "P29_005": "岩手県花巻市大迫町外川目27-22-1", "P29_006": "3", "P29_007": "1", "P29_008": "00", "P29_009": null }, "geometry": { "type": "Point", "coordinates": [ 141.292450637346064, 39.461800309288158 ] } },
{ "type": "Feature", "properties": { "P29_001": "03205", "P29_002": "C103220500107", "P29_003": "16002", "P29_004": "花巻市立石鳥谷中学校", "P29_005": "岩手県花巻市石鳥谷町八幡6-37-1", "P29_006": "3", "P29_007": "1", "P29_008": "00", "P29_009": null }, "geometry": { "type": "Point", "coordinates": [ 141.149839503849222, 39.479994429402701 ] } },
{ "type": "Feature", "properties": { "P29_001": "03205", "P29_002": "C103220500116", "P29_003": "16002", "P29_004": "花巻市立東和中学校", "P29_005": "岩手県花巻市東和町土沢5-20", "P29_006": "3", "P29_007": "1", "P29_008": "00", "P29_009": null }, "geometry": { "type": "Point", "coordinates": [ 141.232672508009557, 39.388877936263931 ] } },
{ "type": "Feature", "properties": { "P29_001": "03206", "P29_002": "C103220600017", "P29_003": "16002", "P29_004": "北上市立北上中学校", "P29_005": "岩手県北上市黒沢尻1-1-1", "P29_006": "3", "P29_007": "1", "P29_008": "00", "P29_009": null }, "geometry": { "type": "Point", "coordinates": [ 141.131247393329971, 39.28853798468684 ] } },
{ "type": "Feature", "properties": { "P29_001": "03206", "P29_002": "C103220600026", "P29_003": "16002", "P29_004": "北上市立飯豊中学校", "P29_005": "岩手県北上市村崎野11-200", "P29_006": "3", "P29_007": "1", "P29_008": "00", "P29_009": null }, "geometry": { "type": "Point", "coordinates": [ 141.098810169058908, 39.339366672250286 ] } },
{ "type": "Feature", "properties": { "P29_001": "03206", "P29_002": "C103220600035", "P29_003": "16002", "P29_004": "北上市立南中学校", "P29_005": "岩手県北上市相去町滝の沢7-2", "P29_006": "3", "P29_007": "1", "P29_008": "00", "P29_009": null }, "geometry": { "type": "Point", "coordinates": [ 141.090046475367103, 39.264384411110072 ] } },
{ "type": "Feature", "properties": { "P29_001": "03206", "P29_002": "C103220600044", "P29_003": "16002", "P29_004": "北上市立北上北中学校", "P29_005": "岩手県北上市二子町秋子沢13", "P29_006": "3", "P29_007": "1", "P29_008": "00", "P29_009": null }, "geometry": { "type": "Point", "coordinates": [ 141.135791911234406, 39.327087014404022 ] } },
{ "type": "Feature", "properties": { "P29_001": "03206", "P29_002": "C103220600053", "P29_003": "16002", "P29_004": "北上市立上野中学校", "P29_005": "岩手県北上市上野町4-10-8", "P29_006": "3", "P29_007": "1", "P29_008": "00", "P29_009": null }, "geometry": { "type": "Point", "coordinates": [ 141.126788622593153, 39.302845989554257 ] } },
{ "type": "Feature", "properties": { "P29_001": "03206", "P29_002": "C103220600062", "P29_003": "16002", "P29_004": "北上市立東陵中学校", "P29_005": "岩手県北上市立花1-8", "P29_006": "3", "P29_007": "1", "P29_008": "00", "P29_009": null }, "geometry": { "type": "Point", "coordinates": [ 141.144396445545738, 39.290631990256287 ] } },
{ "type": "Feature", "properties": { "P29_001": "03206", "P29_002": "C103220600071", "P29_003": "16002", "P29_004": "北上市立和賀西中学校", "P29_005": "岩手県北上市和賀町横川目13-64-1", "P29_006": "3", "P29_007": "1", "P29_008": "00", "P29_009": null }, "geometry": { "type": "Point", "coordinates": [ 140.977228498535538, 39.312349582060051 ] } },
{ "type": "Feature", "properties": { "P29_001": "03206", "P29_002": "C103220600080", "P29_003": "16002", "P29_004": "北上市立和賀東中学校", "P29_005": "岩手県北上市和賀町長沼6-1", "P29_006": "3", "P29_007": "1", "P29_008": "00", "P29_009": null }, "geometry": { "type": "Point", "coordinates": [ 141.028538915618071, 39.29737446518218 ] } },
{ "type": "Feature", "properties": { "P29_001": "03206", "P29_002": "C103220600099", "P29_003": "16002", "P29_004": "北上市立江釣子中学校", "P29_005": "岩手県北上市上江釣子17-172-1", "P29_006": "3", "P29_007": "1", "P29_008": "00", "P29_009": null }, "geometry": { "type": "Point", "coordinates": [ 141.076799283108443, 39.297060818803232 ] } },
{ "type": "Feature", "properties": { "P29_001": "03207", "P29_002": "C103220700016", "P29_003": "16002", "P29_004": "久慈市立久慈中学校", "P29_005": "岩手県久慈市栄町32-88-5", "P29_006": "3", "P29_007": "1", "P29_008": "00", "P29_009": null }, "geometry": { "type": "Point", "coordinates": [ 141.758685060605586, 40.195230276111303 ] } },
{ "type": "Feature", "properties": { "P29_001": "03207", "P29_002": "C103220700025", "P29_003": "16002", "P29_004": "久慈市立長内中学校", "P29_005": "岩手県久慈市小久慈町39-2-2", "P29_006": "3", "P29_007": "1", "P29_008": "00", "P29_009": null }, "geometry": { "type": "Point", "coordinates": [ 141.763654323676548, 40.172285942344814 ] } },
{ "type": "Feature", "properties": { "P29_001": "03207", "P29_002": "C103220700034", "P29_003": "16002", "P29_004": "久慈市立大川目中学校", "P29_005": "岩手県久慈市大川目町13-105", "P29_006": "3", "P29_007": "1", "P29_008": "00", "P29_009": null }, "geometry": { "type": "Point", "coordinates": [ 141.713993681800019, 40.180795219796821 ] } },
{ "type": "Feature", "properties": { "P29_001": "03207", "P29_002": "C103220700043", "P29_003": "16002", "P29_004": "久慈市立夏井中学校", "P29_005": "岩手県久慈市夏井町早坂3-20", "P29_006": "3", "P29_007": "1", "P29_008": "00", "P29_009": null }, "geometry": { "type": "Point", "coordinates": [ 141.763908632361705, 40.218265799649679 ] } },
{ "type": "Feature", "properties": { "P29_001": "03207", "P29_002": "C103220700052", "P29_003": "16002", "P29_004": "久慈市立侍浜中学校", "P29_005": "岩手県久慈市侍浜町本町9-152", "P29_006": "3", "P29_007": "1", "P29_008": "00", "P29_009": null }, "geometry": { "type": "Point", "coordinates": [ 141.783510188912032, 40.268890682048678 ] } },
{ "type": "Feature", "properties": { "P29_001": "03207", "P29_002": "C103220700061", "P29_003": "16002", "P29_004": "久慈市立宇部中学校", "P29_005": "岩手県久慈市宇部町6-133-13", "P29_006": "3", "P29_007": "1", "P29_008": "00", "P29_009": null }, "geometry": { "type": "Point", "coordinates": [ 141.784083151381907, 40.126539833109739 ] } },
{ "type": "Feature", "properties": { "P29_001": "03207", "P29_002": "C103220700070", "P29_003": "16002", "P29_004": "久慈市立三崎中学校", "P29_005": "岩手県久慈市宇部町22-961", "P29_006": "3", "P29_007": "1", "P29_008": "00", "P29_009": null }, "geometry": { "type": "Point", "coordinates": [ 141.851212620838737, 40.149296822295334 ] } },
{ "type": "Feature", "properties": { "P29_001": "03207", "P29_002": "C103220700089", "P29_003": "16002", "P29_004": "久慈市立山形中学校", "P29_005": "岩手県久慈市山形町川井10-87-11", "P29_006": "3", "P29_007": "1", "P29_008": "00", "P29_009": null }, "geometry": { "type": "Point", "coordinates": [ 141.568304311580306, 40.150598471815847 ] } },
{ "type": "Feature", "properties": { "P29_001": "03208", "P29_002": "C103220800015", "P29_003": "16002", "P29_004": "遠野市立遠野中学校", "P29_005": "岩手県遠野市松崎町白岩11-30", "P29_006": "3", "P29_007": "1", "P29_008": "00", "P29_009": null }, "geometry": { "type": "Point", "coordinates": [ 141.534984248436956, 39.338809575167026 ] } },
{ "type": "Feature", "properties": { "P29_001": "03208", "P29_002": "C103220800024", "P29_003": "16002", "P29_004": "遠野市立遠野東中学校", "P29_005": "岩手県遠野市青笹町青笹10-16", "P29_006": "3", "P29_007": "1", "P29_008": "00", "P29_009": null }, "geometry": { "type": "Point", "coordinates": [ 141.570432464680096, 39.322208340101369 ] } },
{ "type": "Feature", "properties": { "P29_001": "03208", "P29_002": "C103220800033", "P29_003": "16002", "P29_004": "遠野市立遠野西中学校", "P29_005": "岩手県遠野市宮守町下宮守39-65", "P29_006": "3", "P29_007": "1", "P29_008": "00", "P29_009": null }, "geometry": { "type": "Point", "coordinates": [ 141.371026932852089, 39.345138247047288 ] } },
{ "type": "Feature", "properties": { "P29_001": "03209", "P29_002": "C103220900014", "P29_003": "16002", "P29_004": "一関市立一関中学校", "P29_005": "岩手県一関市真柴字中田18", "P29_006": "3", "P29_007": "1", "P29_008": "00", "P29_009": null }, "geometry": { "type": "Point", "coordinates": [ 141.134889039435421, 38.912235411893469 ] } },
{ "type": "Feature", "properties": { "P29_001": "03209", "P29_002": "C103220900023", "P29_003": "16002", "P29_004": "一関市立桜町中学校", "P29_005": "岩手県一関市三関字桜町39-2", "P29_006": "3", "P29_007": "1", "P29_008": "00", "P29_009": null }, "geometry": { "type": "Point", "coordinates": [ 141.152662809885186, 38.930496797134801 ] } },
{ "type": "Feature", "properties": { "P29_001": "03209", "P29_002": "C103220900032", "P29_003": "16002", "P29_004": "一関市立厳美中学校", "P29_005": "岩手県一関市厳美町字上ノ台45-1", "P29_006": "3", "P29_007": "1", "P29_008": "00", "P29_009": null }, "geometry": { "type": "Point", "coordinates": [ 141.041440754048978, 38.943263888619995 ] } },
{ "type": "Feature", "properties": { "P29_001": "03209", "P29_002": "C103220900041", "P29_003": "16002", "P29_004": "一関市立舞川中学校", "P29_005": "岩手県一関市舞川字中入92-8", "P29_006": "3", "P29_007": "1", "P29_008": "00", "P29_009": null }, "geometry": { "type": "Point", "coordinates": [ 141.195837424600796, 38.968939642217407 ] } },
{ "type": "Feature", "properties": { "P29_001": "03209", "P29_002": "C103220900050", "P29_003": "16002", "P29_004": "一関市立萩荘中学校", "P29_005": "岩手県一関市萩荘字境ノ神240", "P29_006": "3", "P29_007": "1", "P29_008": "00", "P29_009": null }, "geometry": { "type": "Point", "coordinates": [ 141.09292428386604, 38.92125272610911 ] } },
{ "type": "Feature", "properties": { "P29_001": "03209", "P29_002": "C103220900069", "P29_003": "16002", "P29_004": "岩手県立一関第一高等学校附属中学校", "P29_005": "岩手県一関市磐井町9-1", "P29_006": "2", "P29_007": "1", "P29_008": "00", "P29_009": null }, "geometry": { "type": "Point", "coordinates": [ 141.136324970427125, 38.935682713259588 ] } },
{ "type": "Feature", "properties": { "P29_001": "03209", "P29_002": "C103220900078", "P29_003": "16002", "P29_004": "一関市立花泉中学校", "P29_005": "岩手県一関市花泉町涌津字古川8", "P29_006": "3", "P29_007": "1", "P29_008": "00", "P29_009": null }, "geometry": { "type": "Point", "coordinates": [ 141.187732953014319, 38.830285361372987 ] } },
{ "type": "Feature", "properties": { "P29_001": "03209", "P29_002": "C103220900087", "P29_003": "16002", "P29_004": "一関市立千厩中学校", "P29_005": "岩手県一関市千厩町千厩字上駒場195-5", "P29_006": "3", "P29_007": "1", "P29_008": "00", "P29_009": null }, "geometry": { "type": "Point", "coordinates": [ 141.357768152318442, 38.930233133754271 ] } },
{ "type": "Feature", "properties": { "P29_001": "03209", "P29_002": "C103220900096", "P29_003": "16002", "P29_004": "一関市立磐井中学校", "P29_005": "岩手県一関市山目字館46-1", "P29_006": "3", "P29_007": "1", "P29_008": "00", "P29_009": null }, "geometry": { "type": "Point", "coordinates": [ 141.123400509547736, 38.939063132060774 ] } },
{ "type": "Feature", "properties": { "P29_001": "03209", "P29_002": "C103220900130", "P29_003": "16002", "P29_004": "一関市立藤沢中学校", "P29_005": "岩手県一関市藤沢町藤沢字狩野40-3", "P29_006": "3", "P29_007": "1", "P29_008": "00", "P29_009": null }, "geometry": { "type": "Point", "coordinates": [ 141.346129561231578, 38.856645573668324 ] } },
{ "type": "Feature", "properties": { "P29_001": "03209", "P29_002": "C103220900149", "P29_003": "16002", "P29_004": "一関市立東山中学校", "P29_005": "岩手県一関市東山町長坂字北山谷46", "P29_006": "3", "P29_007": "1", "P29_008": "00", "P29_009": null }, "geometry": { "type": "Point", "coordinates": [ 141.248961352895094, 38.996522005018342 ] } },
{ "type": "Feature", "properties": { "P29_001": "03209", "P29_002": "C103220900158", "P29_003": "16002", "P29_004": "一関市立室根中学校", "P29_005": "岩手県一関市室根町矢越字五反田41-2", "P29_006": "3", "P29_007": "1", "P29_008": "00", "P29_009": null }, "geometry": { "type": "Point", "coordinates": [ 141.434353252711077, 38.934759434026425 ] } },
{ "type": "Feature", "properties": { "P29_001": "03209", "P29_002": "C103220900167", "P29_003": "16002", "P29_004": "一関市立川崎中学校", "P29_005": "岩手県一関市川崎町薄衣字上段1", "P29_006": "3", "P29_007": "1", "P29_008": "00", "P29_009": null }, "geometry": { "type": "Point", "coordinates": [ 141.262066904512722, 38.905975059972114 ] } },
{ "type": "Feature", "properties": { "P29_001": "03209", "P29_002": "C103220900176", "P29_003": "16002", "P29_004": "一関市立一関東中学校", "P29_005": "岩手県一関市滝沢字寺田下81-2", "P29_006": "3", "P29_007": "1", "P29_008": "00", "P29_009": null }, "geometry": { "type": "Point", "coordinates": [ 141.170877364151409, 38.910487192839547 ] } },
{ "type": "Feature", "properties": { "P29_001": "03209", "P29_002": "C103220900185", "P29_003": "16002", "P29_004": "一関市立大東中学校", "P29_005": "岩手県一関市大東町摺沢字上堺ノ沢21-1", "P29_006": "3", "P29_007": "1", "P29_008": "00", "P29_009": null }, "geometry": { "type": "Point", "coordinates": [ 141.326728878549318, 39.005773454297319 ] } },
{ "type": "Feature", "properties": { "P29_001": "03210", "P29_002": "C103221000011", "P29_003": "16002", "P29_004": "陸前高田市立高田東中学校", "P29_005": "岩手県陸前高田市米崎町字宇和方130-1", "P29_006": "3", "P29_007": "1", "P29_008": "00", "P29_009": null }, "geometry": { "type": "Point", "coordinates": [ 141.679191949675129, 39.007760410573212 ] } },
{ "type": "Feature", "properties": { "P29_001": "03210", "P29_002": "C103221000020", "P29_003": "16002", "P29_004": "陸前高田市立高田第一中学校", "P29_005": "岩手県陸前高田市高田町字鳴石5-1", "P29_006": "3", "P29_007": "1", "P29_008": "00", "P29_009": null }, "geometry": { "type": "Point", "coordinates": [ 141.625475111789541, 39.021809180888617 ] } },
{ "type": "Feature", "properties": { "P29_001": "03211", "P29_002": "C103221100010", "P29_003": "16002", "P29_004": "釜石市立甲子中学校", "P29_005": "岩手県釜石市甲子町9-156", "P29_006": "3", "P29_007": "1", "P29_008": "00", "P29_009": null }, "geometry": { "type": "Point", "coordinates": [ 141.79707059284695, 39.253563246634911 ] } },
{ "type": "Feature", "properties": { "P29_001": "03211", "P29_002": "C103221100029", "P29_003": "16002", "P29_004": "釜石市立唐丹中学校", "P29_005": "岩手県釜石市唐丹町字小白浜314", "P29_006": "3", "P29_007": "1", "P29_008": "00", "P29_009": null }, "geometry": { "type": "Point", "coordinates": [ 141.865324413825505, 39.209191562548874 ] } },
{ "type": "Feature", "properties": { "P29_001": "03211", "P29_002": "C103221100038", "P29_003": "16002", "P29_004": "釜石市立大平中学校", "P29_005": "岩手県釜石市大平町3-6-1", "P29_006": "3", "P29_007": "1", "P29_008": "00", "P29_009": null }, "geometry": { "type": "Point", "coordinates": [ 141.896381288307708, 39.260408270461433 ] } },
{ "type": "Feature", "properties": { "P29_001": "03211", "P29_002": "C103221100047", "P29_003": "16002", "P29_004": "釜石市立釜石東中学校", "P29_005": "岩手県釜石市鵜住居町13-20-3", "P29_006": "3", "P29_007": "1", "P29_008": "00", "P29_009": null }, "geometry": { "type": "Point", "coordinates": [ 141.884441906166472, 39.326523221190783 ] } },
{ "type": "Feature", "properties": { "P29_001": "03211", "P29_002": "C103221100056", "P29_003": "16002", "P29_004": "釜石市立釜石中学校", "P29_005": "岩手県釜石市中妻町1-6-8", "P29_006": "3", "P29_007": "1", "P29_008": "00", "P29_009": null }, "geometry": { "type": "Point", "coordinates": [ 141.862384843326367, 39.272846616783362 ] } },
{ "type": "Feature", "properties": { "P29_001": "03213", "P29_002": "C103221300018", "P29_003": "16002", "P29_004": "二戸市立福岡中学校", "P29_005": "岩手県二戸市福岡字下川又22-1", "P29_006": "3", "P29_007": "1", "P29_008": "00", "P29_009": null }, "geometry": { "type": "Point", "coordinates": [ 141.3056055819969, 40.272493186086599 ] } },
{ "type": "Feature", "properties": { "P29_001": "03213", "P29_002": "C103221300027", "P29_003": "16002", "P29_004": "二戸市立浄法寺中学校", "P29_005": "岩手県二戸市浄法寺町小池50-1", "P29_006": "3", "P29_007": "1", "P29_008": "00", "P29_009": null }, "geometry": { "type": "Point", "coordinates": [ 141.160658682956239, 40.187181008961005 ] } },
{ "type": "Feature", "properties": { "P29_001": "03213", "P29_002": "C103221300036", "P29_003": "16002", "P29_004": "二戸市立金田一中学校", "P29_005": "岩手県二戸市金田一字野月55", "P29_006": "3", "P29_007": "1", "P29_008": "00", "P29_009": null }, "geometry": { "type": "Point", "coordinates": [ 141.302102258855712, 40.313960303629599 ] } },
{ "type": "Feature", "properties": { "P29_001": "03214", "P29_002": "C103221400017", "P29_003": "16002", "P29_004": "八幡平市立西根中学校", "P29_005": "岩手県八幡平市大更24-25", "P29_006": "3", "P29_007": "1", "P29_008": "00", "P29_009": null }, "geometry": { "type": "Point", "coordinates": [ 141.090812353993897, 39.916095971569206 ] } },
{ "type": "Feature", "properties": { "P29_001": "03214", "P29_002": "C103221400026", "P29_003": "16002", "P29_004": "八幡平市立西根第一中学校", "P29_005": "岩手県八幡平市堀切12-40", "P29_006": "3", "P29_007": "1", "P29_008": "00", "P29_009": null }, "geometry": { "type": "Point", "coordinates": [ 141.101715301749692, 39.960015241928737 ] } },
{ "type": "Feature", "properties": { "P29_001": "03214", "P29_002": "C103221400035", "P29_003": "16002", "P29_004": "八幡平市立松尾中学校", "P29_005": "岩手県八幡平市野駄14-57", "P29_006": "3", "P29_007": "1", "P29_008": "00", "P29_009": null }, "geometry": { "type": "Point", "coordinates": [ 141.053457931544813, 39.941595207310904 ] } },
{ "type": "Feature", "properties": { "P29_001": "03214", "P29_002": "C103221400044", "P29_003": "16002", "P29_004": "八幡平市立安代中学校", "P29_005": "岩手県八幡平市清水50", "P29_006": "3", "P29_007": "1", "P29_008": "00", "P29_009": null }, "geometry": { "type": "Point", "coordinates": [ 141.047329254879088, 40.106695305979606 ] } },
{ "type": "Feature", "properties": { "P29_001": "03215", "P29_002": "C103221500016", "P29_003": "16002", "P29_004": "奥州市立水沢中学校", "P29_005": "岩手県奥州市水沢字南丑沢10-1", "P29_006": "3", "P29_007": "1", "P29_008": "00", "P29_009": null }, "geometry": { "type": "Point", "coordinates": [ 141.136958507306417, 39.153341154607276 ] } },
{ "type": "Feature", "properties": { "P29_001": "03215", "P29_002": "C103221500025", "P29_003": "16002", "P29_004": "奥州市立東水沢中学校", "P29_005": "岩手県奥州市水沢佐倉河字瀬ノ上2-5", "P29_006": "3", "P29_007": "1", "P29_008": "00", "P29_009": null }, "geometry": { "type": "Point", "coordinates": [ 141.166729190908086, 39.140060147492342 ] } },
{ "type": "Feature", "properties": { "P29_001": "03215", "P29_002": "C103221500034", "P29_003": "16002", "P29_004": "奥州市立水沢南中学校", "P29_005": "岩手県奥州市水沢真城字大檀39-1", "P29_006": "3", "P29_007": "1", "P29_008": "00", "P29_009": null }, "geometry": { "type": "Point", "coordinates": [ 141.142895232085237, 39.118597828780388 ] } },
{ "type": "Feature", "properties": { "P29_001": "03215", "P29_002": "C103221500052", "P29_003": "16002", "P29_004": "奥州市立江刺第一中学校", "P29_005": "岩手県奥州市江刺岩谷堂字小境1", "P29_006": "3", "P29_007": "1", "P29_008": "00", "P29_009": null }, "geometry": { "type": "Point", "coordinates": [ 141.168815993256629, 39.191511926067477 ] } },
{ "type": "Feature", "properties": { "P29_001": "03215", "P29_002": "C103221500070", "P29_003": "16002", "P29_004": "奥州市立前沢中学校", "P29_005": "岩手県奥州市前沢字久田31", "P29_006": "3", "P29_007": "1", "P29_008": "00", "P29_009": null }, "geometry": { "type": "Point", "coordinates": [ 141.138467075929213, 39.058672669521492 ] } },
{ "type": "Feature", "properties": { "P29_001": "03215", "P29_002": "C103221500089", "P29_003": "16002", "P29_004": "奥州市立衣川中学校", "P29_005": "岩手県奥州市衣川古戸403-1", "P29_006": "3", "P29_007": "1", "P29_008": "00", "P29_009": null }, "geometry": { "type": "Point", "coordinates": [ 141.066833735200248, 39.042236597398961 ] } },
{ "type": "Feature", "properties": { "P29_001": "03215", "P29_002": "C103221500098", "P29_003": "16002", "P29_004": "奥州市立胆沢中学校", "P29_005": "岩手県奥州市胆沢南都田字蛸ノ手6-1", "P29_006": "3", "P29_007": "1", "P29_008": "00", "P29_009": null }, "geometry": { "type": "Point", "coordinates": [ 141.069880337907591, 39.114880649506716 ] } },
{ "type": "Feature", "properties": { "P29_001": "03216", "P29_002": "C103221600015", "P29_003": "16002", "P29_004": "滝沢市立滝沢南中学校", "P29_005": "岩手県滝沢市鵜飼滝向11-1", "P29_006": "3", "P29_007": "1", "P29_008": "00", "P29_009": null }, "geometry": { "type": "Point", "coordinates": [ 141.076347157072234, 39.728377116641489 ] } },
{ "type": "Feature", "properties": { "P29_001": "03216", "P29_002": "C103221600024", "P29_003": "16002", "P29_004": "滝沢市立滝沢第二中学校", "P29_005": "岩手県滝沢市巣子152-91", "P29_006": "3", "P29_007": "1", "P29_008": "00", "P29_009": null }, "geometry": { "type": "Point", "coordinates": [ 141.137909907738361, 39.798965795887142 ] } },
{ "type": "Feature", "properties": { "P29_001": "03216", "P29_002": "C103221600033", "P29_003": "16002", "P29_004": "滝沢市立一本木中学校", "P29_005": "岩手県滝沢市巣子148", "P29_006": "3", "P29_007": "1", "P29_008": "00", "P29_009": null }, "geometry": { "type": "Point", "coordinates": [ 141.102691955547584, 39.82097853370027 ] } },
{ "type": "Feature", "properties": { "P29_001": "03216", "P29_002": "C103221600042", "P29_003": "16002", "P29_004": "滝沢市立姥屋敷中学校", "P29_005": "岩手県滝沢市鵜飼安達117-19", "P29_006": "3", "P29_007": "1", "P29_008": "00", "P29_009": null }, "geometry": { "type": "Point", "coordinates": [ 141.029005547045273, 39.771198472282528 ] } },
{ "type": "Feature", "properties": { "P29_001": "03216", "P29_002": "C103221600051", "P29_003": "16002", "P29_004": "滝沢市立柳沢中学校", "P29_005": "岩手県滝沢市柳沢1171", "P29_006": "3", "P29_007": "1", "P29_008": "00", "P29_009": null }, "geometry": { "type": "Point", "coordinates": [ 141.074849153756503, 39.814611391671811 ] } },
{ "type": "Feature", "properties": { "P29_001": "03216", "P29_002": "C103221600060", "P29_003": "16002", "P29_004": "滝沢市立滝沢中学校", "P29_005": "岩手県滝沢市外山86-20", "P29_006": "3", "P29_007": "1", "P29_008": "00", "P29_009": null }, "geometry": { "type": "Point", "coordinates": [ 141.089802451139008, 39.759291527337489 ] } },
{ "type": "Feature", "properties": { "P29_001": "03301", "P29_002": "C103230100011", "P29_003": "16002", "P29_004": "雫石町立雫石中学校", "P29_005": "岩手県岩手郡雫石町柿木74-1", "P29_006": "3", "P29_007": "1", "P29_008": "00", "P29_009": null }, "geometry": { "type": "Point", "coordinates": [ 140.967358966530298, 39.696667951213406 ] } },
{ "type": "Feature", "properties": { "P29_001": "03302", "P29_002": "C103230200010", "P29_003": "16002", "P29_004": "葛巻町立葛巻中学校", "P29_005": "岩手県岩手郡葛巻町葛巻20-91", "P29_006": "3", "P29_007": "1", "P29_008": "00", "P29_009": null }, "geometry": { "type": "Point", "coordinates": [ 141.431173592880185, 40.043714281867842 ] } },
{ "type": "Feature", "properties": { "P29_001": "03302", "P29_002": "C103230200029", "P29_003": "16002", "P29_004": "葛巻町立小屋瀬中学校", "P29_005": "岩手県岩手郡葛巻町葛巻28-76-70", "P29_006": "3", "P29_007": "1", "P29_008": "00", "P29_009": null }, "geometry": { "type": "Point", "coordinates": [ 141.397973412769375, 39.988269592596836 ] } },
{ "type": "Feature", "properties": { "P29_001": "03302", "P29_002": "C103230200038", "P29_003": "16002", "P29_004": "葛巻町立江刈中学校", "P29_005": "岩手県岩手郡葛巻町江刈16-54-2", "P29_006": "3", "P29_007": "1", "P29_008": "00", "P29_009": null }, "geometry": { "type": "Point", "coordinates": [ 141.487166226723389, 40.004060936940007 ] } },
{ "type": "Feature", "properties": { "P29_001": "03303", "P29_002": "C103230300019", "P29_003": "16002", "P29_004": "岩手町立川口中学校", "P29_005": "岩手県岩手郡岩手町川口17-24-13", "P29_006": "3", "P29_007": "1", "P29_008": "00", "P29_009": null }, "geometry": { "type": "Point", "coordinates": [ 141.203990534461525, 39.927925007908264 ] } },
{ "type": "Feature", "properties": { "P29_001": "03303", "P29_002": "C103230300028", "P29_003": "16002", "P29_004": "岩手町立一方井中学校", "P29_005": "岩手県岩手郡岩手町一方井15-79", "P29_006": "3", "P29_007": "1", "P29_008": "00", "P29_009": null }, "geometry": { "type": "Point", "coordinates": [ 141.170552524120126, 39.974617367189644 ] } },
{ "type": "Feature", "properties": { "P29_001": "03303", "P29_002": "C103230300037", "P29_003": "16002", "P29_004": "岩手町立沼宮内中学校", "P29_005": "岩手県岩手郡岩手町五日市8-30-2", "P29_006": "3", "P29_007": "1", "P29_008": "00", "P29_009": null }, "geometry": { "type": "Point", "coordinates": [ 141.224809954714033, 39.98102897900813 ] } },
{ "type": "Feature", "properties": { "P29_001": "03321", "P29_002": "C103232100017", "P29_003": "16002", "P29_004": "紫波町立紫波第一中学校", "P29_005": "岩手県紫波郡紫波町平沢字松田42-2", "P29_006": "3", "P29_007": "1", "P29_008": "00", "P29_009": null }, "geometry": { "type": "Point", "coordinates": [ 141.15734232838949, 39.548848986658832 ] } },
{ "type": "Feature", "properties": { "P29_001": "03321", "P29_002": "C103232100026", "P29_003": "16002", "P29_004": "紫波町立紫波第二中学校", "P29_005": "岩手県紫波郡紫波町犬吠森字間木沢70", "P29_006": "3", "P29_007": "1", "P29_008": "00", "P29_009": null }, "geometry": { "type": "Point", "coordinates": [ 141.178461763972791, 39.559053788938407 ] } },
{ "type": "Feature", "properties": { "P29_001": "03321", "P29_002": "C103232100035", "P29_003": "16002", "P29_004": "紫波町立紫波第三中学校", "P29_005": "岩手県紫波郡紫波町稲藤字牡丹野5-1", "P29_006": "3", "P29_007": "1", "P29_008": "00", "P29_009": null }, "geometry": { "type": "Point", "coordinates": [ 141.114183212121276, 39.550868098006717 ] } },
{ "type": "Feature", "properties": { "P29_001": "03322", "P29_002": "C103232200016", "P29_003": "16002", "P29_004": "矢巾町立矢巾中学校", "P29_005": "岩手県紫波郡矢巾町大字白沢5-220", "P29_006": "3", "P29_007": "1", "P29_008": "00", "P29_009": null }, "geometry": { "type": "Point", "coordinates": [ 141.143787413422615, 39.598054738291076 ] } },
{ "type": "Feature", "properties": { "P29_001": "03322", "P29_002": "C103232200025", "P29_003": "16002", "P29_004": "矢巾町立矢巾北中学校", "P29_005": "岩手県紫波郡矢巾町大字上矢次7-115", "P29_006": "3", "P29_007": "1", "P29_008": "00", "P29_009": null }, "geometry": { "type": "Point", "coordinates": [ 141.142447170437322, 39.626185940699031 ] } },
{ "type": "Feature", "properties": { "P29_001": "03366", "P29_002": "C103236600013", "P29_003": "16002", "P29_004": "西和賀町立湯田中学校", "P29_005": "岩手県和賀郡西和賀町川尻40-190-37", "P29_006": "3", "P29_007": "1", "P29_008": "00", "P29_009": null }, "geometry": { "type": "Point", "coordinates": [ 140.777992446631401, 39.32622378356858 ] } },
{ "type": "Feature", "properties": { "P29_001": "03366", "P29_002": "C103236600022", "P29_003": "16002", "P29_004": "西和賀町立沢内中学校", "P29_005": "岩手県和賀郡西和賀町沢内字太田1-13", "P29_006": "3", "P29_007": "1", "P29_008": "00", "P29_009": null }, "geometry": { "type": "Point", "coordinates": [ 140.750673405958679, 39.43759062118464 ] } },
{ "type": "Feature", "properties": { "P29_001": "03381", "P29_002": "C103238100014", "P29_003": "16002", "P29_004": "金ケ崎町立金ケ崎中学校", "P29_005": "岩手県胆沢郡金ケ崎町西根菖蒲沢27-1", "P29_006": "3", "P29_007": "1", "P29_008": "00", "P29_009": null }, "geometry": { "type": "Point", "coordinates": [ 141.092713923859293, 39.206383237746834 ] } },
{ "type": "Feature", "properties": { "P29_001": "03402", "P29_002": "C103240200019", "P29_003": "16002", "P29_004": "平泉町立平泉中学校", "P29_005": "岩手県西磐井郡平泉町平泉字倉町23", "P29_006": "3", "P29_007": "1", "P29_008": "00", "P29_009": null }, "geometry": { "type": "Point", "coordinates": [ 141.112167931884727, 38.985228618017942 ] } },
{ "type": "Feature", "properties": { "P29_001": "03441", "P29_002": "C103244100012", "P29_003": "16002", "P29_004": "住田町立世田米中学校", "P29_005": "岩手県気仙郡住田町世田米字大崎72-1", "P29_006": "3", "P29_007": "1", "P29_008": "00", "P29_009": null }, "geometry": { "type": "Point", "coordinates": [ 141.583226195895406, 39.139683873210309 ] } },
{ "type": "Feature", "properties": { "P29_001": "03441", "P29_002": "C103244100021", "P29_003": "16002", "P29_004": "住田町立有住中学校", "P29_005": "岩手県気仙郡住田町上有住字櫃割12-1", "P29_006": "3", "P29_007": "1", "P29_008": "00", "P29_009": null }, "geometry": { "type": "Point", "coordinates": [ 141.587437500385221, 39.195811216909313 ] } },
{ "type": "Feature", "properties": { "P29_001": "03461", "P29_002": "C103246100026", "P29_003": "16002", "P29_004": "大槌町立吉里吉里中学校", "P29_005": "岩手県上閉伊郡大槌町吉里吉里1-215", "P29_006": "3", "P29_007": "1", "P29_008": "00", "P29_009": null }, "geometry": { "type": "Point", "coordinates": [ 141.943188566288569, 39.366002541888292 ] } },
{ "type": "Feature", "properties": { "P29_001": "03482", "P29_002": "C103248200012", "P29_003": "16002", "P29_004": "山田町立山田中学校", "P29_005": "岩手県下閉伊郡山田町織笠14-32-1", "P29_006": "3", "P29_007": "1", "P29_008": "00", "P29_009": null }, "geometry": { "type": "Point", "coordinates": [ 141.953038016316015, 39.455922998321036 ] } },
{ "type": "Feature", "properties": { "P29_001": "03483", "P29_002": "C103248300011", "P29_003": "16002", "P29_004": "岩泉町立岩泉中学校", "P29_005": "岩手県下閉伊郡岩泉町岩泉字一ツ石4", "P29_006": "3", "P29_007": "1", "P29_008": "00", "P29_009": null }, "geometry": { "type": "Point", "coordinates": [ 141.803588746813062, 39.850422238714799 ] } },
{ "type": "Feature", "properties": { "P29_001": "03483", "P29_002": "C103248300039", "P29_003": "16002", "P29_004": "岩泉町立小川中学校", "P29_005": "岩手県下閉伊郡岩泉町門字町向39-1", "P29_006": "3", "P29_007": "1", "P29_008": "00", "P29_009": null }, "geometry": { "type": "Point", "coordinates": [ 141.653559386085362, 39.874557574665452 ] } },
{ "type": "Feature", "properties": { "P29_001": "03483", "P29_002": "C103248300048", "P29_003": "16002", "P29_004": "岩泉町立小本中学校", "P29_005": "岩手県下閉伊郡岩泉町小本字南中野145", "P29_006": "3", "P29_007": "1", "P29_008": "00", "P29_009": null }, "geometry": { "type": "Point", "coordinates": [ 141.954384047168418, 39.839748441768762 ] } },
{ "type": "Feature", "properties": { "P29_001": "03484", "P29_002": "C103248400010", "P29_003": "16002", "P29_004": "田野畑村立田野畑中学校", "P29_005": "岩手県下閉伊郡田野畑村松前沢87", "P29_006": "3", "P29_007": "1", "P29_008": "00", "P29_009": null }, "geometry": { "type": "Point", "coordinates": [ 141.909995575879321, 39.921719086990031 ] } },
{ "type": "Feature", "properties": { "P29_001": "03485", "P29_002": "C103248500019", "P29_003": "16002", "P29_004": "普代村立普代中学校", "P29_005": "岩手県下閉伊郡普代村14字宇留部45", "P29_006": "3", "P29_007": "1", "P29_008": "00", "P29_009": null }, "geometry": { "type": "Point", "coordinates": [ 141.890778515831386, 40.011310237183778 ] } },
{ "type": "Feature", "properties": { "P29_001": "03501", "P29_002": "C103250100019", "P29_003": "16002", "P29_004": "軽米町立軽米中学校", "P29_005": "岩手県九戸郡軽米町大字軽米6-17-1", "P29_006": "3", "P29_007": "1", "P29_008": "00", "P29_009": null }, "geometry": { "type": "Point", "coordinates": [ 141.461215198048933, 40.322343669241995 ] } },
{ "type": "Feature", "properties": { "P29_001": "03503", "P29_002": "C103250300017", "P29_003": "16002", "P29_004": "野田村立野田中学校", "P29_005": "岩手県九戸郡野田村野田22-114-13", "P29_006": "3", "P29_007": "1", "P29_008": "00", "P29_009": null }, "geometry": { "type": "Point", "coordinates": [ 141.803621365218589, 40.103049790151204 ] } },
{ "type": "Feature", "properties": { "P29_001": "03506", "P29_002": "C103250600014", "P29_003": "16002", "P29_004": "九戸村立九戸中学校", "P29_005": "岩手県九戸郡九戸村大字山根10-3", "P29_006": "3", "P29_007": "1", "P29_008": "00", "P29_009": null }, "geometry": { "type": "Point", "coordinates": [ 141.423245116181022, 40.188082139486518 ] } },
{ "type": "Feature", "properties": { "P29_001": "03507", "P29_002": "C103250700013", "P29_003": "16002", "P29_004": "洋野町立種市中学校", "P29_005": "岩手県九戸郡洋野町種市25-29", "P29_006": "3", "P29_007": "1", "P29_008": "00", "P29_009": null }, "geometry": { "type": "Point", "coordinates": [ 141.705078918372493, 40.412056369579204 ] } },
{ "type": "Feature", "properties": { "P29_001": "03507", "P29_002": "C103250700022", "P29_003": "16002", "P29_004": "洋野町立中野中学校", "P29_005": "岩手県九戸郡洋野町中野2-45-7", "P29_006": "3", "P29_007": "1", "P29_008": "00", "P29_009": null }, "geometry": { "type": "Point", "coordinates": [ 141.774501778353994, 40.30949531425204 ] } },
{ "type": "Feature", "properties": { "P29_001": "03507", "P29_002": "C103250700031", "P29_003": "16002", "P29_004": "洋野町立大野中学校", "P29_005": "岩手県九戸郡洋野町大野9-39-1", "P29_006": "3", "P29_007": "1", "P29_008": "00", "P29_009": null }, "geometry": { "type": "Point", "coordinates": [ 141.623830752927489, 40.284691562652526 ] } },
{ "type": "Feature", "properties": { "P29_001": "03524", "P29_002": "C103252400012", "P29_003": "16002", "P29_004": "一戸町立一戸中学校", "P29_005": "岩手県二戸郡一戸町一戸字砂森12", "P29_006": "3", "P29_007": "1", "P29_008": "00", "P29_009": null }, "geometry": { "type": "Point", "coordinates": [ 141.300703197293558, 40.204827654392929 ] } },
{ "type": "Feature", "properties": { "P29_001": "03524", "P29_002": "C103252400021", "P29_003": "16002", "P29_004": "一戸町立一戸中学校養護分校", "P29_005": "岩手県二戸郡一戸町一戸字砂森60-1", "P29_006": "3", "P29_007": "1", "P29_008": "00", "P29_009": null }, "geometry": { "type": "Point", "coordinates": [ 141.305082774803367, 40.20755165136719 ] } },
{ "type": "Feature", "properties": { "P29_001": "03524", "P29_002": "C103252400030", "P29_003": "16002", "P29_004": "一戸町立奥中山中学校", "P29_005": "岩手県二戸郡一戸町中山字軽井沢76-2", "P29_006": "3", "P29_007": "1", "P29_008": "00", "P29_009": null }, "geometry": { "type": "Point", "coordinates": [ 141.234277568692335, 40.066021452178497 ] } },
{ "type": "Feature", "properties": { "P29_001": "03201", "P29_002": "C103320100010", "P29_003": "16002", "P29_004": "岩手中学校", "P29_005": "岩手県盛岡市長田町7-60", "P29_006": "4", "P29_007": "1", "P29_008": "00", "P29_009": null }, "geometry": { "type": "Point", "coordinates": [ 141.139153349780145, 39.709047986753369 ] } },
{ "type": "Feature", "properties": { "P29_001": "03201", "P29_002": "C103320100029", "P29_003": "16002", "P29_004": "盛岡白百合学園中学校", "P29_005": "岩手県盛岡市山岸4-29-16", "P29_006": "4", "P29_007": "1", "P29_008": "00", "P29_009": null }, "geometry": { "type": "Point", "coordinates": [ 141.164259586676394, 39.723686439468089 ] } },
{ "type": "Feature", "properties": { "P29_001": "03201", "P29_002": "C103320100038", "P29_003": "16002", "P29_004": "盛岡中央高等学校附属中学校", "P29_005": "岩手県盛岡市みたけ4-26-8", "P29_006": "4", "P29_007": "1", "P29_008": "00", "P29_009": null }, "geometry": { "type": "Point", "coordinates": [ 141.123042304590797, 39.745993672300422 ] } }
]
}
