{
"type": "FeatureCollection",
"name": "geo_03_福祉用具貸与",
"crs": { "type": "name", "properties": { "name": "urn:ogc:def:crs:OGC:1.3:CRS84" } },
"features": [
{ "type": "Feature", "properties": { "内容": "けんこう【福祉用具貸与】岩手県盛岡市津志田町1-14-25ノーブル津志田101号", "url2": "https://www.kaigokensaku.mhlw.go.jp/03/index.php?action_kouhyou_detail_004_kani=true&JigyosyoCd=0370106551-00&ServiceCd=170&Type=search" }, "geometry": { "type": "Point", "coordinates": [ 141.15365989999998, 39.6685736 ] } },
{ "type": "Feature", "properties": { "内容": "株式会社ライフプラス【福祉用具貸与】岩手県盛岡市津志田町３丁目3-20", "url2": "https://www.kaigokensaku.mhlw.go.jp/03/index.php?action_kouhyou_detail_004_kani=true&JigyosyoCd=0370108094-00&ServiceCd=170&Type=search" }, "geometry": { "type": "Point", "coordinates": [ 141.1531043, 39.6652181 ] } },
{ "type": "Feature", "properties": { "内容": "ツカサコーポレーション【福祉用具貸与】岩手県盛岡市羽場10-1-9", "url2": "https://www.kaigokensaku.mhlw.go.jp/03/index.php?action_kouhyou_detail_004_kani=true&JigyosyoCd=0370100158-00&ServiceCd=170&Type=search" }, "geometry": { "type": "Point", "coordinates": [ 141.1261022, 39.6532079 ] } },
{ "type": "Feature", "properties": { "内容": "コープ介護・福祉センター【福祉用具貸与】岩手県盛岡市長橋町17-35", "url2": "https://www.kaigokensaku.mhlw.go.jp/03/index.php?action_kouhyou_detail_004_kani=true&JigyosyoCd=0370102063-00&ServiceCd=170&Type=search" }, "geometry": { "type": "Point", "coordinates": [ 141.102786840008548, 39.716993644073035 ] } },
{ "type": "Feature", "properties": { "内容": "株式会社サンメディカル肴町店【福祉用具貸与】岩手県盛岡市肴町2番31号", "url2": "https://www.kaigokensaku.mhlw.go.jp/03/index.php?action_kouhyou_detail_004_kani=true&JigyosyoCd=0370103665-00&ServiceCd=170&Type=search" }, "geometry": { "type": "Point", "coordinates": [ 141.152554059507167, 39.697875301297273 ] } },
{ "type": "Feature", "properties": { "内容": "株式会社サンメディックス　シルバーレンタルサービス盛岡【福祉用具貸与】岩手県盛岡市上田１丁目1-30", "url2": "https://www.kaigokensaku.mhlw.go.jp/03/index.php?action_kouhyou_detail_004_kani=true&JigyosyoCd=0372101154-00&ServiceCd=170&Type=search" }, "geometry": { "type": "Point", "coordinates": [ 141.147878398147554, 39.713361848148274 ] } },
{ "type": "Feature", "properties": { "内容": "株式会社小田島アクティ介護用品部岩手営業所【福祉用具貸与】岩手県盛岡市津志田町1丁目11番15号", "url2": "https://www.kaigokensaku.mhlw.go.jp/03/index.php?action_kouhyou_detail_004_kani=true&JigyosyoCd=0370101545-00&ServiceCd=170&Type=search" }, "geometry": { "type": "Point", "coordinates": [ 141.15414880000003, 39.6681264 ] } },
{ "type": "Feature", "properties": { "内容": "エム指定福祉用具センター【福祉用具貸与】岩手県盛岡市本宮三丁目29番1号", "url2": "https://www.kaigokensaku.mhlw.go.jp/03/index.php?action_kouhyou_detail_004_kani=true&JigyosyoCd=0370103731-00&ServiceCd=170&Type=search" }, "geometry": { "type": "Point", "coordinates": [ 141.132975, 39.6908064 ] } },
{ "type": "Feature", "properties": { "内容": "株式会社かんきょう盛岡支店【福祉用具貸与】岩手県盛岡向中野八丁目３番２号", "url2": "https://www.kaigokensaku.mhlw.go.jp/03/index.php?action_kouhyou_detail_004_kani=true&JigyosyoCd=0370108102-00&ServiceCd=170&Type=search" }, "geometry": { "type": "Point", "coordinates": [ 141.143108500000011, 39.6753484 ] } },
{ "type": "Feature", "properties": { "内容": "株式会社ケア・テック【福祉用具貸与】岩手県盛岡市湯沢16地割15番地8", "url2": "https://www.kaigokensaku.mhlw.go.jp/03/index.php?action_kouhyou_detail_004_kani=true&JigyosyoCd=0370100141-00&ServiceCd=170&Type=search" }, "geometry": { "type": "Point", "coordinates": [ 141.114277186508161, 39.652604502151917 ] } },
{ "type": "Feature", "properties": { "内容": "福祉用具事業所すがわら【福祉用具貸与】岩手県盛岡市湯沢東三丁目17番13号", "url2": "https://www.kaigokensaku.mhlw.go.jp/03/index.php?action_kouhyou_detail_004_kani=true&JigyosyoCd=0370105736-00&ServiceCd=170&Type=search" }, "geometry": { "type": "Point", "coordinates": [ 141.100957631352202, 39.640367978947587 ] } },
{ "type": "Feature", "properties": { "内容": "DCM盛南店【福祉用具貸与】岩手県盛岡市向中野7丁目16番77号DCM盛南店", "url2": "https://www.kaigokensaku.mhlw.go.jp/03/index.php?action_kouhyou_detail_004_kani=true&JigyosyoCd=0370107575-00&ServiceCd=170&Type=search" }, "geometry": { "type": "Point", "coordinates": [ 141.1365238, 39.6745414 ] } },
{ "type": "Feature", "properties": { "内容": "スマイルサポート株式会社【福祉用具貸与】岩手県盛岡市天昌寺町9-62-202", "url2": "https://www.kaigokensaku.mhlw.go.jp/03/index.php?action_kouhyou_detail_004_kani=true&JigyosyoCd=0370108003-00&ServiceCd=170&Type=search" }, "geometry": { "type": "Point", "coordinates": [ 141.119414299999988, 39.7106901 ] } },
{ "type": "Feature", "properties": { "内容": "第一商事株式会社レディーズ・アイ事業部【福祉用具貸与】岩手県盛岡市加賀野1-19-29", "url2": "https://www.kaigokensaku.mhlw.go.jp/03/index.php?action_kouhyou_detail_004_kani=true&JigyosyoCd=0370100166-00&ServiceCd=170&Type=search" }, "geometry": { "type": "Point", "coordinates": [ 141.163985599999933, 39.7071721 ] } },
{ "type": "Feature", "properties": { "内容": "ダスキンヘルスレント盛岡ステーション【福祉用具貸与】岩手県盛岡市上堂１丁目4番38号", "url2": "https://www.kaigokensaku.mhlw.go.jp/03/index.php?action_kouhyou_detail_004_kani=true&JigyosyoCd=0370100935-00&ServiceCd=170&Type=search" }, "geometry": { "type": "Point", "coordinates": [ 141.125621799999976, 39.7243555 ] } },
{ "type": "Feature", "properties": { "内容": "パナソニックエイジフリーショップ盛岡【福祉用具貸与】岩手県盛岡市乙部28地割25番地2", "url2": "https://www.kaigokensaku.mhlw.go.jp/03/index.php?action_kouhyou_detail_004_kani=true&JigyosyoCd=0370104168-00&ServiceCd=170&Type=search" }, "geometry": { "type": "Point", "coordinates": [ 141.2018152, 39.6062097 ] } },
{ "type": "Feature", "properties": { "内容": "フォレスト福祉用具サービス盛岡【福祉用具貸与】岩手県盛岡市本宮六丁目2番26号", "url2": "https://www.kaigokensaku.mhlw.go.jp/03/index.php?action_kouhyou_detail_004_kani=true&JigyosyoCd=0370106817-00&ServiceCd=170&Type=search" }, "geometry": { "type": "Point", "coordinates": [ 141.123771989414962, 39.68843601164938 ] } },
{ "type": "Feature", "properties": { "内容": "ウエルネス生活研究所【福祉用具貸与】岩手県盛岡市本宮六丁目1番47号", "url2": "https://www.kaigokensaku.mhlw.go.jp/03/index.php?action_kouhyou_detail_004_kani=true&JigyosyoCd=0370103798-00&ServiceCd=170&Type=search" }, "geometry": { "type": "Point", "coordinates": [ 141.125305426458681, 39.688051781963054 ] } },
{ "type": "Feature", "properties": { "内容": "有限会社　介護リフォームセンター　宮古営業所【福祉用具貸与】岩手県宮古市板屋3丁目3番3号", "url2": "https://www.kaigokensaku.mhlw.go.jp/03/index.php?action_kouhyou_detail_004_kani=true&JigyosyoCd=0370200677-00&ServiceCd=170&Type=search" }, "geometry": { "type": "Point", "coordinates": [ 141.914729699999953, 39.6344031 ] } },
{ "type": "Feature", "properties": { "内容": "株式会社サンメディカル宮古店【福祉用具貸与】岩手県宮古市長根2丁目6-4", "url2": "https://www.kaigokensaku.mhlw.go.jp/03/index.php?action_kouhyou_detail_004_kani=true&JigyosyoCd=0370200735-00&ServiceCd=170&Type=search" }, "geometry": { "type": "Point", "coordinates": [ 141.931824340367314, 39.640019239763241 ] } },
{ "type": "Feature", "properties": { "内容": "ツカサ介護サービス宮古センター【福祉用具貸与】岩手県宮古市宮町4-1-9", "url2": "https://www.kaigokensaku.mhlw.go.jp/03/index.php?action_kouhyou_detail_004_kani=true&JigyosyoCd=0370200172-00&ServiceCd=170&Type=search" }, "geometry": { "type": "Point", "coordinates": [ 141.939146700000038, 39.647019 ] } },
{ "type": "Feature", "properties": { "内容": "株式会社ケア・テック宮古営業所【福祉用具貸与】岩手県宮古市崎鍬ヶ崎第１地割１１ー２６", "url2": "https://www.kaigokensaku.mhlw.go.jp/03/index.php?action_kouhyou_detail_004_kani=true&JigyosyoCd=0370200313-00&ServiceCd=170&Type=search" }, "geometry": { "type": "Point", "coordinates": [ 141.9487514, 39.6590067 ] } },
{ "type": "Feature", "properties": { "内容": "株式会社ＴＡＫＵＭＩコーポレーション【福祉用具貸与】岩手県宮古市藤原一丁目8番8号", "url2": "https://www.kaigokensaku.mhlw.go.jp/03/index.php?action_kouhyou_detail_004_kani=true&JigyosyoCd=0370201022-00&ServiceCd=170&Type=search" }, "geometry": { "type": "Point", "coordinates": [ 141.959341557324933, 39.63783622650012 ] } },
{ "type": "Feature", "properties": { "内容": "株式会社サンメディカル大船渡店【福祉用具貸与】岩手県大船渡市赤崎町字佐野83", "url2": "https://www.kaigokensaku.mhlw.go.jp/03/index.php?action_kouhyou_detail_004_kani=true&JigyosyoCd=0370300295-00&ServiceCd=170&Type=search" }, "geometry": { "type": "Point", "coordinates": [ 141.723642802250993, 39.079725603618407 ] } },
{ "type": "Feature", "properties": { "内容": "株式会社ケア・テック大船渡営業所【福祉用具貸与】岩手県大船渡市大船渡町山馬越182-5", "url2": "https://www.kaigokensaku.mhlw.go.jp/03/index.php?action_kouhyou_detail_004_kani=true&JigyosyoCd=0370300584-00&ServiceCd=170&Type=search" }, "geometry": { "type": "Point", "coordinates": [ 141.710085389678767, 39.072327912476545 ] } },
{ "type": "Feature", "properties": { "内容": "クレール【福祉用具貸与】岩手県大船渡市大船渡町字茶屋前56-5", "url2": "https://www.kaigokensaku.mhlw.go.jp/03/index.php?action_kouhyou_detail_004_kani=true&JigyosyoCd=0370300337-00&ServiceCd=170&Type=search" }, "geometry": { "type": "Point", "coordinates": [ 141.718513463481258, 39.063524782514705 ] } },
{ "type": "Feature", "properties": { "内容": "福祉用具センターぼだいじゅ【福祉用具貸与】岩手県花巻市東町1番5号", "url2": "https://www.kaigokensaku.mhlw.go.jp/03/index.php?action_kouhyou_detail_004_kani=true&JigyosyoCd=0370500654-00&ServiceCd=170&Type=search" }, "geometry": { "type": "Point", "coordinates": [ 141.119320199999947, 39.3857371 ] } },
{ "type": "Feature", "properties": { "内容": "サカモト介護レンタル【福祉用具貸与】岩手県花巻市仲町５番４４号", "url2": "https://www.kaigokensaku.mhlw.go.jp/03/index.php?action_kouhyou_detail_004_kani=true&JigyosyoCd=0370500670-00&ServiceCd=170&Type=search" }, "geometry": { "type": "Point", "coordinates": [ 141.118344084161436, 39.387438046367592 ] } },
{ "type": "Feature", "properties": { "内容": "介護レンタルショップ三光【福祉用具貸与】岩手県花巻市西宮野目第１１地割１１５－２", "url2": "https://www.kaigokensaku.mhlw.go.jp/03/index.php?action_kouhyou_detail_004_kani=true&JigyosyoCd=0370500621-00&ServiceCd=170&Type=search" }, "geometry": { "type": "Point", "coordinates": [ 141.126575126204301, 39.415025054785197 ] } },
{ "type": "Feature", "properties": { "内容": "株式会社メディケアエコネット【福祉用具貸与】岩手県北上市相去町西裏1番地41", "url2": "https://www.kaigokensaku.mhlw.go.jp/03/index.php?action_kouhyou_detail_004_kani=true&JigyosyoCd=0370600389-00&ServiceCd=170&Type=search" }, "geometry": { "type": "Point", "coordinates": [ 141.11233059999995, 39.2639227 ] } },
{ "type": "Feature", "properties": { "内容": "株式会社東北メディケアサービス日高見福祉用具センター【福祉用具貸与】岩手県北上市上江釣子16-62-1", "url2": "https://www.kaigokensaku.mhlw.go.jp/03/index.php?action_kouhyou_detail_004_kani=true&JigyosyoCd=0370601254-00&ServiceCd=170&Type=search" }, "geometry": { "type": "Point", "coordinates": [ 141.075892475131212, 39.301163503467123 ] } },
{ "type": "Feature", "properties": { "内容": "シルバーサポート「きずな」【福祉用具貸与】岩手県北上市北鬼柳19地割68番地", "url2": "https://www.kaigokensaku.mhlw.go.jp/03/index.php?action_kouhyou_detail_004_kani=true&JigyosyoCd=0370601247-00&ServiceCd=170&Type=search" }, "geometry": { "type": "Point", "coordinates": [ 141.093084532402031, 39.293695281290169 ] } },
{ "type": "Feature", "properties": { "内容": "有限会社幸和産業【福祉用具貸与】岩手県北上市村崎野15地割354番地1", "url2": "https://www.kaigokensaku.mhlw.go.jp/03/index.php?action_kouhyou_detail_004_kani=true&JigyosyoCd=0370600108-00&ServiceCd=170&Type=search" }, "geometry": { "type": "Point", "coordinates": [ 141.10283789999994, 39.323352200000016 ] } },
{ "type": "Feature", "properties": { "内容": "秋田基準寝具株式会社北上営業所【福祉用具貸与】岩手県北上市鬼柳町川原小屋26-3", "url2": "https://www.kaigokensaku.mhlw.go.jp/03/index.php?action_kouhyou_detail_004_kani=true&JigyosyoCd=0370600462-00&ServiceCd=170&Type=search" }, "geometry": { "type": "Point", "coordinates": [ 141.111464046188217, 39.269111780956727 ] } },
{ "type": "Feature", "properties": { "内容": "ダスキンヘルスレント北上ステーション【福祉用具貸与】岩手県北上市有田町９番５１号", "url2": "https://www.kaigokensaku.mhlw.go.jp/03/index.php?action_kouhyou_detail_004_kani=true&JigyosyoCd=0370600538-00&ServiceCd=170&Type=search" }, "geometry": { "type": "Point", "coordinates": [ 141.105227499999955, 39.2937387 ] } },
{ "type": "Feature", "properties": { "内容": "メディカルサービス久慈【福祉用具貸与】岩手県久慈市本町２－４４", "url2": "https://www.kaigokensaku.mhlw.go.jp/03/index.php?action_kouhyou_detail_004_kani=true&JigyosyoCd=0370700197-00&ServiceCd=170&Type=search" }, "geometry": { "type": "Point", "coordinates": [ 141.7695913, 40.1878246 ] } },
{ "type": "Feature", "properties": { "内容": "有限会社ケアサポートホソタ【福祉用具貸与】岩手県久慈市旭町10-63", "url2": "https://www.kaigokensaku.mhlw.go.jp/03/index.php?action_kouhyou_detail_004_kani=true&JigyosyoCd=0370700064-00&ServiceCd=170&Type=search" }, "geometry": { "type": "Point", "coordinates": [ 141.778740299999981, 40.1989927 ] } },
{ "type": "Feature", "properties": { "内容": "ツカサ介護サービス遠野センター【福祉用具貸与】岩手県遠野市中央通り8-2", "url2": "https://www.kaigokensaku.mhlw.go.jp/03/index.php?action_kouhyou_detail_004_kani=true&JigyosyoCd=0370800500-00&ServiceCd=170&Type=search" }, "geometry": { "type": "Point", "coordinates": [ 141.532786399999964, 39.3292043 ] } },
{ "type": "Feature", "properties": { "内容": "有限会社介護リフォームセンター遠野営業所【福祉用具貸与】岩手県遠野市松崎町白岩4-22-18", "url2": "https://www.kaigokensaku.mhlw.go.jp/03/index.php?action_kouhyou_detail_004_kani=true&JigyosyoCd=0370800351-00&ServiceCd=170&Type=search" }, "geometry": { "type": "Point", "coordinates": [ 141.525383799999986, 39.3394028 ] } },
{ "type": "Feature", "properties": { "内容": "あおいケアサービス【福祉用具貸与】岩手県一関市藤沢町新沼字中ノ沢80", "url2": "https://www.kaigokensaku.mhlw.go.jp/03/index.php?action_kouhyou_detail_004_kani=true&JigyosyoCd=0370901597-00&ServiceCd=170&Type=search" }, "geometry": { "type": "Point", "coordinates": [ 141.3485329, 38.8766186 ] } },
{ "type": "Feature", "properties": { "内容": "株式会社サンメディカル一関店【福祉用具貸与】岩手県一関市萩荘字金ヶ崎18-1", "url2": "https://www.kaigokensaku.mhlw.go.jp/03/index.php?action_kouhyou_detail_004_kani=true&JigyosyoCd=0370900680-00&ServiceCd=170&Type=search" }, "geometry": { "type": "Point", "coordinates": [ 141.110254299999951, 38.9215557 ] } },
{ "type": "Feature", "properties": { "内容": "福祉用具さくら【福祉用具貸与】岩手県一関市東山町長坂字町325", "url2": "https://www.kaigokensaku.mhlw.go.jp/03/index.php?action_kouhyou_detail_004_kani=true&JigyosyoCd=0370902108-00&ServiceCd=170&Type=search" }, "geometry": { "type": "Point", "coordinates": [ 141.251623200000012, 38.991732 ] } },
{ "type": "Feature", "properties": { "内容": "株式会社ライフケア幸成堂【福祉用具貸与】岩手県一関市大町4-23", "url2": "https://www.kaigokensaku.mhlw.go.jp/03/index.php?action_kouhyou_detail_004_kani=true&JigyosyoCd=0370900151-00&ServiceCd=170&Type=search" }, "geometry": { "type": "Point", "coordinates": [ 141.136802499999959, 38.928832900000018 ] } },
{ "type": "Feature", "properties": { "内容": "有限会社永澤家具店【福祉用具貸与】岩手県一関市千厩町千厩字東小田90ショッピングモール　エスピア", "url2": "https://www.kaigokensaku.mhlw.go.jp/03/index.php?action_kouhyou_detail_004_kani=true&JigyosyoCd=0372700559-00&ServiceCd=170&Type=search" }, "geometry": { "type": "Point", "coordinates": [ 141.327266242297355, 38.906841258865121 ] } },
{ "type": "Feature", "properties": { "内容": "株式会社小田島アクティぼだいじゅ一関店【福祉用具貸与】岩手県一関市山目字中野188番地1", "url2": "https://www.kaigokensaku.mhlw.go.jp/03/index.php?action_kouhyou_detail_004_kani=true&JigyosyoCd=0370900557-00&ServiceCd=170&Type=search" }, "geometry": { "type": "Point", "coordinates": [ 141.115110784594663, 38.932662880480144 ] } },
{ "type": "Feature", "properties": { "内容": "株式会社アルプスビジネスクリエーション一関営業所【福祉用具貸与】一関市滝沢字鶴ヶ沢7番地62", "url2": "https://www.kaigokensaku.mhlw.go.jp/03/index.php?action_kouhyou_detail_004_kani=true&JigyosyoCd=0370901373-00&ServiceCd=170&Type=search" }, "geometry": { "type": "Point", "coordinates": [ 141.160867976964795, 38.905966019840051 ] } },
{ "type": "Feature", "properties": { "内容": "福祉用具ケアリー東北【福祉用具貸与】岩手県一関市中里字舟場64番1", "url2": "https://www.kaigokensaku.mhlw.go.jp/03/index.php?action_kouhyou_detail_004_kani=true&JigyosyoCd=0370902280-00&ServiceCd=170&Type=search" }, "geometry": { "type": "Point", "coordinates": [ 141.1511765, 38.9359861 ] } },
{ "type": "Feature", "properties": { "内容": "有限会社和光商事【福祉用具貸与】岩手県一関市山目町三丁目7番2号", "url2": "https://www.kaigokensaku.mhlw.go.jp/03/index.php?action_kouhyou_detail_004_kani=true&JigyosyoCd=0370900417-00&ServiceCd=170&Type=search" }, "geometry": { "type": "Point", "coordinates": [ 141.1300496, 38.9521165 ] } },
{ "type": "Feature", "properties": { "内容": "有限会社宍戸家具部【福祉用具貸与】岩手県一関市大東町摺沢字新右ェ門土手６番地２", "url2": "https://www.kaigokensaku.mhlw.go.jp/03/index.php?action_kouhyou_detail_004_kani=true&JigyosyoCd=0372700476-00&ServiceCd=170&Type=search" }, "geometry": { "type": "Point", "coordinates": [ 141.324968500000068, 38.996446 ] } },
{ "type": "Feature", "properties": { "内容": "株式会社ちわく【福祉用具貸与】岩手県一関市花泉町涌津字下原1-1", "url2": "https://www.kaigokensaku.mhlw.go.jp/03/index.php?action_kouhyou_detail_004_kani=true&JigyosyoCd=0370901035-00&ServiceCd=170&Type=search" }, "geometry": { "type": "Point", "coordinates": [ 141.184866100000022, 38.8280242 ] } },
{ "type": "Feature", "properties": { "内容": "株式会社ユースフル【福祉用具貸与】岩手県一関市青葉８番２０号鈴木ビル２階", "url2": "https://www.kaigokensaku.mhlw.go.jp/03/index.php?action_kouhyou_detail_004_kani=true&JigyosyoCd=0370902090-00&ServiceCd=170&Type=search" }, "geometry": { "type": "Point", "coordinates": [ 141.12542462569084, 38.929895523031874 ] } },
{ "type": "Feature", "properties": { "内容": "フォレスト福祉用具サービス【福祉用具貸与】岩手県一関市萩荘字打ノ目255-1", "url2": "https://www.kaigokensaku.mhlw.go.jp/03/index.php?action_kouhyou_detail_004_kani=true&JigyosyoCd=0370901381-00&ServiceCd=170&Type=search" }, "geometry": { "type": "Point", "coordinates": [ 141.095896356369849, 38.918458397263549 ] } },
{ "type": "Feature", "properties": { "内容": "株式会社小田島アクティ介護用品部高田営業所【福祉用具貸与】岩手県陸前高田市高田町字鳴石210番地1", "url2": "https://www.kaigokensaku.mhlw.go.jp/03/index.php?action_kouhyou_detail_004_kani=true&JigyosyoCd=0371000209-00&ServiceCd=170&Type=search" }, "geometry": { "type": "Point", "coordinates": [ 141.627022600000032, 39.0213671 ] } },
{ "type": "Feature", "properties": { "内容": "ツカサ介護サービス釜石センター【福祉用具貸与】岩手県釜石市中妻町1-18-17", "url2": "https://www.kaigokensaku.mhlw.go.jp/03/index.php?action_kouhyou_detail_004_kani=true&JigyosyoCd=0371100124-00&ServiceCd=170&Type=search" }, "geometry": { "type": "Point", "coordinates": [ 141.861429600000065, 39.2711189 ] } },
{ "type": "Feature", "properties": { "内容": "ウェルネスコーポレーション釜石【福祉用具貸与】岩手県釜石市大町２丁目２番２４号", "url2": "https://www.kaigokensaku.mhlw.go.jp/03/index.php?action_kouhyou_detail_004_kani=true&JigyosyoCd=0371100835-00&ServiceCd=170&Type=search" }, "geometry": { "type": "Point", "coordinates": [ 141.880874473541326, 39.273897348423446 ] } },
{ "type": "Feature", "properties": { "内容": "有限会社介護リフォームセンター【福祉用具貸与】岩手県釜石市定内町３丁目10-23", "url2": "https://www.kaigokensaku.mhlw.go.jp/03/index.php?action_kouhyou_detail_004_kani=true&JigyosyoCd=0371100348-00&ServiceCd=170&Type=search" }, "geometry": { "type": "Point", "coordinates": [ 141.831807632046548, 39.257068739329057 ] } },
{ "type": "Feature", "properties": { "内容": "株式会社小田島アクティ介護用品部釜石営業所【福祉用具貸与】岩手県釜石市鵜住居町10-30-8-2", "url2": "https://www.kaigokensaku.mhlw.go.jp/03/index.php?action_kouhyou_detail_004_kani=true&JigyosyoCd=0371100512-00&ServiceCd=170&Type=search" }, "geometry": { "type": "Point", "coordinates": [ 141.876228820806887, 39.336097967581594 ] } },
{ "type": "Feature", "properties": { "内容": "株式会社サンメディカル県北営業所【福祉用具貸与】岩手県二戸市金田一字上田面222番地8", "url2": "https://www.kaigokensaku.mhlw.go.jp/03/index.php?action_kouhyou_detail_004_kani=true&JigyosyoCd=0373200344-00&ServiceCd=170&Type=search" }, "geometry": { "type": "Point", "coordinates": [ 141.298997230089299, 40.29986993935983 ] } },
{ "type": "Feature", "properties": { "内容": "有限会社コミュニティワークス介護センターカシオペア【福祉用具貸与】岩手県二戸市堀野字大川原毛92番地9", "url2": "https://www.kaigokensaku.mhlw.go.jp/03/index.php?action_kouhyou_detail_004_kani=true&JigyosyoCd=0371300211-00&ServiceCd=170&Type=search" }, "geometry": { "type": "Point", "coordinates": [ 141.304471164418004, 40.299094930129698 ] } },
{ "type": "Feature", "properties": { "内容": "株式会社かんきょう二戸営業所【福祉用具貸与】岩手県二戸市金田一字八ツ長125番地1", "url2": "https://www.kaigokensaku.mhlw.go.jp/03/index.php?action_kouhyou_detail_004_kani=true&JigyosyoCd=0371300567-00&ServiceCd=170&Type=search" }, "geometry": { "type": "Point", "coordinates": [ 141.298952500000041, 40.2998922 ] } },
{ "type": "Feature", "properties": { "内容": "株式会社ケア・テック二戸営業所【福祉用具貸与】岩手県二戸市福岡字上町８", "url2": "https://www.kaigokensaku.mhlw.go.jp/03/index.php?action_kouhyou_detail_004_kani=true&JigyosyoCd=0371300195-00&ServiceCd=170&Type=search" }, "geometry": { "type": "Point", "coordinates": [ 141.300611500000059, 40.2725547 ] } },
{ "type": "Feature", "properties": { "内容": "有限会社ハセメディカルサービス【福祉用具貸与】岩手県奥州市水沢星ガ丘町7-6", "url2": "https://www.kaigokensaku.mhlw.go.jp/03/index.php?action_kouhyou_detail_004_kani=true&JigyosyoCd=0370400202-00&ServiceCd=170&Type=search" }, "geometry": { "type": "Point", "coordinates": [ 141.131012444180328, 39.133392138935214 ] } },
{ "type": "Feature", "properties": { "内容": "ケアネット・アテルイ有限会社【福祉用具貸与】岩手県奥州市水沢宮下町84番地", "url2": "https://www.kaigokensaku.mhlw.go.jp/03/index.php?action_kouhyou_detail_004_kani=true&JigyosyoCd=0370400525-00&ServiceCd=170&Type=search" }, "geometry": { "type": "Point", "coordinates": [ 141.1379597939071, 39.137802880723086 ] } },
{ "type": "Feature", "properties": { "内容": "株式会社ケアネット岩手サービスセンター【福祉用具貸与】岩手県奥州市水沢花園町一丁目19番16号", "url2": "https://www.kaigokensaku.mhlw.go.jp/03/index.php?action_kouhyou_detail_004_kani=true&JigyosyoCd=0371500364-00&ServiceCd=170&Type=search" }, "geometry": { "type": "Point", "coordinates": [ 141.147945899999968, 39.1414708 ] } },
{ "type": "Feature", "properties": { "内容": "株式会社かんきょう岩手南営業所【福祉用具貸与】岩手県奥州市水沢真城字南塩加羅5番地1", "url2": "https://www.kaigokensaku.mhlw.go.jp/03/index.php?action_kouhyou_detail_004_kani=true&JigyosyoCd=0371501008-00&ServiceCd=170&Type=search" }, "geometry": { "type": "Point", "coordinates": [ 141.148779500000046, 39.1292556 ] } },
{ "type": "Feature", "properties": { "内容": "株式会社ケア・テック水沢営業所【福祉用具貸与】岩手県奥州市水沢中田町４番３８号", "url2": "https://www.kaigokensaku.mhlw.go.jp/03/index.php?action_kouhyou_detail_004_kani=true&JigyosyoCd=0370400459-00&ServiceCd=170&Type=search" }, "geometry": { "type": "Point", "coordinates": [ 141.1517569, 39.1323915 ] } },
{ "type": "Feature", "properties": { "内容": "株式会社ナカノメ【福祉用具貸与】岩手県奥州市水沢字吉小路46-2", "url2": "https://www.kaigokensaku.mhlw.go.jp/03/index.php?action_kouhyou_detail_004_kani=true&JigyosyoCd=0371500034-00&ServiceCd=170&Type=search" }, "geometry": { "type": "Point", "coordinates": [ 141.140023885705546, 39.142791454733846 ] } },
{ "type": "Feature", "properties": { "内容": "株式会社正和介護事業部【福祉用具貸与】岩手県奥州市水沢真城字迎畑９０－２スズシン物流システム（株）事務所内", "url2": "https://www.kaigokensaku.mhlw.go.jp/03/index.php?action_kouhyou_detail_004_kani=true&JigyosyoCd=0371500398-00&ServiceCd=170&Type=search" }, "geometry": { "type": "Point", "coordinates": [ 141.155962499999987, 39.1181516 ] } },
{ "type": "Feature", "properties": { "内容": "ダスキンヘルスレント奥州ステーション【福祉用具貸与】岩手県奥州市水沢内匠田30", "url2": "https://www.kaigokensaku.mhlw.go.jp/03/index.php?action_kouhyou_detail_004_kani=true&JigyosyoCd=0371500943-00&ServiceCd=170&Type=search" }, "geometry": { "type": "Point", "coordinates": [ 141.125062098672515, 39.143154310539984 ] } },
{ "type": "Feature", "properties": { "内容": "ウェルネスコーポレーション盛岡【福祉用具貸与】岩手県滝沢市篠木黒畑137-1", "url2": "https://www.kaigokensaku.mhlw.go.jp/03/index.php?action_kouhyou_detail_004_kani=true&JigyosyoCd=0372101683-00&ServiceCd=170&Type=search" }, "geometry": { "type": "Point", "coordinates": [ 141.07545140000002, 39.7096693 ] } },
{ "type": "Feature", "properties": { "内容": "株式会社アルプスビジネスクリエーション盛岡営業所【福祉用具貸与】岩手県滝沢市外山170-6", "url2": "https://www.kaigokensaku.mhlw.go.jp/03/index.php?action_kouhyou_detail_004_kani=true&JigyosyoCd=0372101832-00&ServiceCd=170&Type=search" }, "geometry": { "type": "Point", "coordinates": [ 141.095059799999945, 39.7553708 ] } },
{ "type": "Feature", "properties": { "内容": "ライブケアメイトいわてまち【福祉用具貸与】岩手県岩手郡岩手町大字江刈内１０－５０－１５", "url2": "https://www.kaigokensaku.mhlw.go.jp/03/index.php?action_kouhyou_detail_004_kani=true&JigyosyoCd=0372101998-00&ServiceCd=170&Type=search" }, "geometry": { "type": "Point", "coordinates": [ 141.220901300000037, 39.966402 ] } },
{ "type": "Feature", "properties": { "内容": "株式会社アルプスビジネスクリエーション紫波営業所【福祉用具貸与】岩手県紫波郡紫波町二日町字北七久保232番地1", "url2": "https://www.kaigokensaku.mhlw.go.jp/03/index.php?action_kouhyou_detail_004_kani=true&JigyosyoCd=0372200824-00&ServiceCd=170&Type=search" }, "geometry": { "type": "Point", "coordinates": [ 141.165721299999973, 39.5635196 ] } },
{ "type": "Feature", "properties": { "内容": "株式会社サンメディカル【福祉用具貸与】岩手県紫波郡矢巾町流通センター南1丁目7-8", "url2": "https://www.kaigokensaku.mhlw.go.jp/03/index.php?action_kouhyou_detail_004_kani=true&JigyosyoCd=0370100497-00&ServiceCd=170&Type=search" }, "geometry": { "type": "Point", "coordinates": [ 141.111495900000023, 39.6404479 ] } },
{ "type": "Feature", "properties": { "内容": "フランスベッド株式会社メディカル盛岡営業所【福祉用具貸与】岩手県紫波郡矢巾町広宮沢第１１地割５０１－１１", "url2": "https://www.kaigokensaku.mhlw.go.jp/03/index.php?action_kouhyou_detail_004_kani=true&JigyosyoCd=0370103749-00&ServiceCd=170&Type=search" }, "geometry": { "type": "Point", "coordinates": [ 141.115670899999941, 39.63351 ] } },
{ "type": "Feature", "properties": { "内容": "株式会社サンメディカル金ケ崎【福祉用具貸与】岩手県胆沢郡金ケ崎町西根本宮後15番地", "url2": "https://www.kaigokensaku.mhlw.go.jp/03/index.php?action_kouhyou_detail_004_kani=true&JigyosyoCd=0372500538-00&ServiceCd=170&Type=search" }, "geometry": { "type": "Point", "coordinates": [ 141.108792169311556, 39.203754713808472 ] } },
{ "type": "Feature", "properties": { "内容": "株式会社アルプスビジネスクリエーション金ケ崎営業所【福祉用具貸与】岩手県胆沢郡金ヶ崎町西根揚場後22番11", "url2": "https://www.kaigokensaku.mhlw.go.jp/03/index.php?action_kouhyou_detail_004_kani=true&JigyosyoCd=0372500702-00&ServiceCd=170&Type=search" }, "geometry": { "type": "Point", "coordinates": [ 141.106227499999989, 39.1866804 ] } }
]
}
