{
"type": "FeatureCollection",
"name": "geo_03_専修学校",
"crs": { "type": "name", "properties": { "name": "urn:ogc:def:crs:EPSG::6668" } },
"features": [
{ "type": "Feature", "properties": { "P29_001": "03202", "P29_002": "H103220200010", "P29_003": "16016", "P29_004": "岩手県立宮古高等看護学院", "P29_005": "岩手県宮古市崎鍬ヶ崎4-1-13", "P29_006": "2", "P29_007": "0", "P29_008": "00", "P29_009": null }, "geometry": { "type": "Point", "coordinates": [ 141.950753530142066, 39.659830924576319 ] } },
{ "type": "Feature", "properties": { "P29_001": "03209", "P29_002": "H103220900013", "P29_003": "16016", "P29_004": "岩手県立一関高等看護学院", "P29_005": "岩手県一関市狐禅寺字大平15-10", "P29_006": "2", "P29_007": "0", "P29_008": "00", "P29_009": null }, "geometry": { "type": "Point", "coordinates": [ 141.169258994708599, 38.933675016730909 ] } },
{ "type": "Feature", "properties": { "P29_001": "03213", "P29_002": "H103221300017", "P29_003": "16016", "P29_004": "岩手県立二戸高等看護学院", "P29_005": "岩手県二戸市堀野字大川原毛50-3", "P29_006": "2", "P29_007": "0", "P29_008": "00", "P29_009": null }, "geometry": { "type": "Point", "coordinates": [ 141.306567178888372, 40.301773021100921 ] } },
{ "type": "Feature", "properties": { "P29_001": "03381", "P29_002": "H103238100013", "P29_003": "16016", "P29_004": "岩手県立農業大学校", "P29_005": "岩手県胆沢郡金ケ崎町六原蟹子沢14", "P29_006": "2", "P29_007": "0", "P29_008": "00", "P29_009": null }, "geometry": { "type": "Point", "coordinates": [ 141.043728062958451, 39.23607414643201 ] } },
{ "type": "Feature", "properties": { "P29_001": "03201", "P29_002": "H103320100019", "P29_003": "16016", "P29_004": "岩手看護専門学校", "P29_005": "岩手県盛岡市長田町24-7", "P29_006": "4", "P29_007": "0", "P29_008": "00", "P29_009": null }, "geometry": { "type": "Point", "coordinates": [ 141.143378998911544, 39.709455003821354 ] } },
{ "type": "Feature", "properties": { "P29_001": "03201", "P29_002": "H103320100037", "P29_003": "16016", "P29_004": "盛岡ヘアメイク専門学校", "P29_005": "岩手県盛岡市盛岡駅前北通12-31", "P29_006": "4", "P29_007": "0", "P29_008": "00", "P29_009": null }, "geometry": { "type": "Point", "coordinates": [ 141.132544328050926, 39.70563823314999 ] } },
{ "type": "Feature", "properties": { "P29_001": "03201", "P29_002": "H103320100055", "P29_003": "16016", "P29_004": "岩手リハビリテーション学院", "P29_005": "岩手県盛岡市長田町15-16", "P29_006": "4", "P29_007": "0", "P29_008": "00", "P29_009": null }, "geometry": { "type": "Point", "coordinates": [ 141.140372263886576, 39.708504005628029 ] } },
{ "type": "Feature", "properties": { "P29_001": "03201", "P29_002": "H103320100064", "P29_003": "16016", "P29_004": "盛岡情報ビジネス＆デザイン専門学校", "P29_005": "岩手県盛岡市中央通3-2-17", "P29_006": "4", "P29_007": "0", "P29_008": "00", "P29_009": null }, "geometry": { "type": "Point", "coordinates": [ 141.142791798557766, 39.704822001587765 ] } },
{ "type": "Feature", "properties": { "P29_001": "03201", "P29_002": "H103320100082", "P29_003": "16016", "P29_004": "上野法律ビジネス専門学校", "P29_005": "岩手県盛岡市材木町12-15", "P29_006": "4", "P29_007": "0", "P29_008": "00", "P29_009": null }, "geometry": { "type": "Point", "coordinates": [ 141.136332001051471, 39.708716002186534 ] } },
{ "type": "Feature", "properties": { "P29_001": "03201", "P29_002": "H103320100091", "P29_003": "16016", "P29_004": "盛岡外語観光＆ブライダル専門学校", "P29_005": "岩手県盛岡市大沢川原3-1-18", "P29_006": "4", "P29_007": "0", "P29_008": "00", "P29_009": null }, "geometry": { "type": "Point", "coordinates": [ 141.14284957500027, 39.700893761139696 ] } },
{ "type": "Feature", "properties": { "P29_001": "03201", "P29_002": "H103320100108", "P29_003": "16016", "P29_004": "盛岡医療福祉スポーツ専門学校", "P29_005": "岩手県盛岡市大沢川原3-5-18", "P29_006": "4", "P29_007": "0", "P29_008": "00", "P29_009": null }, "geometry": { "type": "Point", "coordinates": [ 141.142548146446188, 39.699879684723655 ] } },
{ "type": "Feature", "properties": { "P29_001": "03201", "P29_002": "H103320100126", "P29_003": "16016", "P29_004": "専修学校盛岡中央ゼミナール", "P29_005": "岩手県盛岡市大沢川原3-4-1", "P29_006": "4", "P29_007": "0", "P29_008": "00", "P29_009": null }, "geometry": { "type": "Point", "coordinates": [ 141.141442000298269, 39.699544997960928 ] } },
{ "type": "Feature", "properties": { "P29_001": "03201", "P29_002": "H103320100135", "P29_003": "16016", "P29_004": "岩手医科大学医療専門学校", "P29_005": "岩手県盛岡市上ノ橋町1-12", "P29_006": "4", "P29_007": "0", "P29_008": "00", "P29_009": null }, "geometry": { "type": "Point", "coordinates": [ 141.157923640545789, 39.705936748220573 ] } },
{ "type": "Feature", "properties": { "P29_001": "03201", "P29_002": "H103320100153", "P29_003": "16016", "P29_004": "盛岡ペットワールド専門学校", "P29_005": "岩手県盛岡市盛岡駅前通10-16", "P29_006": "4", "P29_007": "0", "P29_008": "00", "P29_009": null }, "geometry": { "type": "Point", "coordinates": [ 141.13820332094312, 39.702888517291036 ] } },
{ "type": "Feature", "properties": { "P29_001": "03201", "P29_002": "H103320100162", "P29_003": "16016", "P29_004": "盛岡公務員法律専門学校", "P29_005": "岩手県盛岡市中央通2-1-20", "P29_006": "4", "P29_007": "0", "P29_008": "00", "P29_009": null }, "geometry": { "type": "Point", "coordinates": [ 141.14604934066935, 39.704605928593082 ] } },
{ "type": "Feature", "properties": { "P29_001": "03201", "P29_002": "H103320100180", "P29_003": "16016", "P29_004": "大原スポーツ公務員専門学校盛岡校", "P29_005": "岩手県盛岡市盛岡駅西通2-21-1", "P29_006": "4", "P29_007": "0", "P29_008": "00", "P29_009": null }, "geometry": { "type": "Point", "coordinates": [ 141.131981212076482, 39.699595066108202 ] } },
{ "type": "Feature", "properties": { "P29_001": "03201", "P29_002": "H103320100199", "P29_003": "16016", "P29_004": "大原簿記情報ビジネス医療福祉専門学校盛岡校", "P29_005": "岩手県盛岡市盛岡駅西通2-21-1", "P29_006": "4", "P29_007": "0", "P29_008": "00", "P29_009": null }, "geometry": { "type": "Point", "coordinates": [ 141.131943236365572, 39.699631439569345 ] } },
{ "type": "Feature", "properties": { "P29_001": "03201", "P29_002": "H103320100206", "P29_003": "16016", "P29_004": "盛岡医療大学校", "P29_005": "岩手県盛岡市中央通3-3-26　4Ｆ", "P29_006": "4", "P29_007": "0", "P29_008": "00", "P29_009": null }, "geometry": { "type": "Point", "coordinates": [ 141.14352900488484, 39.705141004633397 ] } },
{ "type": "Feature", "properties": { "P29_001": "03201", "P29_002": "H103320100215", "P29_003": "16016", "P29_004": "北日本ヘア・スタイリストカレッジ", "P29_005": "岩手県盛岡市盛岡駅西通2-5-15", "P29_006": "4", "P29_007": "0", "P29_008": "00", "P29_009": null }, "geometry": { "type": "Point", "coordinates": [ 141.135007270950894, 39.700032827884236 ] } },
{ "type": "Feature", "properties": { "P29_001": "03201", "P29_002": "H103320100224", "P29_003": "16016", "P29_004": "北日本ハイテクニカルクッキングカレッジ", "P29_005": "岩手県盛岡市盛岡駅西通2-5-15", "P29_006": "4", "P29_007": "0", "P29_008": "00", "P29_009": null }, "geometry": { "type": "Point", "coordinates": [ 141.135048548897572, 39.700117699293607 ] } },
{ "type": "Feature", "properties": { "P29_001": "03201", "P29_002": "H103320100233", "P29_003": "16016", "P29_004": "北日本医療福祉専門学校", "P29_005": "岩手県盛岡市盛岡駅西通2-5-15", "P29_006": "4", "P29_007": "0", "P29_008": "00", "P29_009": null }, "geometry": { "type": "Point", "coordinates": [ 141.135094780197818, 39.700174492943482 ] } },
{ "type": "Feature", "properties": { "P29_001": "03201", "P29_002": "H103320100242", "P29_003": "16016", "P29_004": "ＭＣＬ菜園調理師専門学校", "P29_005": "岩手県盛岡市菜園2-4-19", "P29_006": "4", "P29_007": "0", "P29_008": "00", "P29_009": null }, "geometry": { "type": "Point", "coordinates": [ 141.146498387834413, 39.702183843717762 ] } },
{ "type": "Feature", "properties": { "P29_001": "03205", "P29_002": "H103320500015", "P29_003": "16016", "P29_004": "花巻高等看護専門学校", "P29_005": "岩手県花巻市御田屋町4-56", "P29_006": "4", "P29_007": "0", "P29_008": "00", "P29_009": null }, "geometry": { "type": "Point", "coordinates": [ 141.123578970557048, 39.384752960328562 ] } },
{ "type": "Feature", "properties": { "P29_001": "03205", "P29_002": "H103320500024", "P29_003": "16016", "P29_004": "岩手理容美容専門学校", "P29_005": "岩手県花巻市若葉町2-14-39", "P29_006": "4", "P29_007": "0", "P29_008": "00", "P29_009": null }, "geometry": { "type": "Point", "coordinates": [ 141.103852356514039, 39.388279208731134 ] } },
{ "type": "Feature", "properties": { "P29_001": "03206", "P29_002": "H103320600014", "P29_003": "16016", "P29_004": "専修大学北上福祉教育専門学校", "P29_005": "岩手県北上市鍛冶町1-3-1", "P29_006": "4", "P29_007": "0", "P29_008": "00", "P29_009": null }, "geometry": { "type": "Point", "coordinates": [ 141.107757202330788, 39.288161223541692 ] } },
{ "type": "Feature", "properties": { "P29_001": "03209", "P29_002": "H103320900011", "P29_003": "16016", "P29_004": "国際医療福祉専門学校一関校", "P29_005": "岩手県一関市室根町矢越字沼田78-2", "P29_006": "4", "P29_007": "0", "P29_008": "00", "P29_009": null }, "geometry": { "type": "Point", "coordinates": [ 141.429324664720838, 38.899443701809169 ] } },
{ "type": "Feature", "properties": { "P29_001": "03209", "P29_002": "H103320900020", "P29_003": "16016", "P29_004": "一関市医師会附属一関准看護高等専修学校", "P29_005": "岩手県一関市大手町3-31", "P29_006": "4", "P29_007": "0", "P29_008": "00", "P29_009": null }, "geometry": { "type": "Point", "coordinates": [ 141.13436699888922, 38.930023003521498 ] } },
{ "type": "Feature", "properties": { "P29_001": "03209", "P29_002": "H103320900039", "P29_003": "16016", "P29_004": "一関市医師会附属一関看護専門学校", "P29_005": "岩手県一関市大手町3-31", "P29_006": "4", "P29_007": "0", "P29_008": "00", "P29_009": null }, "geometry": { "type": "Point", "coordinates": [ 141.134326998345216, 38.930057997498913 ] } },
{ "type": "Feature", "properties": { "P29_001": "03209", "P29_002": "H103320900048", "P29_003": "16016", "P29_004": "東北ヘアーモード学院", "P29_005": "岩手県一関市旭町5-14", "P29_006": "4", "P29_007": "0", "P29_008": "00", "P29_009": null }, "geometry": { "type": "Point", "coordinates": [ 141.13255233515477, 38.918029197303923 ] } },
{ "type": "Feature", "properties": { "P29_001": "03209", "P29_002": "H103320900057", "P29_003": "16016", "P29_004": "一関経理専門学校", "P29_005": "岩手県一関市字沢46-8", "P29_006": "4", "P29_007": "0", "P29_008": "00", "P29_009": null }, "geometry": { "type": "Point", "coordinates": [ 141.142130886064791, 38.91731919049942 ] } },
{ "type": "Feature", "properties": { "P29_001": "03215", "P29_002": "H103321500013", "P29_003": "16016", "P29_004": "水沢学苑看護専門学校", "P29_005": "岩手県奥州市水沢字多賀21-2", "P29_006": "4", "P29_007": "0", "P29_008": "00", "P29_009": null }, "geometry": { "type": "Point", "coordinates": [ 141.145200999527162, 39.15102500479383 ] } },
{ "type": "Feature", "properties": { "P29_001": "03322", "P29_002": "H103332200013", "P29_003": "16016", "P29_004": "星北高等学園", "P29_005": "岩手県紫波郡矢巾町大字北矢幅1-9-3", "P29_006": "4", "P29_007": "0", "P29_008": "00", "P29_009": null }, "geometry": { "type": "Point", "coordinates": [ 141.140174999938267, 39.619592999200897 ] } }
]
}
