{
"type": "FeatureCollection",
"name": "geo_03_大学",
"crs": { "type": "name", "properties": { "name": "urn:ogc:def:crs:EPSG::6668" } },
"features": [
{ "type": "Feature", "properties": { "P29_001": "03201", "P29_002": "F103110100731", "P29_003": "16007", "P29_004": "岩手大学", "P29_005": "岩手県盛岡市上田3-18-8", "P29_006": "1", "P29_007": "0", "P29_008": "01", "P29_009": "事務局・人文社会科学部・教育学部・農学部" }, "geometry": { "type": "Point", "coordinates": [ 141.135295019203852, 39.715556766264029 ] } },
{ "type": "Feature", "properties": { "P29_001": "03216", "P29_002": "F103210100748", "P29_003": "16007", "P29_004": "岩手県立大学", "P29_005": "岩手県滝沢市巣子152-52", "P29_006": "2", "P29_007": "0", "P29_008": "00", "P29_009": null }, "geometry": { "type": "Point", "coordinates": [ 141.137171681945688, 39.802520844236156 ] } },
{ "type": "Feature", "properties": { "P29_001": "03322", "P29_002": "F103310100755", "P29_003": "16007", "P29_004": "岩手医科大学", "P29_005": "岩手県紫波郡矢巾町医大通1-1-1", "P29_006": "4", "P29_007": "0", "P29_008": "01", "P29_009": "矢巾キャンパス" }, "geometry": { "type": "Point", "coordinates": [ 141.162563941498121, 39.610261979647284 ] } },
{ "type": "Feature", "properties": { "P29_001": "03205", "P29_002": "F103310100764", "P29_003": "16007", "P29_004": "富士大学", "P29_005": "岩手県花巻市下根子450-3", "P29_006": "4", "P29_007": "0", "P29_008": "00", "P29_009": null }, "geometry": { "type": "Point", "coordinates": [ 141.102238822174229, 39.360818331502337 ] } },
{ "type": "Feature", "properties": { "P29_001": "03216", "P29_002": "F103310100773", "P29_003": "16007", "P29_004": "盛岡大学", "P29_005": "岩手県滝沢市砂込808", "P29_006": "4", "P29_007": "0", "P29_008": "00", "P29_009": null }, "geometry": { "type": "Point", "coordinates": [ 141.136975997448701, 39.815402999892065 ] } },
{ "type": "Feature", "properties": { "P29_001": "03201", "P29_002": "F103310100782", "P29_003": "16007", "P29_004": "岩手保健医療大学", "P29_005": "岩手県盛岡市盛岡駅西通1-6-30", "P29_006": "4", "P29_007": "0", "P29_008": "00", "P29_009": null }, "geometry": { "type": "Point", "coordinates": [ 141.132050658647898, 39.703187499310701 ] } },
{ "type": "Feature", "properties": { "P29_001": "03201", "P29_002": "F103110100731", "P29_003": "16007", "P29_004": "岩手大学", "P29_005": "岩手県盛岡市上田4-3-5", "P29_006": "1", "P29_007": "0", "P29_008": "02", "P29_009": "理工学部" }, "geometry": { "type": "Point", "coordinates": [ 141.134992910879646, 39.719023710561231 ] } },
{ "type": "Feature", "properties": { "P29_001": "03211", "P29_002": "F103110100731", "P29_003": "16007", "P29_004": "岩手大学", "P29_005": "岩手県釜石市平田3-75-1", "P29_006": "1", "P29_007": "0", "P29_008": "03", "P29_009": "釜石キャンパス" }, "geometry": { "type": "Point", "coordinates": [ 141.896203496836648, 39.251287455154447 ] } },
{ "type": "Feature", "properties": { "P29_001": "03201", "P29_002": "F103310100755", "P29_003": "16007", "P29_004": "岩手医科大学", "P29_005": "岩手県盛岡市内丸19-1", "P29_006": "4", "P29_007": "0", "P29_008": "02", "P29_009": "内丸キャンパス" }, "geometry": { "type": "Point", "coordinates": [ 141.152, 39.705 ] } }
]
}
