{
"type": "FeatureCollection",
"name": "geo_03_介護老人福祉施設",
"crs": { "type": "name", "properties": { "name": "urn:ogc:def:crs:OGC:1.3:CRS84" } },
"features": [
{ "type": "Feature", "properties": { "内容": "特別養護老人ホームすずらんガーデン【介護老人福祉施設】岩手県盛岡市好摩字芋田向83番地25", "url": "https://www.kaigokensaku.mhlw.go.jp/03/index.php?action_kouhyou_detail_004_kani=true&JigyosyoCd=0372100883-00&ServiceCd=510&Type=search", "url2": "http://www.nisshindo-g.com/" }, "geometry": { "type": "Point", "coordinates": [ 141.165358400000059, 39.866940100000015 ] } },
{ "type": "Feature", "properties": { "内容": "特別養護老人ホーム五月園【介護老人福祉施設】岩手県盛岡市東山二丁目5番15号", "url": "https://www.kaigokensaku.mhlw.go.jp/03/index.php?action_kouhyou_detail_004_kani=true&JigyosyoCd=0370100380-00&ServiceCd=510&Type=search", "url2": "http://sannow.jp/" }, "geometry": { "type": "Point", "coordinates": [ 141.179521203041077, 39.688794363406757 ] } },
{ "type": "Feature", "properties": { "内容": "特別養護老人ホーム青山和敬荘【介護老人福祉施設】岩手県盛岡市南青山町１３番３０号", "url": "https://www.kaigokensaku.mhlw.go.jp/03/index.php?action_kouhyou_detail_004_kani=true&JigyosyoCd=0370100398-00&ServiceCd=510&Type=search", "url2": "http://www.wakeisou.or.jp/" }, "geometry": { "type": "Point", "coordinates": [ 141.112401, 39.7192946 ] } },
{ "type": "Feature", "properties": { "内容": "特別養護老人ホーム浅岸和敬荘【介護老人福祉施設】岩手県盛岡市浅岸三丁目２３番５０号", "url": "https://www.kaigokensaku.mhlw.go.jp/03/index.php?action_kouhyou_detail_004_kani=true&JigyosyoCd=0370104507-00&ServiceCd=510&Type=search", "url2": "http://www.wakeisou.or.jp" }, "geometry": { "type": "Point", "coordinates": [ 141.181159824220231, 39.71173863309437 ] } },
{ "type": "Feature", "properties": { "内容": "特別養護老人ホーム希望の里【介護老人福祉施設】岩手県盛岡市乙部５地割４１番地１", "url": "https://www.kaigokensaku.mhlw.go.jp/03/index.php?action_kouhyou_detail_004_kani=true&JigyosyoCd=0370100992-00&ServiceCd=510&Type=search", "url2": "http://nozomikai.or.jp/" }, "geometry": { "type": "Point", "coordinates": [ 141.195050300000048, 39.6113176 ] } },
{ "type": "Feature", "properties": { "内容": "特別養護老人ホームさくらぎの里【介護老人福祉施設】岩手県盛岡市上田字松屋敷１０３番地１", "url": "https://www.kaigokensaku.mhlw.go.jp/03/index.php?action_kouhyou_detail_004_kani=true&JigyosyoCd=0370101842-00&ServiceCd=510&Type=search", "url2": "http://www.sakuraginosato.jp/" }, "geometry": { "type": "Point", "coordinates": [ 141.152177, 39.7518141 ] } },
{ "type": "Feature", "properties": { "内容": "特別養護老人ホーム第二松園ハイツ【介護老人福祉施設】岩手県盛岡市西松園二丁目5番1号", "url": "https://www.kaigokensaku.mhlw.go.jp/03/index.php?action_kouhyou_detail_004_kani=true&JigyosyoCd=0370100356-00&ServiceCd=510&Type=search", "url2": "http://www.ikushinkai.jp/" }, "geometry": { "type": "Point", "coordinates": [ 141.1590291, 39.7519059 ] } },
{ "type": "Feature", "properties": { "内容": "特別養護老人ホーム千年苑（本館）【介護老人福祉施設】岩手県盛岡市上太田穴口５３番地", "url": "https://www.kaigokensaku.mhlw.go.jp/03/index.php?action_kouhyou_detail_004_kani=true&JigyosyoCd=0370100364-00&ServiceCd=510&Type=search", "url2": "https://senshoukai.or.jp/" }, "geometry": { "type": "Point", "coordinates": [ 141.058339400000023, 39.6908792 ] } },
{ "type": "Feature", "properties": { "内容": "特別養護老人ホーム千年苑（新館）【介護老人福祉施設】岩手県盛岡市上太田穴口５３番地", "url": "https://www.kaigokensaku.mhlw.go.jp/03/index.php?action_kouhyou_detail_004_kani=true&JigyosyoCd=0370105363-00&ServiceCd=510&Type=search", "url2": "https://senshoukai.or.jp/" }, "geometry": { "type": "Point", "coordinates": [ 141.058339400000023, 39.6908792 ] } },
{ "type": "Feature", "properties": { "内容": "特別養護老人ホーム繋松苑【介護老人福祉施設】岩手県盛岡市繋字猿田１番地３７", "url": "https://www.kaigokensaku.mhlw.go.jp/03/index.php?action_kouhyou_detail_004_kani=true&JigyosyoCd=0370103525-00&ServiceCd=510&Type=search", "url2": "http://www.shoujitsukai.or.jp" }, "geometry": { "type": "Point", "coordinates": [ 141.026876099999981, 39.6811322 ] } },
{ "type": "Feature", "properties": { "内容": "特別養護老人ホームなのりの杜【介護老人福祉施設】岩手県盛岡市上米内字名乗沢1-58", "url": "https://www.kaigokensaku.mhlw.go.jp/03/index.php?action_kouhyou_detail_004_kani=true&JigyosyoCd=0370104499-00&ServiceCd=510&Type=search", "url2": "http://www.sg-miyagikai.jp/office/40/" }, "geometry": { "type": "Point", "coordinates": [ 141.179805860109923, 39.739137137778592 ] } },
{ "type": "Feature", "properties": { "内容": "特別養護老人ホームなのりの杜２号館【介護老人福祉施設】岩手県盛岡市上米内字名乗沢1-58", "url": "https://www.kaigokensaku.mhlw.go.jp/03/index.php?action_kouhyou_detail_004_kani=true&JigyosyoCd=0370106908-00&ServiceCd=510&Type=search", "url2": null }, "geometry": { "type": "Point", "coordinates": [ 141.179522099999986, 39.7388549 ] } },
{ "type": "Feature", "properties": { "内容": "特別養護老人ホームサンタウン松園【介護老人福祉施設】岩手県盛岡市北松園４丁目３６番５５号", "url": "https://www.kaigokensaku.mhlw.go.jp/03/index.php?action_kouhyou_detail_004_kani=true&JigyosyoCd=0370105892-00&ServiceCd=510&Type=search", "url2": "http://sryokuaikai.com/" }, "geometry": { "type": "Point", "coordinates": [ 141.177291100000048, 39.761901514237479 ] } },
{ "type": "Feature", "properties": { "内容": "特別養護老人ホームリハビリパークさんさ物語【介護老人福祉施設】岩手県盛岡市厨川四丁目10番1号", "url": "https://www.kaigokensaku.mhlw.go.jp/03/index.php?action_kouhyou_detail_004_kani=true&JigyosyoCd=0370108177-00&ServiceCd=510&Type=search", "url2": "http://rehabili-park.com/sisetu/sansamonogatari.html" }, "geometry": { "type": "Point", "coordinates": [ 141.129982899999987, 39.7498663 ] } },
{ "type": "Feature", "properties": { "内容": "介護老人福祉施設都南あけぼの荘【介護老人福祉施設】岩手県盛岡市湯沢４地割２５－１", "url": "https://www.kaigokensaku.mhlw.go.jp/03/index.php?action_kouhyou_detail_004_kani=true&JigyosyoCd=0370100372-00&ServiceCd=510&Type=search", "url2": "https://morioka-fujimikai.or.jp" }, "geometry": { "type": "Point", "coordinates": [ 141.090272499999969, 39.6463688 ] } },
{ "type": "Feature", "properties": { "内容": "介護老人福祉施設都南あけぼの荘【介護老人福祉施設】岩手県盛岡市湯沢４地割２５－１", "url": "https://www.kaigokensaku.mhlw.go.jp/03/index.php?action_kouhyou_detail_004_kani=true&JigyosyoCd=0370105348-00&ServiceCd=510&Type=search", "url2": "https://morioka-fujimikai.or.jp" }, "geometry": { "type": "Point", "coordinates": [ 141.090272499999969, 39.6463688 ] } },
{ "type": "Feature", "properties": { "内容": "特別養護老人ホームおでんせ本宮【介護老人福祉施設】岩手県盛岡市本宮字小板小瀬20番地1", "url": "https://www.kaigokensaku.mhlw.go.jp/03/index.php?action_kouhyou_detail_004_kani=true&JigyosyoCd=0370102451-00&ServiceCd=510&Type=search", "url2": "https://www.roushinkai.jp/" }, "geometry": { "type": "Point", "coordinates": [ 141.120934300000044, 39.6941112 ] } },
{ "type": "Feature", "properties": { "内容": "特別養護老人ホームコアトレース厨川【介護老人福祉施設】岩手県盛岡市厨川二丁目7-20", "url": "https://www.kaigokensaku.mhlw.go.jp/03/index.php?action_kouhyou_detail_004_kani=true&JigyosyoCd=0370102717-00&ServiceCd=510&Type=search", "url2": "https://yayo-i.or.jp/" }, "geometry": { "type": "Point", "coordinates": [ 141.13514, 39.7378292 ] } },
{ "type": "Feature", "properties": { "内容": "特別養護老人ホームはなみずき【介護老人福祉施設】岩手県盛岡市南仙北3丁目5-58", "url": "https://www.kaigokensaku.mhlw.go.jp/03/index.php?action_kouhyou_detail_004_kani=true&JigyosyoCd=0370106890-00&ServiceCd=510&Type=search", "url2": "http://www.iwate-hanamizuki.jp/" }, "geometry": { "type": "Point", "coordinates": [ 141.157400434536612, 39.675038188282144 ] } },
{ "type": "Feature", "properties": { "内容": "特別養護老人ホームカーサ南盛岡【介護老人福祉施設】岩手県盛岡市乙部４地割１３９番１０", "url": "https://www.kaigokensaku.mhlw.go.jp/03/index.php?action_kouhyou_detail_004_kani=true&JigyosyoCd=0370103848-00&ServiceCd=510&Type=search", "url2": "http://www.casa-minami.com/" }, "geometry": { "type": "Point", "coordinates": [ 141.194561199999953, 39.6219354 ] } },
{ "type": "Feature", "properties": { "内容": "特別養護老人ホーム鶴亀ながい【介護老人福祉施設】岩手県盛岡市永井16地割55番地1", "url": "https://www.kaigokensaku.mhlw.go.jp/03/index.php?action_kouhyou_detail_004_kani=true&JigyosyoCd=0370105504-00&ServiceCd=510&Type=search", "url2": "https://www.turukame.info/" }, "geometry": { "type": "Point", "coordinates": [ 141.144355899999937, 39.6563301 ] } },
{ "type": "Feature", "properties": { "内容": "秀峰苑指定介護老人福祉施設【介護老人福祉施設】岩手県盛岡市下田字石羽根９９－９０１", "url": "https://www.kaigokensaku.mhlw.go.jp/03/index.php?action_kouhyou_detail_004_kani=true&JigyosyoCd=0372100289-00&ServiceCd=510&Type=search", "url2": "http://www.syuuhoukai.org/" }, "geometry": { "type": "Point", "coordinates": [ 141.129259128236413, 39.84710502686881 ] } },
{ "type": "Feature", "properties": { "内容": "特別養護老人ホームサンホームみやこ【介護老人福祉施設】岩手県宮古市崎鍬ヶ崎第4地割1番地20", "url": "https://www.kaigokensaku.mhlw.go.jp/03/index.php?action_kouhyou_detail_004_kani=true&JigyosyoCd=0370200198-00&ServiceCd=510&Type=search", "url2": "http://www.wakatakekai.or.jp/" }, "geometry": { "type": "Point", "coordinates": [ 141.951601200000027, 39.6597734 ] } },
{ "type": "Feature", "properties": { "内容": "特別養護老人ホームふれあい荘【介護老人福祉施設】岩手県宮古市田老字養呂地6番地2", "url": "https://www.kaigokensaku.mhlw.go.jp/03/index.php?action_kouhyou_detail_004_kani=true&JigyosyoCd=0373000538-00&ServiceCd=510&Type=search", "url2": "http://www.tarouwasinkai.or.jp/" }, "geometry": { "type": "Point", "coordinates": [ 141.93906990000005, 39.7308173 ] } },
{ "type": "Feature", "properties": { "内容": "特別養護老人ホーム心生苑【介護老人福祉施設】岩手県宮古市川井2-24-3", "url": "https://www.kaigokensaku.mhlw.go.jp/03/index.php?action_kouhyou_detail_004_kani=true&JigyosyoCd=0373000587-00&ServiceCd=510&Type=search", "url2": "http://www.shinseien-kawai.or.jp/" }, "geometry": { "type": "Point", "coordinates": [ 141.675605812554153, 39.595960135582985 ] } },
{ "type": "Feature", "properties": { "内容": "特別養護老人ホーム紫桐苑【介護老人福祉施設】岩手県宮古市茂市1-115-1", "url": "https://www.kaigokensaku.mhlw.go.jp/03/index.php?action_kouhyou_detail_004_kani=true&JigyosyoCd=0373000579-00&ServiceCd=510&Type=search", "url2": "http://niisatoshitoukai.jp/" }, "geometry": { "type": "Point", "coordinates": [ 141.7869303, 39.6282649 ] } },
{ "type": "Feature", "properties": { "内容": "特別養護老人ホーム慈苑【介護老人福祉施設】岩手県宮古市西ヶ丘四丁目５３番地８", "url": "https://www.kaigokensaku.mhlw.go.jp/03/index.php?action_kouhyou_detail_004_kani=true&JigyosyoCd=0370200180-00&ServiceCd=510&Type=search", "url2": "http://www.jien.jp/" }, "geometry": { "type": "Point", "coordinates": [ 141.914801799999964, 39.6433354 ] } },
{ "type": "Feature", "properties": { "内容": "特別養護老人ホーム富美岡荘【介護老人福祉施設】岩手県大船渡市猪川町字冨岡１４８", "url": "https://www.kaigokensaku.mhlw.go.jp/03/index.php?action_kouhyou_detail_004_kani=true&JigyosyoCd=0370300147-00&ServiceCd=510&Type=search", "url2": "http://www.i-seijinkai.jp/" }, "geometry": { "type": "Point", "coordinates": [ 141.7174645, 39.1012852 ] } },
{ "type": "Feature", "properties": { "内容": "特別養護老人ホーム成仁ハウス百年の里【介護老人福祉施設】岩手県大船渡市立根町字宮田9番地1", "url": "https://www.kaigokensaku.mhlw.go.jp/03/index.php?action_kouhyou_detail_004_kani=true&JigyosyoCd=0370300543-00&ServiceCd=510&Type=search", "url2": "http://www.i-seijinkai.jp/" }, "geometry": { "type": "Point", "coordinates": [ 141.710568261763001, 39.100548412320329 ] } },
{ "type": "Feature", "properties": { "内容": "従来型特別養護老人ホームさんりくの園【介護老人福祉施設】岩手県大船渡市三陸町越喜来字所通91番地", "url": "https://www.kaigokensaku.mhlw.go.jp/03/index.php?action_kouhyou_detail_004_kani=true&JigyosyoCd=0370300634-00&ServiceCd=510&Type=search", "url2": "http://www.caresono.jp/" }, "geometry": { "type": "Point", "coordinates": [ 141.805881900000031, 39.1251556 ] } },
{ "type": "Feature", "properties": { "内容": "特別養護老人ホームさんりくの園【介護老人福祉施設】岩手県大船渡市三陸町越喜来字所通91番地", "url": "https://www.kaigokensaku.mhlw.go.jp/03/index.php?action_kouhyou_detail_004_kani=true&JigyosyoCd=0370300568-00&ServiceCd=510&Type=search", "url2": "https://www.caresono.jp" }, "geometry": { "type": "Point", "coordinates": [ 141.805352699999958, 39.1252127 ] } },
{ "type": "Feature", "properties": { "内容": "介護老人福祉施設ひまわり【介護老人福祉施設】岩手県大船渡市大船渡町字山馬越197番地", "url": "https://www.kaigokensaku.mhlw.go.jp/03/index.php?action_kouhyou_detail_004_kani=true&JigyosyoCd=0370300329-00&ServiceCd=510&Type=search", "url2": "http://www.tenjinkai.com" }, "geometry": { "type": "Point", "coordinates": [ 141.710846899999979, 39.0704581 ] } },
{ "type": "Feature", "properties": { "内容": "特別養護老人ホーム花巻あすかの里【介護老人福祉施設】岩手県花巻市西宮野目第14地割56番地2", "url": "https://www.kaigokensaku.mhlw.go.jp/03/index.php?action_kouhyou_detail_004_kani=true&JigyosyoCd=0370500456-00&ServiceCd=510&Type=search", "url2": "http://matsuzonofukushikai.jp/" }, "geometry": { "type": "Point", "coordinates": [ 141.11072820000004, 39.414675 ] } },
{ "type": "Feature", "properties": { "内容": "特別養護老人ホーム花巻あすかの杜【介護老人福祉施設】岩手県花巻市天下田100番地1", "url": "https://www.kaigokensaku.mhlw.go.jp/03/index.php?action_kouhyou_detail_004_kani=true&JigyosyoCd=0370501025-00&ServiceCd=510&Type=search", "url2": "http://matsuzonofukushikai.jp/" }, "geometry": { "type": "Point", "coordinates": [ 141.1076564, 39.4128057 ] } },
{ "type": "Feature", "properties": { "内容": "特別養護老人ホーム東和荘【介護老人福祉施設】岩手県花巻市東和町東晴山7区16番地", "url": "https://www.kaigokensaku.mhlw.go.jp/03/index.php?action_kouhyou_detail_004_kani=true&JigyosyoCd=0372400192-00&ServiceCd=510&Type=search", "url2": "http://towaso.jp/" }, "geometry": { "type": "Point", "coordinates": [ 141.252253600000017, 39.3724806 ] } },
{ "type": "Feature", "properties": { "内容": "特別養護老人ホーム大谷荘【介護老人福祉施設】岩手県花巻市湯口字松原53番地1", "url": "https://www.kaigokensaku.mhlw.go.jp/03/index.php?action_kouhyou_detail_004_kani=true&JigyosyoCd=0370500332-00&ServiceCd=510&Type=search", "url2": "http://ootanisou.jp" }, "geometry": { "type": "Point", "coordinates": [ 141.019934599999942, 39.4063854 ] } },
{ "type": "Feature", "properties": { "内容": "特別養護老人ホームアイリス花巻【介護老人福祉施設】岩手県花巻市南万丁目970番地2", "url": "https://www.kaigokensaku.mhlw.go.jp/03/index.php?action_kouhyou_detail_004_kani=true&JigyosyoCd=0370500340-00&ServiceCd=510&Type=search", "url2": "http://iris-hanamaki.jp" }, "geometry": { "type": "Point", "coordinates": [ 141.0989067834671, 39.391363415631766 ] } },
{ "type": "Feature", "properties": { "内容": "特別養護老人ホームアイリス花巻（ユニット型）【介護老人福祉施設】岩手県花巻市南万丁目970番地2", "url": "https://www.kaigokensaku.mhlw.go.jp/03/index.php?action_kouhyou_detail_004_kani=true&JigyosyoCd=0370501454-00&ServiceCd=510&Type=search", "url2": "http://iris-hanamaki.jp" }, "geometry": { "type": "Point", "coordinates": [ 141.0987083, 39.3912805 ] } },
{ "type": "Feature", "properties": { "内容": "特別養護老人ホーム桐の里【介護老人福祉施設】岩手県花巻市大迫町大迫第１１地割１番地１", "url": "https://www.kaigokensaku.mhlw.go.jp/03/index.php?action_kouhyou_detail_004_kani=true&JigyosyoCd=0372300152-00&ServiceCd=510&Type=search", "url2": "http://oohasamatoujukai.or.jp/" }, "geometry": { "type": "Point", "coordinates": [ 141.283334, 39.4695421 ] } },
{ "type": "Feature", "properties": { "内容": "特別養護老人ホームいしどりや荘（ユニット型）【介護老人福祉施設】岩手県花巻市石鳥谷町好地14-10", "url": "https://www.kaigokensaku.mhlw.go.jp/03/index.php?action_kouhyou_detail_004_kani=true&JigyosyoCd=0370501439-00&ServiceCd=510&Type=search", "url2": "https://www.ishidoriyasou.jp/" }, "geometry": { "type": "Point", "coordinates": [ 141.161151300000029, 39.5032076 ] } },
{ "type": "Feature", "properties": { "内容": "特別養護老人ホームいしどりや荘（従来型）【介護老人福祉施設】岩手県花巻市石鳥谷町好地１４－１０", "url": "https://www.kaigokensaku.mhlw.go.jp/03/index.php?action_kouhyou_detail_004_kani=true&JigyosyoCd=0372300160-00&ServiceCd=510&Type=search", "url2": "https://www.ishidoriyasou.jp/" }, "geometry": { "type": "Point", "coordinates": [ 141.161151300000029, 39.5032076 ] } },
{ "type": "Feature", "properties": { "内容": "特別養護老人ホーム敬愛園【介護老人福祉施設】岩手県北上市相去町高前檀6番地14", "url": "https://www.kaigokensaku.mhlw.go.jp/03/index.php?action_kouhyou_detail_004_kani=true&JigyosyoCd=0370600223-00&ServiceCd=510&Type=search", "url2": "https://risshokai.jp/" }, "geometry": { "type": "Point", "coordinates": [ 141.085341800000037, 39.2575977 ] } },
{ "type": "Feature", "properties": { "内容": "特別養護老人ホームわがの里【介護老人福祉施設】岩手県北上市下江釣子１０地割７４番地３", "url": "https://www.kaigokensaku.mhlw.go.jp/03/index.php?action_kouhyou_detail_004_kani=true&JigyosyoCd=0370600231-00&ServiceCd=510&Type=search", "url2": "http://www.waganosato.or.jp/" }, "geometry": { "type": "Point", "coordinates": [ 141.038326899999987, 39.2953481 ] } },
{ "type": "Feature", "properties": { "内容": "特別養護老人ホームいいとよ【介護老人福祉施設】岩手県北上市村崎野１２地割７４番地２８", "url": "https://www.kaigokensaku.mhlw.go.jp/03/index.php?action_kouhyou_detail_004_kani=true&JigyosyoCd=0370600520-00&ServiceCd=510&Type=search", "url2": "http://www.keiwakai.info" }, "geometry": { "type": "Point", "coordinates": [ 141.098493599999983, 39.3325567 ] } },
{ "type": "Feature", "properties": { "内容": "特別養護老人ホームさくら爽【介護老人福祉施設】岩手県北上市さくら通り三丁目7番7号", "url": "https://www.kaigokensaku.mhlw.go.jp/03/index.php?action_kouhyou_detail_004_kani=true&JigyosyoCd=0370600868-00&ServiceCd=510&Type=search", "url2": "https://mirakukai.com/" }, "geometry": { "type": "Point", "coordinates": [ 141.1179151, 39.2968162 ] } },
{ "type": "Feature", "properties": { "内容": "特別養護老人ホーム八天の里【介護老人福祉施設】岩手県北上市更木34-320-1", "url": "https://www.kaigokensaku.mhlw.go.jp/03/index.php?action_kouhyou_detail_004_kani=true&JigyosyoCd=0370600249-00&ServiceCd=510&Type=search", "url2": "http://hakuaikai-kitakami.or.jp/hatten.htm" }, "geometry": { "type": "Point", "coordinates": [ 141.1586049, 39.3302467 ] } },
{ "type": "Feature", "properties": { "内容": "特別養護老人ホーム愛山荘【介護老人福祉施設】岩手県久慈市山形町川井12-55-1", "url": "https://www.kaigokensaku.mhlw.go.jp/03/index.php?action_kouhyou_detail_004_kani=true&JigyosyoCd=0373100205-00&ServiceCd=510&Type=search", "url2": "http://aizanso.sakura.ne.jp" }, "geometry": { "type": "Point", "coordinates": [ 141.569896, 40.1456594 ] } },
{ "type": "Feature", "properties": { "内容": "特別養護老人ホーム和光苑【介護老人福祉施設】岩手県久慈市長内町第４６地割２番地の１１", "url": "https://www.kaigokensaku.mhlw.go.jp/03/index.php?action_kouhyou_detail_004_kani=true&JigyosyoCd=0370700031-00&ServiceCd=510&Type=search", "url2": "https://jikeikai.jimdofree.com/" }, "geometry": { "type": "Point", "coordinates": [ 141.824237, 40.1788572 ] } },
{ "type": "Feature", "properties": { "内容": "特別養護老人ホームぎんたらす久慈【介護老人福祉施設】岩手県久慈市旭町第7地割105番地10", "url": "https://www.kaigokensaku.mhlw.go.jp/03/index.php?action_kouhyou_detail_004_kani=true&JigyosyoCd=0370700213-00&ServiceCd=510&Type=search", "url2": "https://khjd.jp" }, "geometry": { "type": "Point", "coordinates": [ 141.7780957, 40.2039449 ] } },
{ "type": "Feature", "properties": { "内容": "特別養護老人ホーム遠野長寿の郷【介護老人福祉施設】岩手県遠野市松崎町白岩１８－７", "url": "https://www.kaigokensaku.mhlw.go.jp/03/index.php?action_kouhyou_detail_004_kani=true&JigyosyoCd=0370800153-00&ServiceCd=510&Type=search", "url2": "http://t-chouju.jp/" }, "geometry": { "type": "Point", "coordinates": [ 141.548734700000068, 39.3330404 ] } },
{ "type": "Feature", "properties": { "内容": "特別養護老人ホーム遠野長寿の郷（従来型多床室）【介護老人福祉施設】岩手県遠野市松崎町白岩18-7", "url": "https://www.kaigokensaku.mhlw.go.jp/03/index.php?action_kouhyou_detail_004_kani=true&JigyosyoCd=0370800476-00&ServiceCd=510&Type=search", "url2": "http://t-chouju.jp/" }, "geometry": { "type": "Point", "coordinates": [ 141.548734700000068, 39.333040400000016 ] } },
{ "type": "Feature", "properties": { "内容": "特別養護老人ホームみやもり荘【介護老人福祉施設】岩手県遠野市宮守町下宮守２８地割１９番地１", "url": "https://www.kaigokensaku.mhlw.go.jp/03/index.php?action_kouhyou_detail_004_kani=true&JigyosyoCd=0372900175-00&ServiceCd=510&Type=search", "url2": "http://www.tomori-kai.jp/" }, "geometry": { "type": "Point", "coordinates": [ 141.362959100000012, 39.3458139 ] } },
{ "type": "Feature", "properties": { "内容": "特別養護老人ホームみやもり荘ユニット館【介護老人福祉施設】岩手県遠野市宮守町下宮守２８地割１９番地１", "url": "https://www.kaigokensaku.mhlw.go.jp/03/index.php?action_kouhyou_detail_004_kani=true&JigyosyoCd=0370800450-00&ServiceCd=510&Type=search", "url2": "http://www.tomori-kai.jp/" }, "geometry": { "type": "Point", "coordinates": [ 141.362936799999943, 39.3458583 ] } },
{ "type": "Feature", "properties": { "内容": "特別養護老人ホームやまぶき荘【介護老人福祉施設】岩手県一関市大東町大原字有南田2番地1", "url": "https://www.kaigokensaku.mhlw.go.jp/03/index.php?action_kouhyou_detail_004_kani=true&JigyosyoCd=0372700526-00&ServiceCd=510&Type=search", "url2": "http://www.sippoukai.com/" }, "geometry": { "type": "Point", "coordinates": [ 141.3802849, 39.0140999 ] } },
{ "type": "Feature", "properties": { "内容": "特別養護老人ホーム福光園アネックス【介護老人福祉施設】岩手県一関市萩荘字高梨南方21番地1", "url": "https://www.kaigokensaku.mhlw.go.jp/03/index.php?action_kouhyou_detail_004_kani=true&JigyosyoCd=0370900268-00&ServiceCd=510&Type=search", "url2": "http://www.fukkouen.or.jp/" }, "geometry": { "type": "Point", "coordinates": [ 141.110866265917565, 38.924436956127664 ] } },
{ "type": "Feature", "properties": { "内容": "特別養護老人ホーム福光園【介護老人福祉施設】岩手県一関市萩荘字大袋56番地4", "url": "https://www.kaigokensaku.mhlw.go.jp/03/index.php?action_kouhyou_detail_004_kani=true&JigyosyoCd=0370901142-00&ServiceCd=510&Type=search", "url2": "https://www.fukkouen.or.jp/" }, "geometry": { "type": "Point", "coordinates": [ 141.0795018, 38.9377329 ] } },
{ "type": "Feature", "properties": { "内容": "特別養護老人ホーム五訓の森【介護老人福祉施設】岩手県一関市千厩町小梨字時ノ沢109番地3特別養護老人ホーム五訓の森", "url": "https://www.kaigokensaku.mhlw.go.jp/03/index.php?action_kouhyou_detail_004_kani=true&JigyosyoCd=0370902116-00&ServiceCd=510&Type=search", "url2": "https://www.jukeikai.or.jp/facility/gokun.html" }, "geometry": { "type": "Point", "coordinates": [ 141.3818269, 38.8997928 ] } },
{ "type": "Feature", "properties": { "内容": "特別養護老人ホーム孝養ハイツ【介護老人福祉施設】岩手県一関市室根町折壁字八幡沖119", "url": "https://www.kaigokensaku.mhlw.go.jp/03/index.php?action_kouhyou_detail_004_kani=true&JigyosyoCd=0372700203-00&ServiceCd=510&Type=search", "url2": "http://www.kouyouhaitsu.com" }, "geometry": { "type": "Point", "coordinates": [ 141.440941599999974, 38.935289 ] } },
{ "type": "Feature", "properties": { "内容": "特別養護老人ホーム寿松苑【介護老人福祉施設】岩手県一関市川崎町薄衣字久伝26番地", "url": "https://www.kaigokensaku.mhlw.go.jp/03/index.php?action_kouhyou_detail_004_kani=true&JigyosyoCd=0372700211-00&ServiceCd=510&Type=search", "url2": "http://www.jushoen.com" }, "geometry": { "type": "Point", "coordinates": [ 141.274171499999966, 38.9003654 ] } },
{ "type": "Feature", "properties": { "内容": "特別養護老人ホーム千寿荘【介護老人福祉施設】岩手県一関市千厩町千厩字脇谷28番地5", "url": "https://www.kaigokensaku.mhlw.go.jp/03/index.php?action_kouhyou_detail_004_kani=true&JigyosyoCd=0372700757-00&ServiceCd=510&Type=search", "url2": "https://www.jukeikai.or.jp" }, "geometry": { "type": "Point", "coordinates": [ 141.325691706082125, 38.917226914315471 ] } },
{ "type": "Feature", "properties": { "内容": "特別養護老人ホーム関生園【介護老人福祉施設】岩手県一関市真柴字はの木立43-102", "url": "https://www.kaigokensaku.mhlw.go.jp/03/index.php?action_kouhyou_detail_004_kani=true&JigyosyoCd=0370900250-00&ServiceCd=510&Type=search", "url2": "http://www.iwate-tukushikai.jp/" }, "geometry": { "type": "Point", "coordinates": [ 141.142381300000011, 38.8778281 ] } },
{ "type": "Feature", "properties": { "内容": "特別養護老人ホーム明生園【介護老人福祉施設】岩手県一関市滝沢字寺下２番地１", "url": "https://www.kaigokensaku.mhlw.go.jp/03/index.php?action_kouhyou_detail_004_kani=true&JigyosyoCd=0370900276-00&ServiceCd=510&Type=search", "url2": "https://www.iwate-tukushikai.jp/" }, "geometry": { "type": "Point", "coordinates": [ 141.1798576, 38.906087 ] } },
{ "type": "Feature", "properties": { "内容": "特別養護老人ホーム一関ケアサポート【介護老人福祉施設】岩手県一関市真柴字柧木立44-15", "url": "https://www.kaigokensaku.mhlw.go.jp/03/index.php?action_kouhyou_detail_004_kani=true&JigyosyoCd=0370900284-00&ServiceCd=510&Type=search", "url2": "http://www.riha.jp" }, "geometry": { "type": "Point", "coordinates": [ 141.1404556, 38.9075855 ] } },
{ "type": "Feature", "properties": { "内容": "特別養護老人ホーム寿光荘【介護老人福祉施設】岩手県一関市花泉町金沢字如来堂１０７番地", "url": "https://www.kaigokensaku.mhlw.go.jp/03/index.php?action_kouhyou_detail_004_kani=true&JigyosyoCd=0372600122-00&ServiceCd=510&Type=search", "url2": "https://www.nioukai.or.jp" }, "geometry": { "type": "Point", "coordinates": [ 141.16548171802981, 38.85544212274953 ] } },
{ "type": "Feature", "properties": { "内容": "特別養護老人ホームソエルいちのまち【介護老人福祉施設】岩手県一関市花泉町涌津字一ノ町７６", "url": "https://www.kaigokensaku.mhlw.go.jp/03/index.php?action_kouhyou_detail_004_kani=true&JigyosyoCd=0370901571-00&ServiceCd=510&Type=search", "url2": "https://www.nioukai.or.jp" }, "geometry": { "type": "Point", "coordinates": [ 141.1853271, 38.8308767 ] } },
{ "type": "Feature", "properties": { "内容": "特別養護老人ホームソエル花泉【介護老人福祉施設】岩手県一関市花泉町涌津一ノ町７６番地", "url": "https://www.kaigokensaku.mhlw.go.jp/03/index.php?action_kouhyou_detail_004_kani=true&JigyosyoCd=0372600148-00&ServiceCd=510&Type=search", "url2": "https://www.nioukai.or.jp" }, "geometry": { "type": "Point", "coordinates": [ 141.1853271, 38.8308767 ] } },
{ "type": "Feature", "properties": { "内容": "特別養護老人ホーム光栄荘【介護老人福祉施設】岩手県一関市藤沢町藤沢字町裏55番地", "url": "https://www.kaigokensaku.mhlw.go.jp/03/index.php?action_kouhyou_detail_004_kani=true&JigyosyoCd=0370901266-00&ServiceCd=510&Type=search", "url2": null }, "geometry": { "type": "Point", "coordinates": [ 141.349858499999982, 38.859251 ] } },
{ "type": "Feature", "properties": { "内容": "特別養護老人ホームクラリス【介護老人福祉施設】岩手県一関市上大槻街5-16", "url": "https://www.kaigokensaku.mhlw.go.jp/03/index.php?action_kouhyou_detail_004_kani=true&JigyosyoCd=0371501131-00&ServiceCd=510&Type=search", "url2": "https://www.swc-kouseikai.info" }, "geometry": { "type": "Point", "coordinates": [ 141.138759, 38.929773 ] } },
{ "type": "Feature", "properties": { "内容": "特別養護老人ホームやすらぎ荘【介護老人福祉施設】岩手県一関市東山町長坂字南山谷12", "url": "https://www.kaigokensaku.mhlw.go.jp/03/index.php?action_kouhyou_detail_004_kani=true&JigyosyoCd=0372700484-00&ServiceCd=510&Type=search", "url2": "http://hi-aikoukai.com" }, "geometry": { "type": "Point", "coordinates": [ 141.247375700000021, 38.9942405 ] } },
{ "type": "Feature", "properties": { "内容": "特別養護老人ホーム高寿園【介護老人福祉施設】岩手県陸前高田市高田町字東和野６７番地", "url": "https://www.kaigokensaku.mhlw.go.jp/03/index.php?action_kouhyou_detail_004_kani=true&JigyosyoCd=0371000118-00&ServiceCd=510&Type=search", "url2": "https://rikutaka-koujyukai.com/index.html" }, "geometry": { "type": "Point", "coordinates": [ 141.639076899999964, 39.0221729 ] } },
{ "type": "Feature", "properties": { "内容": "特別養護老人ホーム高寿園（ユニット型）【介護老人福祉施設】岩手県陸前高田市高田町字東和野６７番地", "url": "https://www.kaigokensaku.mhlw.go.jp/03/index.php?action_kouhyou_detail_004_kani=true&JigyosyoCd=0371000332-00&ServiceCd=510&Type=search", "url2": "https://rikutaka-koujyukai.com/index.html" }, "geometry": { "type": "Point", "coordinates": [ 141.639076899999964, 39.0221729 ] } },
{ "type": "Feature", "properties": { "内容": "特別養護老人ホームあいぜんの里【介護老人福祉施設】岩手県釜石市大字平田第2地割51番地7", "url": "https://www.kaigokensaku.mhlw.go.jp/03/index.php?action_kouhyou_detail_004_kani=true&JigyosyoCd=0371100231-00&ServiceCd=510&Type=search", "url2": "http://aizen-iwate.jp" }, "geometry": { "type": "Point", "coordinates": [ 141.871835799999985, 39.242988900000043 ] } },
{ "type": "Feature", "properties": { "内容": "特別養護老人ホームアミーガはまゆり【介護老人福祉施設】岩手県釜石市小佐野町三丁目９番５０号", "url": "https://www.kaigokensaku.mhlw.go.jp/03/index.php?action_kouhyou_detail_004_kani=true&JigyosyoCd=0371100371-00&ServiceCd=510&Type=search", "url2": "http://www.rakusuikai.com" }, "geometry": { "type": "Point", "coordinates": [ 141.837807099999964, 39.2630666 ] } },
{ "type": "Feature", "properties": { "内容": "特別養護老人ホーム仙人の里【介護老人福祉施設】岩手県釜石市甲子町第7地割144番地4", "url": "https://www.kaigokensaku.mhlw.go.jp/03/index.php?action_kouhyou_detail_004_kani=true&JigyosyoCd=0371100223-00&ServiceCd=510&Type=search", "url2": "https://senninnosato.jp/" }, "geometry": { "type": "Point", "coordinates": [ 141.782594199999949, 39.2547298 ] } },
{ "type": "Feature", "properties": { "内容": "特別養護老人ホームサントピア【介護老人福祉施設】岩手県二戸市似鳥字上平15-1", "url": "https://www.kaigokensaku.mhlw.go.jp/03/index.php?action_kouhyou_detail_004_kani=true&JigyosyoCd=0371300138-00&ServiceCd=510&Type=search", "url2": "http://www.3palace.com" }, "geometry": { "type": "Point", "coordinates": [ 141.2431679, 40.2401287 ] } },
{ "type": "Feature", "properties": { "内容": "特別養護老人ホーム白梅荘【介護老人福祉施設】岩手県二戸市堀野字大畑１番地１", "url": "https://www.kaigokensaku.mhlw.go.jp/03/index.php?action_kouhyou_detail_004_kani=true&JigyosyoCd=0371300369-00&ServiceCd=510&Type=search", "url2": "http://www.itutuboshi.com" }, "geometry": { "type": "Point", "coordinates": [ 141.308068100000014, 40.299037 ] } },
{ "type": "Feature", "properties": { "内容": "特別養護老人ホーム浄心園【介護老人福祉施設】岩手県二戸市浄法寺町下前田25番地1", "url": "https://www.kaigokensaku.mhlw.go.jp/03/index.php?action_kouhyou_detail_004_kani=true&JigyosyoCd=0373200187-00&ServiceCd=510&Type=search", "url2": "http://keisenkai.jp/" }, "geometry": { "type": "Point", "coordinates": [ 141.157344635222728, 40.184913440841378 ] } },
{ "type": "Feature", "properties": { "内容": "特別養護老人ホームりんどう苑【介護老人福祉施設】岩手県八幡平市丑山口27番地5", "url": "https://www.kaigokensaku.mhlw.go.jp/03/index.php?action_kouhyou_detail_004_kani=true&JigyosyoCd=0373200203-00&ServiceCd=510&Type=search", "url2": "http://www.ashirokai.jp" }, "geometry": { "type": "Point", "coordinates": [ 140.954487, 40.135683 ] } },
{ "type": "Feature", "properties": { "内容": "特別養護老人ホームむらさき苑【介護老人福祉施設】岩手県八幡平市田頭第24地割36番地", "url": "https://www.kaigokensaku.mhlw.go.jp/03/index.php?action_kouhyou_detail_004_kani=true&JigyosyoCd=0372100255-00&ServiceCd=510&Type=search", "url2": "https://nishinekai.jp" }, "geometry": { "type": "Point", "coordinates": [ 141.085962202377374, 39.91918835517049 ] } },
{ "type": "Feature", "properties": { "内容": "特別養護老人ホーム富士見荘【介護老人福祉施設】岩手県八幡平市松尾寄木第１１地割１３番地１", "url": "https://www.kaigokensaku.mhlw.go.jp/03/index.php?action_kouhyou_detail_004_kani=true&JigyosyoCd=0372100271-00&ServiceCd=510&Type=search", "url2": "http://michinoku.or.jp/" }, "geometry": { "type": "Point", "coordinates": [ 140.985349199999973, 39.9175901 ] } },
{ "type": "Feature", "properties": { "内容": "特別養護老人ホーム麗峰苑【介護老人福祉施設】岩手県八幡平市平舘第１３地割１番地１", "url": "https://www.kaigokensaku.mhlw.go.jp/03/index.php?action_kouhyou_detail_004_kani=true&JigyosyoCd=0372100867-00&ServiceCd=510&Type=search", "url2": "http://www.shoujitsukai.or.jp" }, "geometry": { "type": "Point", "coordinates": [ 141.085377939291106, 39.956094832434417 ] } },
{ "type": "Feature", "properties": { "内容": "特別養護老人ホームまえさわ苑【介護老人福祉施設】岩手県奥州市前沢字塔ケ崎７番地", "url": "https://www.kaigokensaku.mhlw.go.jp/03/index.php?action_kouhyou_detail_004_kani=true&JigyosyoCd=0372500330-00&ServiceCd=510&Type=search", "url2": "https://tsu2ji.oshushi.com" }, "geometry": { "type": "Point", "coordinates": [ 141.120690728836053, 39.040339498082403 ] } },
{ "type": "Feature", "properties": { "内容": "特別養護老人ホームやまゆり荘【介護老人福祉施設】岩手県奥州市胆沢南都田字加賀谷地416番地", "url": "https://www.kaigokensaku.mhlw.go.jp/03/index.php?action_kouhyou_detail_004_kani=true&JigyosyoCd=0372500348-00&ServiceCd=510&Type=search", "url2": "https://www.oshuisawakai.iwate.jp" }, "geometry": { "type": "Point", "coordinates": [ 141.072278399999959, 39.1169715 ] } },
{ "type": "Feature", "properties": { "内容": "特別養護老人ホーム羽衣荘【介護老人福祉施設】岩手県奥州市衣川古戸45番地", "url": "https://www.kaigokensaku.mhlw.go.jp/03/index.php?action_kouhyou_detail_004_kani=true&JigyosyoCd=0372500355-00&ServiceCd=510&Type=search", "url2": "http://hagoromosou.net" }, "geometry": { "type": "Point", "coordinates": [ 141.06454640000004, 39.038138 ] } },
{ "type": "Feature", "properties": { "内容": "特別養護老人ホームさくらの郷【介護老人福祉施設】岩手県奥州市江刺岩谷堂字下惣田290番地1", "url": "https://www.kaigokensaku.mhlw.go.jp/03/index.php?action_kouhyou_detail_004_kani=true&JigyosyoCd=0371200189-00&ServiceCd=510&Type=search", "url2": "http://esashijyuseikai.or.jp" }, "geometry": { "type": "Point", "coordinates": [ 141.182063800000037, 39.1813143 ] } },
{ "type": "Feature", "properties": { "内容": "特別養護老人ホームあっぷるホーム【介護老人福祉施設】岩手県奥州市江刺玉里字青篠７番地３", "url": "https://www.kaigokensaku.mhlw.go.jp/03/index.php?action_kouhyou_detail_004_kani=true&JigyosyoCd=0371500067-00&ServiceCd=510&Type=search", "url2": "https://applehome.or.jp" }, "geometry": { "type": "Point", "coordinates": [ 141.251941200000033, 39.2287996 ] } },
{ "type": "Feature", "properties": { "内容": "特別養護老人ホーム福寿荘【介護老人福祉施設】岩手県奥州市水沢上姉体二丁目1番地22", "url": "https://www.kaigokensaku.mhlw.go.jp/03/index.php?action_kouhyou_detail_004_kani=true&JigyosyoCd=0370400251-00&ServiceCd=510&Type=search", "url2": "http://www.fukujyusou.jp/" }, "geometry": { "type": "Point", "coordinates": [ 141.163995200000045, 39.1166269 ] } },
{ "type": "Feature", "properties": { "内容": "特別養護老人ホームいこいの森【介護老人福祉施設】岩手県奥州市水沢羽田町字水無沢497番1", "url": "https://www.kaigokensaku.mhlw.go.jp/03/index.php?action_kouhyou_detail_004_kani=true&JigyosyoCd=0370400483-00&ServiceCd=510&Type=search", "url2": "http://www.mirakukai.com" }, "geometry": { "type": "Point", "coordinates": [ 141.212571790490756, 39.128835045339024 ] } },
{ "type": "Feature", "properties": { "内容": "特別養護老人ホーム福寿荘福原山荘【介護老人福祉施設】岩手県奥州市水沢字大橋34番地4", "url": "https://www.kaigokensaku.mhlw.go.jp/03/index.php?action_kouhyou_detail_004_kani=true&JigyosyoCd=0371500745-00&ServiceCd=510&Type=search", "url2": "http://www.fukujyusou.jp/fukuharasansou/" }, "geometry": { "type": "Point", "coordinates": [ 141.129556001327501, 39.129832560933167 ] } },
{ "type": "Feature", "properties": { "内容": "特別養護老人ホームぬくもりの家【介護老人福祉施設】岩手県奥州市胆沢南都田字大持30番地", "url": "https://www.kaigokensaku.mhlw.go.jp/03/index.php?action_kouhyou_detail_004_kani=true&JigyosyoCd=0372500454-00&ServiceCd=510&Type=search", "url2": "https://www.oshuisawakai.iwate.jp" }, "geometry": { "type": "Point", "coordinates": [ 141.06935610000005, 39.129350500000015 ] } },
{ "type": "Feature", "properties": { "内容": "特別養護老人ホーム立生苑【介護老人福祉施設】岩手県奥州市水沢字見分森19番地1", "url": "https://www.kaigokensaku.mhlw.go.jp/03/index.php?action_kouhyou_detail_004_kani=true&JigyosyoCd=0370400269-00&ServiceCd=510&Type=search", "url2": "https://jyusuikai.jp/" }, "geometry": { "type": "Point", "coordinates": [ 141.109273424680026, 39.120706091915999 ] } },
{ "type": "Feature", "properties": { "内容": "特別養護老人ホーム聖愛園従来型【介護老人福祉施設】岩手県奥州市江刺愛宕字八日市51-3", "url": "https://www.kaigokensaku.mhlw.go.jp/03/index.php?action_kouhyou_detail_004_kani=true&JigyosyoCd=0371200171-00&ServiceCd=510&Type=search", "url2": "https://seiaiikuseikai.or.jp" }, "geometry": { "type": "Point", "coordinates": [ 141.160007, 39.1854496 ] } },
{ "type": "Feature", "properties": { "内容": "特別養護老人ホーム聖愛園（ユニット型）【介護老人福祉施設】岩手県奥州市江刺愛宕字八日市64", "url": "https://www.kaigokensaku.mhlw.go.jp/03/index.php?action_kouhyou_detail_004_kani=true&JigyosyoCd=0371200403-00&ServiceCd=510&Type=search", "url2": "https://seiaiikuseikai.or.jp" }, "geometry": { "type": "Point", "coordinates": [ 141.159602933451851, 39.184615635734119 ] } },
{ "type": "Feature", "properties": { "内容": "特別養護老人ホーム優愛の家【介護老人福祉施設】岩手県奥州市前沢字竹沢147番地", "url": "https://www.kaigokensaku.mhlw.go.jp/03/index.php?action_kouhyou_detail_004_kani=true&JigyosyoCd=0371501222-00&ServiceCd=510&Type=search", "url2": "http://www.yuuaifukushikai.com" }, "geometry": { "type": "Point", "coordinates": [ 141.135478, 39.0539715 ] } },
{ "type": "Feature", "properties": { "内容": "特別養護老人ホームれいたく苑【介護老人福祉施設】岩手県滝沢市高屋敷15番地", "url": "https://www.kaigokensaku.mhlw.go.jp/03/index.php?action_kouhyou_detail_004_kani=true&JigyosyoCd=0372100263-00&ServiceCd=510&Type=search", "url2": "http://www.reitakukai.net/" }, "geometry": { "type": "Point", "coordinates": [ 141.077758600000038, 39.7495654 ] } },
{ "type": "Feature", "properties": { "内容": "特別養護老人ホームたきざわの家【介護老人福祉施設】岩手県滝沢市鵜飼細谷地22-1", "url": "https://www.kaigokensaku.mhlw.go.jp/03/index.php?action_kouhyou_detail_004_kani=true&JigyosyoCd=0372101139-00&ServiceCd=510&Type=search", "url2": "http://www.reitakukai.net/" }, "geometry": { "type": "Point", "coordinates": [ 141.079347399999961, 39.7474657 ] } },
{ "type": "Feature", "properties": { "内容": "特別養護老人ホームいこいの麓・滝沢あなぐち【介護老人福祉施設】岩手県滝沢市穴口221番地2", "url": "https://www.kaigokensaku.mhlw.go.jp/03/index.php?action_kouhyou_detail_004_kani=true&JigyosyoCd=0371600420-00&ServiceCd=510&Type=search", "url2": "http://www.mirakukai.com/" }, "geometry": { "type": "Point", "coordinates": [ 141.102174905269067, 39.738380098466955 ] } },
{ "type": "Feature", "properties": { "内容": "特別養護老人ホーム日赤鶯鳴荘【介護老人福祉施設】岩手県岩手郡雫石町南畑第３２地割１５番地３０", "url": "https://www.kaigokensaku.mhlw.go.jp/03/index.php?action_kouhyou_detail_004_kani=true&JigyosyoCd=0372100297-00&ServiceCd=510&Type=search", "url2": "http://www.oumeisou.jrc.or.jp/" }, "geometry": { "type": "Point", "coordinates": [ 140.944598386267586, 39.644864598716602 ] } },
{ "type": "Feature", "properties": { "内容": "特別養護老人ホームおうしゅく【介護老人福祉施設】岩手県岩手郡雫石町鶯宿第9地割67番地1特別養護老人ホームおうしゅく", "url": "https://www.kaigokensaku.mhlw.go.jp/03/index.php?action_kouhyou_detail_004_kani=true&JigyosyoCd=0372102053-00&ServiceCd=510&Type=search", "url2": "http://www.sg-miyagikai.jp/office/5723/" }, "geometry": { "type": "Point", "coordinates": [ 140.930929099999958, 39.640873 ] } },
{ "type": "Feature", "properties": { "内容": "特別養護老人ホーム高砂荘【介護老人福祉施設】岩手県岩手郡葛巻町葛巻第７地割１０４番地２", "url": "https://www.kaigokensaku.mhlw.go.jp/03/index.php?action_kouhyou_detail_004_kani=true&JigyosyoCd=0372100230-00&ServiceCd=510&Type=search", "url2": "http://seishinseii-sw.or.jp" }, "geometry": { "type": "Point", "coordinates": [ 141.454500199999984, 40.0403547 ] } },
{ "type": "Feature", "properties": { "内容": "特別養護老人ホームあんずの里【介護老人福祉施設】岩手県岩手郡岩手町大字五日市第２地割３０７番地", "url": "https://www.kaigokensaku.mhlw.go.jp/03/index.php?action_kouhyou_detail_004_kani=true&JigyosyoCd=0372100248-00&ServiceCd=510&Type=search", "url2": "http://www.syunyoukai.jp/" }, "geometry": { "type": "Point", "coordinates": [ 141.231866500000024, 40.0150909 ] } },
{ "type": "Feature", "properties": { "内容": "特別養護老人ホームラベンダー【介護老人福祉施設】岩手県岩手郡岩手町大字江刈内第10地割28番地3", "url": "https://www.kaigokensaku.mhlw.go.jp/03/index.php?action_kouhyou_detail_004_kani=true&JigyosyoCd=0372101709-00&ServiceCd=510&Type=search", "url2": "http://lavender.nisshindo-g.com/" }, "geometry": { "type": "Point", "coordinates": [ 141.22425820782621, 39.965868617746928 ] } },
{ "type": "Feature", "properties": { "内容": "特別養護老人ホームにいやま荘【介護老人福祉施設】岩手県紫波郡紫波町桜町字三本木46番地１", "url": "https://www.kaigokensaku.mhlw.go.jp/03/index.php?action_kouhyou_detail_004_kani=true&JigyosyoCd=0372200154-00&ServiceCd=510&Type=search", "url2": "https://shiwakai.jp" }, "geometry": { "type": "Point", "coordinates": [ 141.171604800000068, 39.5415171 ] } },
{ "type": "Feature", "properties": { "内容": "特別養護老人ホームにいやま荘桜町ユニット【介護老人福祉施設】岩手県紫波郡紫波町桜町字三本木４６番地１", "url": "https://www.kaigokensaku.mhlw.go.jp/03/index.php?action_kouhyou_detail_004_kani=true&JigyosyoCd=0372200857-00&ServiceCd=510&Type=search", "url2": "https://shiwakai.jp/" }, "geometry": { "type": "Point", "coordinates": [ 141.171604800000068, 39.5415171 ] } },
{ "type": "Feature", "properties": { "内容": "特別養護老人ホーム百寿の郷【介護老人福祉施設】岩手県紫波郡紫波町土舘字関沢２４番地１", "url": "https://www.kaigokensaku.mhlw.go.jp/03/index.php?action_kouhyou_detail_004_kani=true&JigyosyoCd=0372200261-00&ServiceCd=510&Type=search", "url2": "http://mozunosato.com" }, "geometry": { "type": "Point", "coordinates": [ 141.100695, 39.5477695 ] } },
{ "type": "Feature", "properties": { "内容": "特別養護老人ホーム志和荘【介護老人福祉施設】岩手県紫波郡矢巾町大字広宮沢１－１００", "url": "https://www.kaigokensaku.mhlw.go.jp/03/index.php?action_kouhyou_detail_004_kani=true&JigyosyoCd=0372200162-00&ServiceCd=510&Type=search", "url2": "https://www.shiwasou.jp/" }, "geometry": { "type": "Point", "coordinates": [ 141.0930512, 39.6260572 ] } },
{ "type": "Feature", "properties": { "内容": "特別養護老人ホームシェーンハイム爽【介護老人福祉施設】岩手県紫波郡矢巾町土橋第11割35番地1", "url": "https://www.kaigokensaku.mhlw.go.jp/03/index.php?action_kouhyou_detail_004_kani=true&JigyosyoCd=0372201160-00&ServiceCd=510&Type=search", "url2": "http://www.s-souseikai.jp" }, "geometry": { "type": "Point", "coordinates": [ 141.172180159710706, 39.583625926770672 ] } },
{ "type": "Feature", "properties": { "内容": "特別養護老人ホームぶなの園【介護老人福祉施設】岩手県和賀郡西和賀町沢内字太田２地割１３５番地", "url": "https://www.kaigokensaku.mhlw.go.jp/03/index.php?action_kouhyou_detail_004_kani=true&JigyosyoCd=0372400226-00&ServiceCd=510&Type=search", "url2": "https://yasuragikai.com/" }, "geometry": { "type": "Point", "coordinates": [ 140.749502099999972, 39.431738 ] } },
{ "type": "Feature", "properties": { "内容": "特別養護老人ホーム光寿苑【介護老人福祉施設】岩手県和賀郡西和賀町湯本30地割76番地1", "url": "https://www.kaigokensaku.mhlw.go.jp/03/index.php?action_kouhyou_detail_004_kani=true&JigyosyoCd=0372400218-00&ServiceCd=510&Type=search", "url2": "https://www.koujyukai.or.jp/" }, "geometry": { "type": "Point", "coordinates": [ 140.77314130000002, 39.3416153 ] } },
{ "type": "Feature", "properties": { "内容": "特別養護老人ホーム友愛園【介護老人福祉施設】岩手県胆沢郡金ケ崎町西根揚場後8番地2", "url": "https://www.kaigokensaku.mhlw.go.jp/03/index.php?action_kouhyou_detail_004_kani=true&JigyosyoCd=0372500322-00&ServiceCd=510&Type=search", "url2": "http://www.yuaikai-kanegasaki.com/" }, "geometry": { "type": "Point", "coordinates": [ 141.10518419999994, 39.1870123 ] } },
{ "type": "Feature", "properties": { "内容": "特別養護老人ホームあすなろ【介護老人福祉施設】岩手県胆沢郡金ヶ崎町六原坊主屋敷36番地1", "url": "https://www.kaigokensaku.mhlw.go.jp/03/index.php?action_kouhyou_detail_004_kani=true&JigyosyoCd=0372500546-00&ServiceCd=510&Type=search", "url2": "https://yamadori-iwate.com" }, "geometry": { "type": "Point", "coordinates": [ 141.070571400000063, 39.2417158 ] } },
{ "type": "Feature", "properties": { "内容": "特別養護老人ホ－ムふくしの里慶泉荘【介護老人福祉施設】岩手県西磐井郡平泉町平泉字片岡69番地7", "url": "https://www.kaigokensaku.mhlw.go.jp/03/index.php?action_kouhyou_detail_004_kani=true&JigyosyoCd=0372600130-00&ServiceCd=510&Type=search", "url2": "https://www.tousenkai.or.jp" }, "geometry": { "type": "Point", "coordinates": [ 141.107681599999978, 38.9716747 ] } },
{ "type": "Feature", "properties": { "内容": "特別養護老人ホームすみた荘【介護老人福祉施設】岩手県気仙郡住田町世田米字川向８番地２", "url": "https://www.kaigokensaku.mhlw.go.jp/03/index.php?action_kouhyou_detail_004_kani=true&JigyosyoCd=0372800136-00&ServiceCd=510&Type=search", "url2": "https://care-net.biz/03/narusekai/" }, "geometry": { "type": "Point", "coordinates": [ 141.569050873680084, 39.146085700315901 ] } },
{ "type": "Feature", "properties": { "内容": "特別養護老人ホーム三陸園【介護老人福祉施設】岩手県上閉伊郡大槌町吉里吉里第３２地割１８番２５号", "url": "https://www.kaigokensaku.mhlw.go.jp/03/index.php?action_kouhyou_detail_004_kani=true&JigyosyoCd=0372900142-00&ServiceCd=510&Type=search", "url2": "http://tsutsumifukushikai.jp" }, "geometry": { "type": "Point", "coordinates": [ 141.954695799999968, 39.3729315 ] } },
{ "type": "Feature", "properties": { "内容": "特別養護老人ホームらふたぁヒルズ【介護老人福祉施設】岩手県上閉伊郡大槌町吉里吉里第29地割21番57", "url": "https://www.kaigokensaku.mhlw.go.jp/03/index.php?action_kouhyou_detail_004_kani=true&JigyosyoCd=0372900233-00&ServiceCd=510&Type=search", "url2": "http://www.tsutsumifukushikai.jp" }, "geometry": { "type": "Point", "coordinates": [ 141.944171217244701, 39.364641388713324 ] } },
{ "type": "Feature", "properties": { "内容": "特別養護老人ホーム平安荘【介護老人福祉施設】岩手県下閉伊郡山田町山田第16地割9番地10", "url": "https://www.kaigokensaku.mhlw.go.jp/03/index.php?action_kouhyou_detail_004_kani=true&JigyosyoCd=0373000546-00&ServiceCd=510&Type=search", "url2": "https://seiju-kai.net" }, "geometry": { "type": "Point", "coordinates": [ 141.934287400000017, 39.4736553 ] } },
{ "type": "Feature", "properties": { "内容": "特別養護老人ホーム百楽苑【介護老人福祉施設】岩手県下閉伊郡岩泉町岩泉字中家４０", "url": "https://www.kaigokensaku.mhlw.go.jp/03/index.php?action_kouhyou_detail_004_kani=true&JigyosyoCd=0373000553-00&ServiceCd=510&Type=search", "url2": "http://www.hyakurakuen.org/" }, "geometry": { "type": "Point", "coordinates": [ 141.79538649999995, 39.848205399999983 ] } },
{ "type": "Feature", "properties": { "内容": "特別養護老人ホーム寿生苑【介護老人福祉施設】岩手県下閉伊郡田野畑村田野畑120番地18", "url": "https://www.kaigokensaku.mhlw.go.jp/03/index.php?action_kouhyou_detail_004_kani=true&JigyosyoCd=0373000561-00&ServiceCd=510&Type=search", "url2": "http://www.jyuseikai.jp/" }, "geometry": { "type": "Point", "coordinates": [ 141.893817600000034, 39.9320084 ] } },
{ "type": "Feature", "properties": { "内容": "特別養護老人ホームうねとり荘【介護老人福祉施設】岩手県下閉伊郡普代村第２４地割字鳥居５番地１", "url": "https://www.kaigokensaku.mhlw.go.jp/03/index.php?action_kouhyou_detail_004_kani=true&JigyosyoCd=0373000462-00&ServiceCd=510&Type=search", "url2": "https://www.unetorisou.com" }, "geometry": { "type": "Point", "coordinates": [ 141.8542857, 40.0136984 ] } },
{ "type": "Feature", "properties": { "内容": "特別養護老人ホームくつろぎの家【介護老人福祉施設】岩手県九戸郡軽米町大字山内第12地割字太田向96番地2", "url": "https://www.kaigokensaku.mhlw.go.jp/03/index.php?action_kouhyou_detail_004_kani=true&JigyosyoCd=0373100403-00&ServiceCd=510&Type=search", "url2": "http://www.keisenkai.jp/kutsuroginoie" }, "geometry": { "type": "Point", "coordinates": [ 141.460632700000019, 40.3267455 ] } },
{ "type": "Feature", "properties": { "内容": "特別養護老人ホームいちい荘【介護老人福祉施設】岩手県九戸郡軽米町大字軽米3-22-7", "url": "https://www.kaigokensaku.mhlw.go.jp/03/index.php?action_kouhyou_detail_004_kani=true&JigyosyoCd=0373100569-00&ServiceCd=510&Type=search", "url2": "http://karumai-shakyo.or.jp/" }, "geometry": { "type": "Point", "coordinates": [ 141.473811056339088, 40.317463180713929 ] } },
{ "type": "Feature", "properties": { "内容": "特別養護老人ホームことぶき荘【介護老人福祉施設】岩手県九戸郡野田村大字野田第22地割44番地1", "url": "https://www.kaigokensaku.mhlw.go.jp/03/index.php?action_kouhyou_detail_004_kani=true&JigyosyoCd=0373100221-00&ServiceCd=510&Type=search", "url2": "http://hakuju.wixsite.com/nodahakujukai" }, "geometry": { "type": "Point", "coordinates": [ 141.802198, 40.1086692 ] } },
{ "type": "Feature", "properties": { "内容": "特別養護老人ホーム折爪荘【介護老人福祉施設】岩手県九戸郡九戸村大字伊保内第9地割73番地", "url": "https://www.kaigokensaku.mhlw.go.jp/03/index.php?action_kouhyou_detail_004_kani=true&JigyosyoCd=0373100346-00&ServiceCd=510&Type=search", "url2": "http://www.oritsumesou.or.jp" }, "geometry": { "type": "Point", "coordinates": [ 141.421604500000058, 40.2142998 ] } },
{ "type": "Feature", "properties": { "内容": "特別養護老人ホーム久慈平荘【介護老人福祉施設】岩手県九戸郡洋野町大野第６０地割４１番地８", "url": "https://www.kaigokensaku.mhlw.go.jp/03/index.php?action_kouhyou_detail_004_kani=true&JigyosyoCd=0373100213-00&ServiceCd=510&Type=search", "url2": "https://m-kujihirasou.jp/" }, "geometry": { "type": "Point", "coordinates": [ 141.634626900000058, 40.2766863 ] } },
{ "type": "Feature", "properties": { "内容": "特別養護老人ホーム希望【介護老人福祉施設】岩手県九戸郡洋野町種市第23地割81番地6", "url": "https://www.kaigokensaku.mhlw.go.jp/03/index.php?action_kouhyou_detail_004_kani=true&JigyosyoCd=0373100742-00&ServiceCd=510&Type=search", "url2": "https://hironokai.or.jp/" }, "geometry": { "type": "Point", "coordinates": [ 141.714238393292106, 40.410555489960522 ] } },
{ "type": "Feature", "properties": { "内容": "特別養護老人ホーム杜の華【介護老人福祉施設】岩手県九戸郡洋野町種市第19地割171番地2", "url": "https://www.kaigokensaku.mhlw.go.jp/03/index.php?action_kouhyou_detail_004_kani=true&JigyosyoCd=0373100833-00&ServiceCd=510&Type=search", "url2": "https://hekiseikai.com" }, "geometry": { "type": "Point", "coordinates": [ 141.7036651, 40.3892602 ] } },
{ "type": "Feature", "properties": { "内容": "特別養護老人ホーム慶寿園【介護老人福祉施設】岩手県二戸郡一戸町姉帯字下村24番地1", "url": "https://www.kaigokensaku.mhlw.go.jp/03/index.php?action_kouhyou_detail_004_kani=true&JigyosyoCd=0373200195-00&ServiceCd=510&Type=search", "url2": "http://iwate-jikoukai.jp/about/" }, "geometry": { "type": "Point", "coordinates": [ 141.336482100000012, 40.1659644 ] } }
]
}
