{
"type": "FeatureCollection",
"name": "geo_03_通所介護",
"crs": { "type": "name", "properties": { "name": "urn:ogc:def:crs:OGC:1.3:CRS84" } },
"features": [
{ "type": "Feature", "properties": { "内容": "ブライトステージ【通所介護】岩手県盛岡市肴町3番18号ラオ・エム・コート　2階", "url2": "https://www.kaigokensaku.mhlw.go.jp/03/index.php?action_kouhyou_detail_004_kani=true&JigyosyoCd=0370103251-00&ServiceCd=150&Type=search" }, "geometry": { "type": "Point", "coordinates": [ 141.154003399999965, 39.6993922 ] } },
{ "type": "Feature", "properties": { "内容": "デイサービスシャンジェ【通所介護】岩手県盛岡市厨川4丁目9-18", "url2": "https://www.kaigokensaku.mhlw.go.jp/03/index.php?action_kouhyou_detail_004_kani=true&JigyosyoCd=0370103996-00&ServiceCd=150&Type=search" }, "geometry": { "type": "Point", "coordinates": [ 141.129987051850918, 39.750777131528402 ] } },
{ "type": "Feature", "properties": { "内容": "にこにこホーム【通所介護】岩手県盛岡市玉山馬場字滝の沢２８", "url2": "https://www.kaigokensaku.mhlw.go.jp/03/index.php?action_kouhyou_detail_004_kani=true&JigyosyoCd=0370104846-00&ServiceCd=150&Type=search" }, "geometry": { "type": "Point", "coordinates": [ 141.203890199999933, 39.8791425 ] } },
{ "type": "Feature", "properties": { "内容": "デイサービス松福【通所介護】岩手県盛岡市好摩字野中69-47松福の郷・好摩", "url2": "https://www.kaigokensaku.mhlw.go.jp/03/index.php?action_kouhyou_detail_004_kani=true&JigyosyoCd=0370105835-00&ServiceCd=150&Type=search" }, "geometry": { "type": "Point", "coordinates": [ 141.16651909999996, 39.8773527 ] } },
{ "type": "Feature", "properties": { "内容": "老人デイサービスセンター「百万石」本宮【通所介護】岩手県盛岡市本宮３丁目１５番26号", "url2": "https://www.kaigokensaku.mhlw.go.jp/03/index.php?action_kouhyou_detail_004_kani=true&JigyosyoCd=0370107088-00&ServiceCd=150&Type=search" }, "geometry": { "type": "Point", "coordinates": [ 141.1334458, 39.690785 ] } },
{ "type": "Feature", "properties": { "内容": "特別養護老人ホームすずらんガーデン通所介護事業所【通所介護】岩手県盛岡市好摩字芋田向８３－２５", "url2": "https://www.kaigokensaku.mhlw.go.jp/03/index.php?action_kouhyou_detail_004_kani=true&JigyosyoCd=0372100859-00&ServiceCd=150&Type=search" }, "geometry": { "type": "Point", "coordinates": [ 141.165358400000059, 39.8669401 ] } },
{ "type": "Feature", "properties": { "内容": "青山和敬荘【通所介護】岩手県盛岡市南青山町１３番３０号", "url2": "https://www.kaigokensaku.mhlw.go.jp/03/index.php?action_kouhyou_detail_004_kani=true&JigyosyoCd=0370100240-00&ServiceCd=150&Type=search" }, "geometry": { "type": "Point", "coordinates": [ 141.112401, 39.7192946 ] } },
{ "type": "Feature", "properties": { "内容": "浅岸和敬荘通所介護事業所【通所介護】岩手県盛岡市浅岸三丁目23番50号", "url2": "https://www.kaigokensaku.mhlw.go.jp/03/index.php?action_kouhyou_detail_004_kani=true&JigyosyoCd=0370100257-00&ServiceCd=150&Type=search" }, "geometry": { "type": "Point", "coordinates": [ 141.179309099999955, 39.7120275 ] } },
{ "type": "Feature", "properties": { "内容": "五月園指定通所介護事業所【通所介護】岩手県盛岡市東山二丁目5-19", "url2": "https://www.kaigokensaku.mhlw.go.jp/03/index.php?action_kouhyou_detail_004_kani=true&JigyosyoCd=0370100745-00&ServiceCd=150&Type=search" }, "geometry": { "type": "Point", "coordinates": [ 141.180212399999959, 39.68873 ] } },
{ "type": "Feature", "properties": { "内容": "機能訓練センター加賀野【通所介護】岩手県盛岡市加賀野１－２－３５", "url2": "https://www.kaigokensaku.mhlw.go.jp/03/index.php?action_kouhyou_detail_004_kani=true&JigyosyoCd=0370104044-00&ServiceCd=150&Type=search" }, "geometry": { "type": "Point", "coordinates": [ 141.160958100000016, 39.7073997 ] } },
{ "type": "Feature", "properties": { "内容": "デイサービス結の家【通所介護】岩手県盛岡市長橋町６番１号", "url2": "https://www.kaigokensaku.mhlw.go.jp/03/index.php?action_kouhyou_detail_004_kani=true&JigyosyoCd=0370106114-00&ServiceCd=150&Type=search" }, "geometry": { "type": "Point", "coordinates": [ 141.103890699999965, 39.7151586 ] } },
{ "type": "Feature", "properties": { "内容": "愛ケアセンターデイサービスまごころ【通所介護】岩手県盛岡市西見前13地割76愛ケアセンター西見前", "url2": "https://www.kaigokensaku.mhlw.go.jp/03/index.php?action_kouhyou_detail_004_kani=true&JigyosyoCd=0370106197-00&ServiceCd=150&Type=search" }, "geometry": { "type": "Point", "coordinates": [ 141.16503560000001, 39.6399154 ] } },
{ "type": "Feature", "properties": { "内容": "デイサービス結の家青山【通所介護】岩手県盛岡市西青山二丁目10番21号", "url2": "https://www.kaigokensaku.mhlw.go.jp/03/index.php?action_kouhyou_detail_004_kani=true&JigyosyoCd=0370106585-00&ServiceCd=150&Type=search" }, "geometry": { "type": "Point", "coordinates": [ 141.105512529350648, 39.72618407087171 ] } },
{ "type": "Feature", "properties": { "内容": "ADL向上センター【通所介護】岩手県盛岡市西見前11地割207-3", "url2": "https://www.kaigokensaku.mhlw.go.jp/03/index.php?action_kouhyou_detail_004_kani=true&JigyosyoCd=0370107294-00&ServiceCd=150&Type=search" }, "geometry": { "type": "Point", "coordinates": [ 141.1708088, 39.6344944 ] } },
{ "type": "Feature", "properties": { "内容": "デイサービスふくろうの広場長橋台【通所介護】岩手県盛岡市長橋町25番1号", "url2": "https://www.kaigokensaku.mhlw.go.jp/03/index.php?action_kouhyou_detail_004_kani=true&JigyosyoCd=0370107773-00&ServiceCd=150&Type=search" }, "geometry": { "type": "Point", "coordinates": [ 141.10258319999997, 39.7216052 ] } },
{ "type": "Feature", "properties": { "内容": "ニチイケアセンター上田【通所介護】岩手県盛岡市上田一丁目３番４３号", "url2": "https://www.kaigokensaku.mhlw.go.jp/03/index.php?action_kouhyou_detail_004_kani=true&JigyosyoCd=0370100265-00&ServiceCd=150&Type=search" }, "geometry": { "type": "Point", "coordinates": [ 141.147617399999945, 39.7136931 ] } },
{ "type": "Feature", "properties": { "内容": "ニチイケアセンター盛岡南【通所介護】岩手県盛岡市津志田14地割112番地", "url2": "https://www.kaigokensaku.mhlw.go.jp/03/index.php?action_kouhyou_detail_004_kani=true&JigyosyoCd=0370100273-00&ServiceCd=150&Type=search" }, "geometry": { "type": "Point", "coordinates": [ 141.156820150926251, 39.656124249985723 ] } },
{ "type": "Feature", "properties": { "内容": "希望の里デイサービスセンター【通所介護】岩手県盛岡市乙部5地割41番地１", "url2": "https://www.kaigokensaku.mhlw.go.jp/03/index.php?action_kouhyou_detail_004_kani=true&JigyosyoCd=0370101008-00&ServiceCd=150&Type=search" }, "geometry": { "type": "Point", "coordinates": [ 141.195050300000048, 39.6113176 ] } },
{ "type": "Feature", "properties": { "内容": "ニチイケアセンター盛岡北【通所介護】岩手県盛岡市みたけ三丁目38番50号", "url2": "https://www.kaigokensaku.mhlw.go.jp/03/index.php?action_kouhyou_detail_004_kani=true&JigyosyoCd=0370101974-00&ServiceCd=150&Type=search" }, "geometry": { "type": "Point", "coordinates": [ 141.1165555, 39.7417064 ] } },
{ "type": "Feature", "properties": { "内容": "めだかのデイ3号館【通所介護】岩手県盛岡市黒川22-65-1", "url2": "https://www.kaigokensaku.mhlw.go.jp/03/index.php?action_kouhyou_detail_004_kani=true&JigyosyoCd=0370105538-00&ServiceCd=150&Type=search" }, "geometry": { "type": "Point", "coordinates": [ 141.185098399999987, 39.6204437 ] } },
{ "type": "Feature", "properties": { "内容": "レッツ倶楽部盛岡南【通所介護】岩手県盛岡市永井24地割91番地3", "url2": "https://www.kaigokensaku.mhlw.go.jp/03/index.php?action_kouhyou_detail_004_kani=true&JigyosyoCd=0370105868-00&ServiceCd=150&Type=search" }, "geometry": { "type": "Point", "coordinates": [ 141.154255199999966, 39.652908400000015 ] } },
{ "type": "Feature", "properties": { "内容": "中屋敷ケアセンターそよ風【通所介護】岩手県盛岡市中屋敷町6-17", "url2": "https://www.kaigokensaku.mhlw.go.jp/03/index.php?action_kouhyou_detail_004_kani=true&JigyosyoCd=0370106346-00&ServiceCd=150&Type=search" }, "geometry": { "type": "Point", "coordinates": [ 141.12042, 39.7078764 ] } },
{ "type": "Feature", "properties": { "内容": "デイサービス愛語・山岸【通所介護】岩手県盛岡市山岸1丁目6番20号", "url2": "https://www.kaigokensaku.mhlw.go.jp/03/index.php?action_kouhyou_detail_004_kani=true&JigyosyoCd=0370106916-00&ServiceCd=150&Type=search" }, "geometry": { "type": "Point", "coordinates": [ 141.166923900000029, 39.7127132 ] } },
{ "type": "Feature", "properties": { "内容": "盛岡北ケアコミュニティそよ風【通所介護】岩手県盛岡市三ツ割4丁目7-17", "url2": "https://www.kaigokensaku.mhlw.go.jp/03/index.php?action_kouhyou_detail_004_kani=true&JigyosyoCd=0370107195-00&ServiceCd=150&Type=search" }, "geometry": { "type": "Point", "coordinates": [ 141.157799599999976, 39.7297717 ] } },
{ "type": "Feature", "properties": { "内容": "あったかいごデイサービスみこだ【通所介護】岩手県盛岡市神子田町16番38号あったかいごデイサービスみこだ", "url2": "https://www.kaigokensaku.mhlw.go.jp/03/index.php?action_kouhyou_detail_004_kani=true&JigyosyoCd=0370107351-00&ServiceCd=150&Type=search" }, "geometry": { "type": "Point", "coordinates": [ 141.1616861, 39.6897606 ] } },
{ "type": "Feature", "properties": { "内容": "あったかいごデイサービス東安庭【通所介護】岩手県盛岡市東安庭一丁目２３番６８号", "url2": "https://www.kaigokensaku.mhlw.go.jp/03/index.php?action_kouhyou_detail_004_kani=true&JigyosyoCd=0370107393-00&ServiceCd=150&Type=search" }, "geometry": { "type": "Point", "coordinates": [ 141.16442090000001, 39.6800207 ] } },
{ "type": "Feature", "properties": { "内容": "盛岡ケアセンターそよ風【通所介護】岩手県盛岡市向中野四丁目35-22", "url2": "https://www.kaigokensaku.mhlw.go.jp/03/index.php?action_kouhyou_detail_004_kani=true&JigyosyoCd=0370102253-00&ServiceCd=150&Type=search" }, "geometry": { "type": "Point", "coordinates": [ 141.146624200000019, 39.676678 ] } },
{ "type": "Feature", "properties": { "内容": "めだかのデイ2号館【通所介護】岩手県盛岡市乙部30-76-1", "url2": "https://www.kaigokensaku.mhlw.go.jp/03/index.php?action_kouhyou_detail_004_kani=true&JigyosyoCd=0370103707-00&ServiceCd=150&Type=search" }, "geometry": { "type": "Point", "coordinates": [ 141.19745290000003, 39.6095207 ] } },
{ "type": "Feature", "properties": { "内容": "めだかのデイサービス【通所介護】岩手県盛岡市乙部31-13-1", "url2": "https://www.kaigokensaku.mhlw.go.jp/03/index.php?action_kouhyou_detail_004_kani=true&JigyosyoCd=0370107120-00&ServiceCd=150&Type=search" }, "geometry": { "type": "Point", "coordinates": [ 141.206915699999968, 39.6172318 ] } },
{ "type": "Feature", "properties": { "内容": "第二松園ハイツ指定通所介護事業所【通所介護】岩手県盛岡市西松園二丁目5番1号", "url2": "https://www.kaigokensaku.mhlw.go.jp/03/index.php?action_kouhyou_detail_004_kani=true&JigyosyoCd=0370100307-00&ServiceCd=150&Type=search" }, "geometry": { "type": "Point", "coordinates": [ 141.159471356298837, 39.752122747461229 ] } },
{ "type": "Feature", "properties": { "内容": "千年苑デイサービスセンター【通所介護】岩手県盛岡市上太田穴口５３番地", "url2": "https://www.kaigokensaku.mhlw.go.jp/03/index.php?action_kouhyou_detail_004_kani=true&JigyosyoCd=0370100554-00&ServiceCd=150&Type=search" }, "geometry": { "type": "Point", "coordinates": [ 141.058356099999969, 39.6908931 ] } },
{ "type": "Feature", "properties": { "内容": "城南老人デイサービスセンター【通所介護】岩手県盛岡市神明町8番4号", "url2": "https://www.kaigokensaku.mhlw.go.jp/03/index.php?action_kouhyou_detail_004_kani=true&JigyosyoCd=0370101636-00&ServiceCd=150&Type=search" }, "geometry": { "type": "Point", "coordinates": [ 141.16003610000007, 39.7015504 ] } },
{ "type": "Feature", "properties": { "内容": "デイサービスセンター田園【通所介護】岩手県盛岡市太田3-17-35", "url2": "https://www.kaigokensaku.mhlw.go.jp/03/index.php?action_kouhyou_detail_004_kani=true&JigyosyoCd=0370102352-00&ServiceCd=150&Type=search" }, "geometry": { "type": "Point", "coordinates": [ 141.117606799999947, 39.696058099999981 ] } },
{ "type": "Feature", "properties": { "内容": "盛岡市社会福祉協議会盛岡駅西口老人デイサービスセンター【通所介護】岩手県盛岡市盛岡駅西通1丁目2番2号", "url2": "https://www.kaigokensaku.mhlw.go.jp/03/index.php?action_kouhyou_detail_004_kani=true&JigyosyoCd=0370102410-00&ServiceCd=150&Type=search" }, "geometry": { "type": "Point", "coordinates": [ 141.131913599999962, 39.704091 ] } },
{ "type": "Feature", "properties": { "内容": "盛岡市社会福祉協議会月が丘老人デイサービスセンター【通所介護】岩手県盛岡市月が丘3丁目7番5号", "url2": "https://www.kaigokensaku.mhlw.go.jp/03/index.php?action_kouhyou_detail_004_kani=true&JigyosyoCd=0370102428-00&ServiceCd=150&Type=search" }, "geometry": { "type": "Point", "coordinates": [ 141.109248, 39.7340709 ] } },
{ "type": "Feature", "properties": { "内容": "愛真館夢ぷらざ【通所介護】岩手県盛岡市繋字塗沢４０－４愛真館西館3階", "url2": "https://www.kaigokensaku.mhlw.go.jp/03/index.php?action_kouhyou_detail_004_kani=true&JigyosyoCd=0370102709-00&ServiceCd=150&Type=search" }, "geometry": { "type": "Point", "coordinates": [ 141.021888200000035, 39.6727025 ] } },
{ "type": "Feature", "properties": { "内容": "デイサービスカノン【通所介護】岩手県盛岡市向中野5-30-15", "url2": "https://www.kaigokensaku.mhlw.go.jp/03/index.php?action_kouhyou_detail_004_kani=true&JigyosyoCd=0370102857-00&ServiceCd=150&Type=search" }, "geometry": { "type": "Point", "coordinates": [ 141.137996000236797, 39.676936245136851 ] } },
{ "type": "Feature", "properties": { "内容": "デイサービスこずかたの郷【通所介護】岩手県盛岡市太田６丁目５番３１号", "url2": "https://www.kaigokensaku.mhlw.go.jp/03/index.php?action_kouhyou_detail_004_kani=true&JigyosyoCd=0370104523-00&ServiceCd=150&Type=search" }, "geometry": { "type": "Point", "coordinates": [ 141.114428661376905, 39.69837459008977 ] } },
{ "type": "Feature", "properties": { "内容": "ジョイリハ盛岡上田【通所介護】岩手県盛岡市上田１－６－１０イースタンキャッスル２　１F", "url2": "https://www.kaigokensaku.mhlw.go.jp/03/index.php?action_kouhyou_detail_004_kani=true&JigyosyoCd=0370104861-00&ServiceCd=150&Type=search" }, "geometry": { "type": "Point", "coordinates": [ 141.145039900000029, 39.711921 ] } },
{ "type": "Feature", "properties": { "内容": "デイサービス明来日【通所介護】岩手県盛岡市新田町１０－８", "url2": "https://www.kaigokensaku.mhlw.go.jp/03/index.php?action_kouhyou_detail_004_kani=true&JigyosyoCd=0370105447-00&ServiceCd=150&Type=search" }, "geometry": { "type": "Point", "coordinates": [ 141.129569874868821, 39.70598728661259 ] } },
{ "type": "Feature", "properties": { "内容": "ＳＯＭＰＯケア盛岡清水デイサービス【通所介護】岩手県盛岡市清水町14番17号中圭ﾋﾞﾙ1F", "url2": "https://www.kaigokensaku.mhlw.go.jp/03/index.php?action_kouhyou_detail_004_kani=true&JigyosyoCd=0370106940-00&ServiceCd=150&Type=search" }, "geometry": { "type": "Point", "coordinates": [ 141.148823399999969, 39.694081500000017 ] } },
{ "type": "Feature", "properties": { "内容": "ＳＯＭＰＯケア盛岡本町デイサービス【通所介護】岩手県盛岡市本町通３丁目２０番２５号パークハイツ本町１Ｆ", "url2": "https://www.kaigokensaku.mhlw.go.jp/03/index.php?action_kouhyou_detail_004_kani=true&JigyosyoCd=0370106999-00&ServiceCd=150&Type=search" }, "geometry": { "type": "Point", "coordinates": [ 141.1435874, 39.7087074 ] } },
{ "type": "Feature", "properties": { "内容": "デイサービスきらくの郷厨川【通所介護】岩手県盛岡市厨川4丁目5-7", "url2": "https://www.kaigokensaku.mhlw.go.jp/03/index.php?action_kouhyou_detail_004_kani=true&JigyosyoCd=0370107476-00&ServiceCd=150&Type=search" }, "geometry": { "type": "Point", "coordinates": [ 141.127489200000014, 39.7482229 ] } },
{ "type": "Feature", "properties": { "内容": "きらくの郷城北デイサービス【通所介護】岩手県盛岡市みたけ3丁目23番36号", "url2": "https://www.kaigokensaku.mhlw.go.jp/03/index.php?action_kouhyou_detail_004_kani=true&JigyosyoCd=0370107484-00&ServiceCd=150&Type=search" }, "geometry": { "type": "Point", "coordinates": [ 141.1148181, 39.7396954 ] } },
{ "type": "Feature", "properties": { "内容": "生活リハビリ訓練かがやき【通所介護】岩手県盛岡市厨川4丁目5-15", "url2": "https://www.kaigokensaku.mhlw.go.jp/03/index.php?action_kouhyou_detail_004_kani=true&JigyosyoCd=0370107492-00&ServiceCd=150&Type=search" }, "geometry": { "type": "Point", "coordinates": [ 141.1279156, 39.7486097 ] } },
{ "type": "Feature", "properties": { "内容": "デイサービスおとなりさん【通所介護】岩手県盛岡市厨川4丁目5番36号", "url2": "https://www.kaigokensaku.mhlw.go.jp/03/index.php?action_kouhyou_detail_004_kani=true&JigyosyoCd=0370107500-00&ServiceCd=150&Type=search" }, "geometry": { "type": "Point", "coordinates": [ 141.127757800000012, 39.748161 ] } },
{ "type": "Feature", "properties": { "内容": "ちえのわデイサービス【通所介護】岩手県盛岡市みたけ1丁目9-48", "url2": "https://www.kaigokensaku.mhlw.go.jp/03/index.php?action_kouhyou_detail_004_kani=true&JigyosyoCd=0370107518-00&ServiceCd=150&Type=search" }, "geometry": { "type": "Point", "coordinates": [ 141.1208909, 39.7362295 ] } },
{ "type": "Feature", "properties": { "内容": "PLAYERSデイサービス【通所介護】岩手県盛岡市菜園一丁目6番13号公園通りプラザビル3階", "url2": "https://www.kaigokensaku.mhlw.go.jp/03/index.php?action_kouhyou_detail_004_kani=true&JigyosyoCd=0370107799-00&ServiceCd=150&Type=search" }, "geometry": { "type": "Point", "coordinates": [ 141.1480138, 39.7013551 ] } },
{ "type": "Feature", "properties": { "内容": "デイサービスセンターこはくの風内丸【通所介護】岩手県盛岡市本町通一丁目9－12", "url2": "https://www.kaigokensaku.mhlw.go.jp/03/index.php?action_kouhyou_detail_004_kani=true&JigyosyoCd=0370106171-00&ServiceCd=150&Type=search" }, "geometry": { "type": "Point", "coordinates": [ 141.1531828, 39.7055063 ] } },
{ "type": "Feature", "properties": { "内容": "リハビリパークさんさ物語デイサービスセンター【通所介護】岩手県盛岡市厨川四丁目10番1号", "url2": "https://www.kaigokensaku.mhlw.go.jp/03/index.php?action_kouhyou_detail_004_kani=true&JigyosyoCd=0370108185-00&ServiceCd=150&Type=search" }, "geometry": { "type": "Point", "coordinates": [ 141.129982899999987, 39.7498663 ] } },
{ "type": "Feature", "properties": { "内容": "デイサービスThreeStarsCafé【通所介護】岩手県盛岡市東新庄1-7-23", "url2": "https://www.kaigokensaku.mhlw.go.jp/03/index.php?action_kouhyou_detail_004_kani=true&JigyosyoCd=0370108227-00&ServiceCd=150&Type=search" }, "geometry": { "type": "Point", "coordinates": [ 141.1703593, 39.6997127 ] } },
{ "type": "Feature", "properties": { "内容": "デイサービスくるみ愛宕【通所介護】岩手県盛岡市愛宕町12番10号", "url2": "https://www.kaigokensaku.mhlw.go.jp/03/index.php?action_kouhyou_detail_004_kani=true&JigyosyoCd=0370101784-00&ServiceCd=150&Type=search" }, "geometry": { "type": "Point", "coordinates": [ 141.162855101852443, 39.710102283762446 ] } },
{ "type": "Feature", "properties": { "内容": "在宅総合センターひだまりデイサービス【通所介護】岩手県盛岡市津志田２６－３０－１", "url2": "https://www.kaigokensaku.mhlw.go.jp/03/index.php?action_kouhyou_detail_004_kani=true&JigyosyoCd=0370102089-00&ServiceCd=150&Type=search" }, "geometry": { "type": "Point", "coordinates": [ 141.156487299999981, 39.6723621 ] } },
{ "type": "Feature", "properties": { "内容": "ゆめさとデイサービス【通所介護】岩手県盛岡市青山三丁目１０番１９号", "url2": "https://www.kaigokensaku.mhlw.go.jp/03/index.php?action_kouhyou_detail_004_kani=true&JigyosyoCd=0370103319-00&ServiceCd=150&Type=search" }, "geometry": { "type": "Point", "coordinates": [ 141.116642, 39.7286272 ] } },
{ "type": "Feature", "properties": { "内容": "アースサポート盛岡南【通所介護】岩手県盛岡市東仙北1丁目4番16号", "url2": "https://www.kaigokensaku.mhlw.go.jp/03/index.php?action_kouhyou_detail_004_kani=true&JigyosyoCd=0370103558-00&ServiceCd=150&Type=search" }, "geometry": { "type": "Point", "coordinates": [ 141.156127, 39.6845585 ] } },
{ "type": "Feature", "properties": { "内容": "デイサービス・セカンドきらら【通所介護】岩手県盛岡市箱清水一丁目18番7号", "url2": "https://www.kaigokensaku.mhlw.go.jp/03/index.php?action_kouhyou_detail_004_kani=true&JigyosyoCd=0370104895-00&ServiceCd=150&Type=search" }, "geometry": { "type": "Point", "coordinates": [ 141.130971100000011, 39.7328798 ] } },
{ "type": "Feature", "properties": { "内容": "盛南デイサービス【通所介護】岩手県盛岡市向中野７丁目４番１６号サービス付き高齢者向け住宅　みなみ風", "url2": "https://www.kaigokensaku.mhlw.go.jp/03/index.php?action_kouhyou_detail_004_kani=true&JigyosyoCd=0370105322-00&ServiceCd=150&Type=search" }, "geometry": { "type": "Point", "coordinates": [ 141.141090521426349, 39.675818313521248 ] } },
{ "type": "Feature", "properties": { "内容": "デイサービスまごころ【通所介護】岩手県盛岡市高松３丁目4-48", "url2": "https://www.kaigokensaku.mhlw.go.jp/03/index.php?action_kouhyou_detail_004_kani=true&JigyosyoCd=0370106031-00&ServiceCd=150&Type=search" }, "geometry": { "type": "Point", "coordinates": [ 141.140157209261986, 39.725374080433966 ] } },
{ "type": "Feature", "properties": { "内容": "デイサービスリハビリライフ【通所介護】岩手県盛岡市月が丘三丁目32番6号", "url2": "https://www.kaigokensaku.mhlw.go.jp/03/index.php?action_kouhyou_detail_004_kani=true&JigyosyoCd=0370106627-00&ServiceCd=150&Type=search" }, "geometry": { "type": "Point", "coordinates": [ 141.108714700000064, 39.7360513 ] } },
{ "type": "Feature", "properties": { "内容": "なごみデイサービス【通所介護】岩手県盛岡市箱清水2丁目4-33", "url2": "https://www.kaigokensaku.mhlw.go.jp/03/index.php?action_kouhyou_detail_004_kani=true&JigyosyoCd=0370106783-00&ServiceCd=150&Type=search" }, "geometry": { "type": "Point", "coordinates": [ 141.131884799999966, 39.7319104 ] } },
{ "type": "Feature", "properties": { "内容": "シーキューブ【通所介護】岩手県盛岡市三本柳２３−６５−１", "url2": "https://www.kaigokensaku.mhlw.go.jp/03/index.php?action_kouhyou_detail_004_kani=true&JigyosyoCd=0370106932-00&ServiceCd=150&Type=search" }, "geometry": { "type": "Point", "coordinates": [ 141.16581013054963, 39.646723853010769 ] } },
{ "type": "Feature", "properties": { "内容": "デイサービス絆【通所介護】岩手県盛岡市東仙北2丁目4-26", "url2": "https://www.kaigokensaku.mhlw.go.jp/03/index.php?action_kouhyou_detail_004_kani=true&JigyosyoCd=0370107328-00&ServiceCd=150&Type=search" }, "geometry": { "type": "Point", "coordinates": [ 141.1565821, 39.6820223 ] } },
{ "type": "Feature", "properties": { "内容": "ツクイ盛岡【通所介護】岩手県盛岡市東黒石野二丁目１番５号", "url2": "https://www.kaigokensaku.mhlw.go.jp/03/index.php?action_kouhyou_detail_004_kani=true&JigyosyoCd=0370107427-00&ServiceCd=150&Type=search" }, "geometry": { "type": "Point", "coordinates": [ 141.152812, 39.7483588 ] } },
{ "type": "Feature", "properties": { "内容": "デイサービス縁（ゆかり）【通所介護】岩手県盛岡市上堂1丁目17番53号", "url2": "https://www.kaigokensaku.mhlw.go.jp/03/index.php?action_kouhyou_detail_004_kani=true&JigyosyoCd=0370107716-00&ServiceCd=150&Type=search" }, "geometry": { "type": "Point", "coordinates": [ 141.1216087, 39.724145 ] } },
{ "type": "Feature", "properties": { "内容": "デイサービスcafei5【通所介護】岩手県盛岡市みたけ三丁目23-3スペースMYAⅡ", "url2": "https://www.kaigokensaku.mhlw.go.jp/03/index.php?action_kouhyou_detail_004_kani=true&JigyosyoCd=0370107732-00&ServiceCd=150&Type=search" }, "geometry": { "type": "Point", "coordinates": [ 141.1150089, 39.7394191 ] } },
{ "type": "Feature", "properties": { "内容": "ほっとデイサービスみたけ【通所介護】岩手県盛岡市みたけ4丁目8番50号", "url2": "https://www.kaigokensaku.mhlw.go.jp/03/index.php?action_kouhyou_detail_004_kani=true&JigyosyoCd=0370108052-00&ServiceCd=150&Type=search" }, "geometry": { "type": "Point", "coordinates": [ 141.1199097, 39.7430156 ] } },
{ "type": "Feature", "properties": { "内容": "西青山地域支援センター【通所介護】岩手県盛岡市西青山三丁目４０番３９号", "url2": "https://www.kaigokensaku.mhlw.go.jp/03/index.php?action_kouhyou_detail_004_kani=true&JigyosyoCd=0370101628-00&ServiceCd=150&Type=search" }, "geometry": { "type": "Point", "coordinates": [ 141.100357300000042, 39.7282212 ] } },
{ "type": "Feature", "properties": { "内容": "ツクイ盛岡津志田【通所介護】岩手県盛岡市津志田中央三丁目26番60号", "url2": "https://www.kaigokensaku.mhlw.go.jp/03/index.php?action_kouhyou_detail_004_kani=true&JigyosyoCd=0370107435-00&ServiceCd=150&Type=search" }, "geometry": { "type": "Point", "coordinates": [ 141.1502066, 39.6618187 ] } },
{ "type": "Feature", "properties": { "内容": "メディコート安倍館通所介護事業所【通所介護】岩手県盛岡市安倍館町16-30メディコート安倍館", "url2": "https://www.kaigokensaku.mhlw.go.jp/03/index.php?action_kouhyou_detail_004_kani=true&JigyosyoCd=0370107112-00&ServiceCd=150&Type=search" }, "geometry": { "type": "Point", "coordinates": [ 141.126456741664128, 39.722345332801723 ] } },
{ "type": "Feature", "properties": { "内容": "めだかのデイ4号館【通所介護】岩手県盛岡市乙部30地割19番地1", "url2": "https://www.kaigokensaku.mhlw.go.jp/03/index.php?action_kouhyou_detail_004_kani=true&JigyosyoCd=0370108144-00&ServiceCd=150&Type=search" }, "geometry": { "type": "Point", "coordinates": [ 141.199436605171201, 39.605405409128899 ] } },
{ "type": "Feature", "properties": { "内容": "指定通所介護事業所都南あけぼの荘【通所介護】岩手県盛岡市湯沢４地割２５－１", "url2": "https://www.kaigokensaku.mhlw.go.jp/03/index.php?action_kouhyou_detail_004_kani=true&JigyosyoCd=0370100521-00&ServiceCd=150&Type=search" }, "geometry": { "type": "Point", "coordinates": [ 141.090272499999969, 39.6463688 ] } },
{ "type": "Feature", "properties": { "内容": "ケアガーデン高松公園デイサービスセンター【通所介護】岩手県盛岡市上田字毛無森２番地７", "url2": "https://www.kaigokensaku.mhlw.go.jp/03/index.php?action_kouhyou_detail_004_kani=true&JigyosyoCd=0370103368-00&ServiceCd=150&Type=search" }, "geometry": { "type": "Point", "coordinates": [ 141.145437, 39.729794 ] } },
{ "type": "Feature", "properties": { "内容": "デイサービスびごらすうえだ【通所介護】岩手県盛岡市上田4丁目5-27", "url2": "https://www.kaigokensaku.mhlw.go.jp/03/index.php?action_kouhyou_detail_004_kani=true&JigyosyoCd=0370106668-00&ServiceCd=150&Type=search" }, "geometry": { "type": "Point", "coordinates": [ 141.135003073759776, 39.720822917166323 ] } },
{ "type": "Feature", "properties": { "内容": "通所介護事業所「時の音」【通所介護】岩手県盛岡市大館町９番２号通所介護事業所「時の音」", "url2": "https://www.kaigokensaku.mhlw.go.jp/03/index.php?action_kouhyou_detail_004_kani=true&JigyosyoCd=0370107559-00&ServiceCd=150&Type=search" }, "geometry": { "type": "Point", "coordinates": [ 141.111987038623056, 39.716079332098317 ] } },
{ "type": "Feature", "properties": { "内容": "デイサービスセンターリハコートあおやま【通所介護】岩手県盛岡市青山1丁目2-13デイサービスセンターリハコートあおやま", "url2": "https://www.kaigokensaku.mhlw.go.jp/03/index.php?action_kouhyou_detail_004_kani=true&JigyosyoCd=0370107740-00&ServiceCd=150&Type=search" }, "geometry": { "type": "Point", "coordinates": [ 141.116536328836077, 39.720595247117046 ] } },
{ "type": "Feature", "properties": { "内容": "デイサービスセンターリハコートみるまえ【通所介護】岩手県盛岡市西見前14地割113番地1", "url2": "https://www.kaigokensaku.mhlw.go.jp/03/index.php?action_kouhyou_detail_004_kani=true&JigyosyoCd=0370107849-00&ServiceCd=150&Type=search" }, "geometry": { "type": "Point", "coordinates": [ 141.1681924, 39.6410299 ] } },
{ "type": "Feature", "properties": { "内容": "デイサービスはるかぜの綾【通所介護】岩手県盛岡市上堂3丁目16-18", "url2": "https://www.kaigokensaku.mhlw.go.jp/03/index.php?action_kouhyou_detail_004_kani=true&JigyosyoCd=0370105769-00&ServiceCd=150&Type=search" }, "geometry": { "type": "Point", "coordinates": [ 141.12891030000003, 39.7284357 ] } },
{ "type": "Feature", "properties": { "内容": "デイサービスはるかぜの碧【通所介護】岩手県盛岡市上堂４丁目2-80", "url2": "https://www.kaigokensaku.mhlw.go.jp/03/index.php?action_kouhyou_detail_004_kani=true&JigyosyoCd=0370107237-00&ServiceCd=150&Type=search" }, "geometry": { "type": "Point", "coordinates": [ 141.125368271966551, 39.730148293722088 ] } },
{ "type": "Feature", "properties": { "内容": "デイサービス観武公園【通所介護】岩手県盛岡市みたけ一丁目7番40号", "url2": "https://www.kaigokensaku.mhlw.go.jp/03/index.php?action_kouhyou_detail_004_kani=true&JigyosyoCd=0370106742-00&ServiceCd=150&Type=search" }, "geometry": { "type": "Point", "coordinates": [ 141.122313399999939, 39.7381709 ] } },
{ "type": "Feature", "properties": { "内容": "宮古市清寿荘デイサービスセンター【通所介護】岩手県宮古市津軽石第１４地割３８番地３", "url2": "https://www.kaigokensaku.mhlw.go.jp/03/index.php?action_kouhyou_detail_004_kani=true&JigyosyoCd=0370200263-00&ServiceCd=150&Type=search" }, "geometry": { "type": "Point", "coordinates": [ 141.927142739295959, 39.565446044451811 ] } },
{ "type": "Feature", "properties": { "内容": "宮古市社会福祉協議会むつわ荘デイサービス事業所【通所介護】岩手県宮古市川井第2地割165番地宮古市高齢者生活福祉センター「むつわ荘」", "url2": "https://www.kaigokensaku.mhlw.go.jp/03/index.php?action_kouhyou_detail_004_kani=true&JigyosyoCd=0370200594-00&ServiceCd=150&Type=search" }, "geometry": { "type": "Point", "coordinates": [ 141.678916399999906, 39.5994299 ] } },
{ "type": "Feature", "properties": { "内容": "かがやきデイサロン【通所介護】岩手県宮古市磯鶏西６番４号", "url2": "https://www.kaigokensaku.mhlw.go.jp/03/index.php?action_kouhyou_detail_004_kani=true&JigyosyoCd=0370200669-00&ServiceCd=150&Type=search" }, "geometry": { "type": "Point", "coordinates": [ 141.960333900000023, 39.6301078 ] } },
{ "type": "Feature", "properties": { "内容": "宮古市千徳デイサービスセンター【通所介護】岩手県宮古市千徳町5番37号", "url2": "https://www.kaigokensaku.mhlw.go.jp/03/index.php?action_kouhyou_detail_004_kani=true&JigyosyoCd=0370200982-00&ServiceCd=150&Type=search" }, "geometry": { "type": "Point", "coordinates": [ 141.919679099999939, 39.63367 ] } },
{ "type": "Feature", "properties": { "内容": "宮古市社会福祉協議会デイサービスセンター【通所介護】岩手県宮古市小山田二丁目9番20号", "url2": "https://www.kaigokensaku.mhlw.go.jp/03/index.php?action_kouhyou_detail_004_kani=true&JigyosyoCd=0370200099-00&ServiceCd=150&Type=search" }, "geometry": { "type": "Point", "coordinates": [ 141.9399439, 39.6349594 ] } },
{ "type": "Feature", "properties": { "内容": "ニチイケアセンター宮古【通所介護】岩手県宮古市太田一丁目2番3号", "url2": "https://www.kaigokensaku.mhlw.go.jp/03/index.php?action_kouhyou_detail_004_kani=true&JigyosyoCd=0370200065-00&ServiceCd=150&Type=search" }, "geometry": { "type": "Point", "coordinates": [ 141.92860040000005, 39.6385947 ] } },
{ "type": "Feature", "properties": { "内容": "指定通所介護事業所サンホームみやこ【通所介護】岩手県宮古市崎鍬ヶ崎第4地割1番地20", "url2": "https://www.kaigokensaku.mhlw.go.jp/03/index.php?action_kouhyou_detail_004_kani=true&JigyosyoCd=0370200123-00&ServiceCd=150&Type=search" }, "geometry": { "type": "Point", "coordinates": [ 141.951620600000069, 39.6597928 ] } },
{ "type": "Feature", "properties": { "内容": "ふれあい荘デイサービスセンター【通所介護】岩手県宮古市田老字養呂地6番地2", "url2": "https://www.kaigokensaku.mhlw.go.jp/03/index.php?action_kouhyou_detail_004_kani=true&JigyosyoCd=0373000512-00&ServiceCd=150&Type=search" }, "geometry": { "type": "Point", "coordinates": [ 141.93906990000005, 39.7308173 ] } },
{ "type": "Feature", "properties": { "内容": "ニチイケアセンター八木沢【通所介護】岩手県宮古市八木沢第4地割96-1", "url2": "https://www.kaigokensaku.mhlw.go.jp/03/index.php?action_kouhyou_detail_004_kani=true&JigyosyoCd=0370200784-00&ServiceCd=150&Type=search" }, "geometry": { "type": "Point", "coordinates": [ 141.9471049, 39.6185282 ] } },
{ "type": "Feature", "properties": { "内容": "リハビリ特化型デイサービス「ひまわり俱楽部」【通所介護】岩手県大船渡市大船渡町字山馬越196番地", "url2": "https://www.kaigokensaku.mhlw.go.jp/03/index.php?action_kouhyou_detail_004_kani=true&JigyosyoCd=0370300667-00&ServiceCd=150&Type=search" }, "geometry": { "type": "Point", "coordinates": [ 141.7113478, 39.0706142 ] } },
{ "type": "Feature", "properties": { "内容": "大船渡市デイサービスセンター【通所介護】岩手県大船渡市立根町字田ノ上３０番地２２", "url2": "https://www.kaigokensaku.mhlw.go.jp/03/index.php?action_kouhyou_detail_004_kani=true&JigyosyoCd=0370300071-00&ServiceCd=150&Type=search" }, "geometry": { "type": "Point", "coordinates": [ 141.717367299999978, 39.1021184 ] } },
{ "type": "Feature", "properties": { "内容": "大船渡市農業協同組合指定通所介護事業所立根（JAおおふなとデイサービスセンター立根）【通所介護】岩手県大船渡市立根町字関谷45番地１", "url2": "https://www.kaigokensaku.mhlw.go.jp/03/index.php?action_kouhyou_detail_004_kani=true&JigyosyoCd=0370300246-00&ServiceCd=150&Type=search" }, "geometry": { "type": "Point", "coordinates": [ 141.719998483467066, 39.114914876816208 ] } },
{ "type": "Feature", "properties": { "内容": "大船渡市農業協同組合指定通所介護事業所日頃市(JAおおふなとデイサービスセンター日頃市）【通所介護】岩手県大船渡市日頃市町字関谷45番地3", "url2": "https://www.kaigokensaku.mhlw.go.jp/03/index.php?action_kouhyou_detail_004_kani=true&JigyosyoCd=0370300386-00&ServiceCd=150&Type=search" }, "geometry": { "type": "Point", "coordinates": [ 141.672881700000062, 39.1261399 ] } },
{ "type": "Feature", "properties": { "内容": "丸森デイサービス【通所介護】岩手県大船渡市大船渡町字丸森15-1", "url2": "https://www.kaigokensaku.mhlw.go.jp/03/index.php?action_kouhyou_detail_004_kani=true&JigyosyoCd=0370300428-00&ServiceCd=150&Type=search" }, "geometry": { "type": "Point", "coordinates": [ 141.711481300000059, 39.0296908 ] } },
{ "type": "Feature", "properties": { "内容": "社会福祉法人花巻市社会福祉協議会指定矢沢通所介護事業所【通所介護】岩手県花巻市高松第３地割85番地1矢沢地域福祉センター", "url2": "https://www.kaigokensaku.mhlw.go.jp/03/index.php?action_kouhyou_detail_004_kani=true&JigyosyoCd=0370500175-00&ServiceCd=150&Type=search" }, "geometry": { "type": "Point", "coordinates": [ 141.15925249999998, 39.3913903 ] } },
{ "type": "Feature", "properties": { "内容": "花巻市社会福祉協議会指定西南通所介護事業所【通所介護】岩手県花巻市轟木7-188-1", "url2": "https://www.kaigokensaku.mhlw.go.jp/03/index.php?action_kouhyou_detail_004_kani=true&JigyosyoCd=0370500183-00&ServiceCd=150&Type=search" }, "geometry": { "type": "Point", "coordinates": [ 141.053001844494588, 39.361856819042579 ] } },
{ "type": "Feature", "properties": { "内容": "花巻市社会福祉協議会指定宮野目通所介護事業所【通所介護】岩手県花巻市西宮野目第６地割９７番地１", "url2": "https://www.kaigokensaku.mhlw.go.jp/03/index.php?action_kouhyou_detail_004_kani=true&JigyosyoCd=0370500191-00&ServiceCd=150&Type=search" }, "geometry": { "type": "Point", "coordinates": [ 141.127181599999972, 39.4265824 ] } },
{ "type": "Feature", "properties": { "内容": "花巻あすかの杜指定通所介護事業所【通所介護】岩手県花巻市天下田100番地1", "url2": "https://www.kaigokensaku.mhlw.go.jp/03/index.php?action_kouhyou_detail_004_kani=true&JigyosyoCd=0370501041-00&ServiceCd=150&Type=search" }, "geometry": { "type": "Point", "coordinates": [ 141.1076564, 39.4128057 ] } },
{ "type": "Feature", "properties": { "内容": "まちなかデイ【通所介護】岩手県花巻市上諏訪407番地", "url2": "https://www.kaigokensaku.mhlw.go.jp/03/index.php?action_kouhyou_detail_004_kani=true&JigyosyoCd=0370500704-00&ServiceCd=150&Type=search" }, "geometry": { "type": "Point", "coordinates": [ 141.104694399999971, 39.3761132 ] } },
{ "type": "Feature", "properties": { "内容": "シリウスケアセンターすわ【通所介護】岩手県花巻市南諏訪町4番8号", "url2": "https://www.kaigokensaku.mhlw.go.jp/03/index.php?action_kouhyou_detail_004_kani=true&JigyosyoCd=0370500886-00&ServiceCd=150&Type=search" }, "geometry": { "type": "Point", "coordinates": [ 141.102494900000011, 39.3685697 ] } },
{ "type": "Feature", "properties": { "内容": "デイサービスセンター花湯【通所介護】岩手県花巻市円万寺字中野40番地", "url2": "https://www.kaigokensaku.mhlw.go.jp/03/index.php?action_kouhyou_detail_004_kani=true&JigyosyoCd=0370501140-00&ServiceCd=150&Type=search" }, "geometry": { "type": "Point", "coordinates": [ 141.048201899999981, 39.3917908 ] } },
{ "type": "Feature", "properties": { "内容": "ニチイケアセンター花巻【通所介護】岩手県花巻市四日町三丁目21番40号", "url2": "https://www.kaigokensaku.mhlw.go.jp/03/index.php?action_kouhyou_detail_004_kani=true&JigyosyoCd=0370501181-00&ServiceCd=150&Type=search" }, "geometry": { "type": "Point", "coordinates": [ 141.122332899999947, 39.4007909 ] } },
{ "type": "Feature", "properties": { "内容": "デイサービスふくろうの里【通所介護】岩手県花巻市桜台2丁目24-30", "url2": "https://www.kaigokensaku.mhlw.go.jp/03/index.php?action_kouhyou_detail_004_kani=true&JigyosyoCd=0370501678-00&ServiceCd=150&Type=search" }, "geometry": { "type": "Point", "coordinates": [ 141.105790500000012, 39.3986463 ] } },
{ "type": "Feature", "properties": { "内容": "機能強化型デイサービスファントレふくろう【通所介護】岩手県花巻市桜台二丁目24-30", "url2": "https://www.kaigokensaku.mhlw.go.jp/03/index.php?action_kouhyou_detail_004_kani=true&JigyosyoCd=0370501991-00&ServiceCd=150&Type=search" }, "geometry": { "type": "Point", "coordinates": [ 141.1058237, 39.3986546 ] } },
{ "type": "Feature", "properties": { "内容": "東和荘デイサービスセンター指定通所介護事業所【通所介護】岩手県花巻市東和町東晴山7区13番地", "url2": "https://www.kaigokensaku.mhlw.go.jp/03/index.php?action_kouhyou_detail_004_kani=true&JigyosyoCd=0372400093-00&ServiceCd=150&Type=search" }, "geometry": { "type": "Point", "coordinates": [ 141.25218689999997, 39.3724972 ] } },
{ "type": "Feature", "properties": { "内容": "大谷荘デイサービスセンター指定通所介護事業所【通所介護】岩手県花巻市湯口字松原53番地1", "url2": "https://www.kaigokensaku.mhlw.go.jp/03/index.php?action_kouhyou_detail_004_kani=true&JigyosyoCd=0370500225-00&ServiceCd=150&Type=search" }, "geometry": { "type": "Point", "coordinates": [ 141.019934599999942, 39.4063854 ] } },
{ "type": "Feature", "properties": { "内容": "アイリス花巻デイサービスセンター指定通所介護事業所【通所介護】岩手県花巻市南万丁目970番地２", "url2": "https://www.kaigokensaku.mhlw.go.jp/03/index.php?action_kouhyou_detail_004_kani=true&JigyosyoCd=0370500282-00&ServiceCd=150&Type=search" }, "geometry": { "type": "Point", "coordinates": [ 141.0987083, 39.3912805 ] } },
{ "type": "Feature", "properties": { "内容": "デイサービスセンターピースハート石鳥谷【通所介護】岩手県花巻市石鳥谷町好地第３地割１８０番地１", "url2": "https://www.kaigokensaku.mhlw.go.jp/03/index.php?action_kouhyou_detail_004_kani=true&JigyosyoCd=0370501611-00&ServiceCd=150&Type=search" }, "geometry": { "type": "Point", "coordinates": [ 141.143952920129436, 39.495004419585754 ] } },
{ "type": "Feature", "properties": { "内容": "茶話本舗デイサービス石鳥谷【通所介護】岩手県花巻市石鳥谷町中寺林6-76-2", "url2": "https://www.kaigokensaku.mhlw.go.jp/03/index.php?action_kouhyou_detail_004_kani=true&JigyosyoCd=0370501686-00&ServiceCd=150&Type=search" }, "geometry": { "type": "Point", "coordinates": [ 141.140151, 39.483051 ] } },
{ "type": "Feature", "properties": { "内容": "デイサービス・きらら花北【通所介護】岩手県花巻市下幅5番1号", "url2": "https://www.kaigokensaku.mhlw.go.jp/03/index.php?action_kouhyou_detail_004_kani=true&JigyosyoCd=0370501801-00&ServiceCd=150&Type=search" }, "geometry": { "type": "Point", "coordinates": [ 141.1122623, 39.3977382 ] } },
{ "type": "Feature", "properties": { "内容": "リハビリ特化型デイサービスリハニック花巻【通所介護】岩手県花巻市西大通り1丁目14-9", "url2": "https://www.kaigokensaku.mhlw.go.jp/03/index.php?action_kouhyou_detail_004_kani=true&JigyosyoCd=0370501827-00&ServiceCd=150&Type=search" }, "geometry": { "type": "Point", "coordinates": [ 141.107795, 39.3905938 ] } },
{ "type": "Feature", "properties": { "内容": "花梨【通所介護】岩手県花巻市桜町一丁目２５８番１号", "url2": "https://www.kaigokensaku.mhlw.go.jp/03/index.php?action_kouhyou_detail_004_kani=true&JigyosyoCd=0370501868-00&ServiceCd=150&Type=search" }, "geometry": { "type": "Point", "coordinates": [ 141.1187426, 39.3763047 ] } },
{ "type": "Feature", "properties": { "内容": "デイサービス六花【通所介護】岩手県花巻市大畑1-24-2", "url2": "https://www.kaigokensaku.mhlw.go.jp/03/index.php?action_kouhyou_detail_004_kani=true&JigyosyoCd=0370501959-00&ServiceCd=150&Type=search" }, "geometry": { "type": "Point", "coordinates": [ 141.096179299999989, 39.448817 ] } },
{ "type": "Feature", "properties": { "内容": "いしどりや荘デイサービスセンター【通所介護】岩手県花巻市石鳥谷町好地第１４地割１０番地", "url2": "https://www.kaigokensaku.mhlw.go.jp/03/index.php?action_kouhyou_detail_004_kani=true&JigyosyoCd=0372300087-00&ServiceCd=150&Type=search" }, "geometry": { "type": "Point", "coordinates": [ 141.161151300000029, 39.5032076 ] } },
{ "type": "Feature", "properties": { "内容": "桐の里デイサービスセンター【通所介護】岩手県花巻市大迫町大迫第１１地割１番地９", "url2": "https://www.kaigokensaku.mhlw.go.jp/03/index.php?action_kouhyou_detail_004_kani=true&JigyosyoCd=0372300137-00&ServiceCd=150&Type=search" }, "geometry": { "type": "Point", "coordinates": [ 141.283486700000026, 39.4693338 ] } },
{ "type": "Feature", "properties": { "内容": "デイサービスほっと事業所【通所介護】岩手県花巻市石鳥谷町新堀53-15", "url2": "https://www.kaigokensaku.mhlw.go.jp/03/index.php?action_kouhyou_detail_004_kani=true&JigyosyoCd=0372300293-00&ServiceCd=150&Type=search" }, "geometry": { "type": "Point", "coordinates": [ 141.168590399999971, 39.4729277 ] } },
{ "type": "Feature", "properties": { "内容": "宝寿荘デイサービスセンター【通所介護】岩手県花巻市石鳥谷町一丁目3番地３", "url2": "https://www.kaigokensaku.mhlw.go.jp/03/index.php?action_kouhyou_detail_004_kani=true&JigyosyoCd=0372300301-00&ServiceCd=150&Type=search" }, "geometry": { "type": "Point", "coordinates": [ 141.157915499999945, 39.5016688 ] } },
{ "type": "Feature", "properties": { "内容": "八重畑デイサービスセンター【通所介護】岩手県花巻市石鳥谷町猪鼻第6地割32番地8", "url2": "https://www.kaigokensaku.mhlw.go.jp/03/index.php?action_kouhyou_detail_004_kani=true&JigyosyoCd=0372300335-00&ServiceCd=150&Type=search" }, "geometry": { "type": "Point", "coordinates": [ 141.175346399999967, 39.451022 ] } },
{ "type": "Feature", "properties": { "内容": "ＪＡいわて花巻デイサービスセンターグリーンホーム落合【通所介護】岩手県花巻市椚ノ目4地割99番地1", "url2": "https://www.kaigokensaku.mhlw.go.jp/03/index.php?action_kouhyou_detail_004_kani=true&JigyosyoCd=0370500381-00&ServiceCd=150&Type=search" }, "geometry": { "type": "Point", "coordinates": [ 141.086389199999985, 39.4215929 ] } },
{ "type": "Feature", "properties": { "内容": "横川目デイサービス長寿園【通所介護】岩手県北上市和賀町横川目13-3-3", "url2": "https://www.kaigokensaku.mhlw.go.jp/03/index.php?action_kouhyou_detail_004_kani=true&JigyosyoCd=0370600702-00&ServiceCd=150&Type=search" }, "geometry": { "type": "Point", "coordinates": [ 140.971132200000056, 39.3107909 ] } },
{ "type": "Feature", "properties": { "内容": "デイサービスセンターほっと東館【通所介護】岩手県北上市和賀町岩崎1地割１１４番地", "url2": "https://www.kaigokensaku.mhlw.go.jp/03/index.php?action_kouhyou_detail_004_kani=true&JigyosyoCd=0370600876-00&ServiceCd=150&Type=search" }, "geometry": { "type": "Point", "coordinates": [ 140.984980599999972, 39.2405856 ] } },
{ "type": "Feature", "properties": { "内容": "わがの里デイサービスセンター【通所介護】岩手県北上市下江釣子１０地割７４番３", "url2": "https://www.kaigokensaku.mhlw.go.jp/03/index.php?action_kouhyou_detail_004_kani=true&JigyosyoCd=0370600066-00&ServiceCd=150&Type=search" }, "geometry": { "type": "Point", "coordinates": [ 141.038326899999987, 39.2953481 ] } },
{ "type": "Feature", "properties": { "内容": "敬愛園デイサービスセンター【通所介護】岩手県北上市大堤西一丁目３番１２号", "url2": "https://www.kaigokensaku.mhlw.go.jp/03/index.php?action_kouhyou_detail_004_kani=true&JigyosyoCd=0370600140-00&ServiceCd=150&Type=search" }, "geometry": { "type": "Point", "coordinates": [ 141.098398095106546, 39.264540825265279 ] } },
{ "type": "Feature", "properties": { "内容": "デイサービスセンターいいとよ【通所介護】岩手県北上市村崎野１２地割７４番地１８", "url2": "https://www.kaigokensaku.mhlw.go.jp/03/index.php?action_kouhyou_detail_004_kani=true&JigyosyoCd=0370600330-00&ServiceCd=150&Type=search" }, "geometry": { "type": "Point", "coordinates": [ 141.099293499999931, 39.3320901 ] } },
{ "type": "Feature", "properties": { "内容": "ニチイケアセンター北上中央【通所介護】岩手県北上市上野町三丁目21番19号", "url2": "https://www.kaigokensaku.mhlw.go.jp/03/index.php?action_kouhyou_detail_004_kani=true&JigyosyoCd=0370600454-00&ServiceCd=150&Type=search" }, "geometry": { "type": "Point", "coordinates": [ 141.123681, 39.3081735 ] } },
{ "type": "Feature", "properties": { "内容": "デイサービスセンター常盤台【通所介護】岩手県北上市常盤台四丁目７番２８号", "url2": "https://www.kaigokensaku.mhlw.go.jp/03/index.php?action_kouhyou_detail_004_kani=true&JigyosyoCd=0370600470-00&ServiceCd=150&Type=search" }, "geometry": { "type": "Point", "coordinates": [ 141.110796, 39.3070373 ] } },
{ "type": "Feature", "properties": { "内容": "ニチイケアセンター北上【通所介護】岩手県北上市青柳町1丁目2番40号", "url2": "https://www.kaigokensaku.mhlw.go.jp/03/index.php?action_kouhyou_detail_004_kani=true&JigyosyoCd=0370600629-00&ServiceCd=150&Type=search" }, "geometry": { "type": "Point", "coordinates": [ 141.121681800000033, 39.2846288 ] } },
{ "type": "Feature", "properties": { "内容": "北星荘デイサービスセンター【通所介護】岩手県北上市下鬼柳１７地割１２７番地５", "url2": "https://www.kaigokensaku.mhlw.go.jp/03/index.php?action_kouhyou_detail_004_kani=true&JigyosyoCd=0370600942-00&ServiceCd=150&Type=search" }, "geometry": { "type": "Point", "coordinates": [ 141.089785300000017, 39.2675327 ] } },
{ "type": "Feature", "properties": { "内容": "デイサービスコスモス【通所介護】岩手県北上市大通四丁目1-10", "url2": "https://www.kaigokensaku.mhlw.go.jp/03/index.php?action_kouhyou_detail_004_kani=true&JigyosyoCd=0370601619-00&ServiceCd=150&Type=search" }, "geometry": { "type": "Point", "coordinates": [ 141.108755200000019, 39.2853647 ] } },
{ "type": "Feature", "properties": { "内容": "デイサービスシャイン【通所介護】岩手県北上市和賀町藤根1地割15番209デイサービスシャイン", "url2": "https://www.kaigokensaku.mhlw.go.jp/03/index.php?action_kouhyou_detail_004_kani=true&JigyosyoCd=0370601791-00&ServiceCd=150&Type=search" }, "geometry": { "type": "Point", "coordinates": [ 141.0078284, 39.31899 ] } },
{ "type": "Feature", "properties": { "内容": "通所介護なごみ【通所介護】岩手県北上市黒沢尻4丁目8-20", "url2": "https://www.kaigokensaku.mhlw.go.jp/03/index.php?action_kouhyou_detail_004_kani=true&JigyosyoCd=0370601502-00&ServiceCd=150&Type=search" }, "geometry": { "type": "Point", "coordinates": [ 141.13682730000005, 39.296925 ] } },
{ "type": "Feature", "properties": { "内容": "デイサービスきたえる～む北上中央【通所介護】岩手県北上市北鬼柳18地割50番地1", "url2": "https://www.kaigokensaku.mhlw.go.jp/03/index.php?action_kouhyou_detail_004_kani=true&JigyosyoCd=0370601643-00&ServiceCd=150&Type=search" }, "geometry": { "type": "Point", "coordinates": [ 141.098113895810798, 39.293481356340287 ] } },
{ "type": "Feature", "properties": { "内容": "デイサービスセンターさくら爽【通所介護】岩手県北上市さくら通り3丁目7-7", "url2": "https://www.kaigokensaku.mhlw.go.jp/03/index.php?action_kouhyou_detail_004_kani=true&JigyosyoCd=0370601684-00&ServiceCd=150&Type=search" }, "geometry": { "type": "Point", "coordinates": [ 141.1179227, 39.2967955 ] } },
{ "type": "Feature", "properties": { "内容": "ツクイ北上【通所介護】岩手県北上市本石町2-1-41", "url2": "https://www.kaigokensaku.mhlw.go.jp/03/index.php?action_kouhyou_detail_004_kani=true&JigyosyoCd=0370601759-00&ServiceCd=150&Type=search" }, "geometry": { "type": "Point", "coordinates": [ 141.117165711131321, 39.29136575488743 ] } },
{ "type": "Feature", "properties": { "内容": "八天の里デイサービスセンター【通所介護】岩手県北上市更木３４－３２０－１", "url2": "https://www.kaigokensaku.mhlw.go.jp/03/index.php?action_kouhyou_detail_004_kani=true&JigyosyoCd=0370600157-00&ServiceCd=150&Type=search" }, "geometry": { "type": "Point", "coordinates": [ 141.1586049, 39.3302467 ] } },
{ "type": "Feature", "properties": { "内容": "エスカールデイサービスセンター【通所介護】岩手県北上市立花10地割38番地", "url2": "https://www.kaigokensaku.mhlw.go.jp/03/index.php?action_kouhyou_detail_004_kani=true&JigyosyoCd=0370600199-00&ServiceCd=150&Type=search" }, "geometry": { "type": "Point", "coordinates": [ 141.132772599999953, 39.2818017 ] } },
{ "type": "Feature", "properties": { "内容": "コンパスウオーク北上鬼柳【通所介護】岩手県北上市鬼柳町古川83番2", "url2": "https://www.kaigokensaku.mhlw.go.jp/03/index.php?action_kouhyou_detail_004_kani=true&JigyosyoCd=0370601767-00&ServiceCd=150&Type=search" }, "geometry": { "type": "Point", "coordinates": [ 141.115049, 39.2715702 ] } },
{ "type": "Feature", "properties": { "内容": "デイサービスセンターつどい【通所介護】岩手県北上市諏訪町二丁目5番1号", "url2": "https://www.kaigokensaku.mhlw.go.jp/03/index.php?action_kouhyou_detail_004_kani=true&JigyosyoCd=0370600660-00&ServiceCd=150&Type=search" }, "geometry": { "type": "Point", "coordinates": [ 141.1184654, 39.2869507 ] } },
{ "type": "Feature", "properties": { "内容": "老人デイサービスセンター「ポルト」【通所介護】岩手県久慈市長内町第40地割12番地3", "url2": "https://www.kaigokensaku.mhlw.go.jp/03/index.php?action_kouhyou_detail_004_kani=true&JigyosyoCd=0370700544-00&ServiceCd=150&Type=search" }, "geometry": { "type": "Point", "coordinates": [ 141.792081199999956, 40.196282 ] } },
{ "type": "Feature", "properties": { "内容": "通所介護事業所まごころの家【通所介護】岩手県久慈市長内町２９－６－６住宅型有料老人ホームまごころの家内", "url2": "https://www.kaigokensaku.mhlw.go.jp/03/index.php?action_kouhyou_detail_004_kani=true&JigyosyoCd=0370700643-00&ServiceCd=150&Type=search" }, "geometry": { "type": "Point", "coordinates": [ 141.7764244, 40.1860831 ] } },
{ "type": "Feature", "properties": { "内容": "愛山荘デイサービスセンター【通所介護】岩手県久慈市山形町川井12-60-2", "url2": "https://www.kaigokensaku.mhlw.go.jp/03/index.php?action_kouhyou_detail_004_kani=true&JigyosyoCd=0373100247-00&ServiceCd=150&Type=search" }, "geometry": { "type": "Point", "coordinates": [ 141.569232199999988, 40.1451733 ] } },
{ "type": "Feature", "properties": { "内容": "ファミリーサポートおひさま【通所介護】岩手県久慈市栄町第32地割35番地1", "url2": "https://www.kaigokensaku.mhlw.go.jp/03/index.php?action_kouhyou_detail_004_kani=true&JigyosyoCd=0370700270-00&ServiceCd=150&Type=search" }, "geometry": { "type": "Point", "coordinates": [ 141.759543986820631, 40.195878781870775 ] } },
{ "type": "Feature", "properties": { "内容": "元気の泉デイサービスセンター【通所介護】岩手県久慈市旭町第８地割100番地１", "url2": "https://www.kaigokensaku.mhlw.go.jp/03/index.php?action_kouhyou_detail_004_kani=true&JigyosyoCd=0370700346-00&ServiceCd=150&Type=search" }, "geometry": { "type": "Point", "coordinates": [ 141.774506928172286, 40.199649137230992 ] } },
{ "type": "Feature", "properties": { "内容": "ふれあいホーム薬研淵【通所介護】岩手県遠野市松崎町白岩字薬研淵4番地１", "url2": "https://www.kaigokensaku.mhlw.go.jp/03/index.php?action_kouhyou_detail_004_kani=true&JigyosyoCd=0370800070-00&ServiceCd=150&Type=search" }, "geometry": { "type": "Point", "coordinates": [ 141.537177, 39.3439332 ] } },
{ "type": "Feature", "properties": { "内容": "ふれあいホーム小友【通所介護】岩手県遠野市小友町33地割5番地1", "url2": "https://www.kaigokensaku.mhlw.go.jp/03/index.php?action_kouhyou_detail_004_kani=true&JigyosyoCd=0370800104-00&ServiceCd=150&Type=search" }, "geometry": { "type": "Point", "coordinates": [ 141.422359977909906, 39.271449616648624 ] } },
{ "type": "Feature", "properties": { "内容": "ふれあいホーム上郷【通所介護】岩手県遠野市上郷町細越7地割5番地", "url2": "https://www.kaigokensaku.mhlw.go.jp/03/index.php?action_kouhyou_detail_004_kani=true&JigyosyoCd=0370800146-00&ServiceCd=150&Type=search" }, "geometry": { "type": "Point", "coordinates": [ 141.592436769940633, 39.284511014774566 ] } },
{ "type": "Feature", "properties": { "内容": "老人デイサービスセンター長寿園【通所介護】岩手県遠野市松崎町白岩18-7", "url2": "https://www.kaigokensaku.mhlw.go.jp/03/index.php?action_kouhyou_detail_004_kani=true&JigyosyoCd=0370800179-00&ServiceCd=150&Type=search" }, "geometry": { "type": "Point", "coordinates": [ 141.54899037534841, 39.333262582622304 ] } },
{ "type": "Feature", "properties": { "内容": "デイサービスセンター長寿の森踊鹿【通所介護】岩手県遠野市青笹町糠前9-7-67", "url2": "https://www.kaigokensaku.mhlw.go.jp/03/index.php?action_kouhyou_detail_004_kani=true&JigyosyoCd=0370800237-00&ServiceCd=150&Type=search" }, "geometry": { "type": "Point", "coordinates": [ 141.558236599999987, 39.3350016 ] } },
{ "type": "Feature", "properties": { "内容": "株式会社工房ＺＥＲＯ介護事業部デイサービスセンター風音【通所介護】岩手県遠野市綾織町新里15地割12番地１", "url2": "https://www.kaigokensaku.mhlw.go.jp/03/index.php?action_kouhyou_detail_004_kani=true&JigyosyoCd=0370800492-00&ServiceCd=150&Type=search" }, "geometry": { "type": "Point", "coordinates": [ 141.480415350926251, 39.330024804637553 ] } },
{ "type": "Feature", "properties": { "内容": "かいご予防センターゆうゆうタウン五十人町【通所介護】岩手県一関市五十人町５８－１", "url2": "https://www.kaigokensaku.mhlw.go.jp/03/index.php?action_kouhyou_detail_004_kani=true&JigyosyoCd=0370901225-00&ServiceCd=150&Type=search" }, "geometry": { "type": "Point", "coordinates": [ 141.142360300000064, 38.9302884 ] } },
{ "type": "Feature", "properties": { "内容": "クラリス機能訓練特化型デイサービス【通所介護】岩手県一関市上大槻街5番16号", "url2": "https://www.kaigokensaku.mhlw.go.jp/03/index.php?action_kouhyou_detail_004_kani=true&JigyosyoCd=0370902223-00&ServiceCd=150&Type=search" }, "geometry": { "type": "Point", "coordinates": [ 141.138759, 38.929773 ] } },
{ "type": "Feature", "properties": { "内容": "室蓬デイサービスセンター【通所介護】岩手県一関市大東町摺沢字菅生前６１番地３２", "url2": "https://www.kaigokensaku.mhlw.go.jp/03/index.php?action_kouhyou_detail_004_kani=true&JigyosyoCd=0370901126-00&ServiceCd=150&Type=search" }, "geometry": { "type": "Point", "coordinates": [ 141.334092, 39.0076087 ] } },
{ "type": "Feature", "properties": { "内容": "デイサービスセンターひより【通所介護】岩手県一関市大東町沖田字峯岸５番地", "url2": "https://www.kaigokensaku.mhlw.go.jp/03/index.php?action_kouhyou_detail_004_kani=true&JigyosyoCd=0370901340-00&ServiceCd=150&Type=search" }, "geometry": { "type": "Point", "coordinates": [ 141.344941288360587, 39.041576646024794 ] } },
{ "type": "Feature", "properties": { "内容": "デイサービス舞乃湯【通所介護】岩手県一関市花泉町花泉字松沢235", "url2": "https://www.kaigokensaku.mhlw.go.jp/03/index.php?action_kouhyou_detail_004_kani=true&JigyosyoCd=0370902264-00&ServiceCd=150&Type=search" }, "geometry": { "type": "Point", "coordinates": [ 141.1678025, 38.8383519 ] } },
{ "type": "Feature", "properties": { "内容": "いこいデイサービスセンター【通所介護】岩手県一関市三関字仲田100", "url2": "https://www.kaigokensaku.mhlw.go.jp/03/index.php?action_kouhyou_detail_004_kani=true&JigyosyoCd=0370900508-00&ServiceCd=150&Type=search" }, "geometry": { "type": "Point", "coordinates": [ 141.152548300000035, 38.9274363 ] } },
{ "type": "Feature", "properties": { "内容": "福光園デイサービスセンター老楽園【通所介護】岩手県一関市萩荘字大袋306-1", "url2": "https://www.kaigokensaku.mhlw.go.jp/03/index.php?action_kouhyou_detail_004_kani=true&JigyosyoCd=0370900623-00&ServiceCd=150&Type=search" }, "geometry": { "type": "Point", "coordinates": [ 141.078913, 38.9377412 ] } },
{ "type": "Feature", "properties": { "内容": "ラポール・テトラ通所介護事業所【通所介護】岩手県一関市萩荘字境ノ神112-2", "url2": "https://www.kaigokensaku.mhlw.go.jp/03/index.php?action_kouhyou_detail_004_kani=true&JigyosyoCd=0370901878-00&ServiceCd=150&Type=search" }, "geometry": { "type": "Point", "coordinates": [ 141.0920046, 38.917869 ] } },
{ "type": "Feature", "properties": { "内容": "いこいリハトレセンターげんき【通所介護】岩手県一関市山目字中野32番地1", "url2": "https://www.kaigokensaku.mhlw.go.jp/03/index.php?action_kouhyou_detail_004_kani=true&JigyosyoCd=0370901969-00&ServiceCd=150&Type=search" }, "geometry": { "type": "Point", "coordinates": [ 141.117492299999981, 38.935234 ] } },
{ "type": "Feature", "properties": { "内容": "デイサービスゆかり【通所介護】岩手県一関市大町2-48", "url2": "https://www.kaigokensaku.mhlw.go.jp/03/index.php?action_kouhyou_detail_004_kani=true&JigyosyoCd=0370901183-00&ServiceCd=150&Type=search" }, "geometry": { "type": "Point", "coordinates": [ 141.135477600000058, 38.927558 ] } },
{ "type": "Feature", "properties": { "内容": "デイサービスつれづれ【通所介護】岩手県一関市千厩町千厩字古ヶ口90番地7", "url2": "https://www.kaigokensaku.mhlw.go.jp/03/index.php?action_kouhyou_detail_004_kani=true&JigyosyoCd=0370901365-00&ServiceCd=150&Type=search" }, "geometry": { "type": "Point", "coordinates": [ 141.328857500000026, 38.9140858 ] } },
{ "type": "Feature", "properties": { "内容": "JAいわて平泉デイサービスセンターいわいの丘【通所介護】岩手県一関市千厩町千厩字境田１５３－１２", "url2": "https://www.kaigokensaku.mhlw.go.jp/03/index.php?action_kouhyou_detail_004_kani=true&JigyosyoCd=0370901514-00&ServiceCd=150&Type=search" }, "geometry": { "type": "Point", "coordinates": [ 141.327417800000035, 38.9297088 ] } },
{ "type": "Feature", "properties": { "内容": "ＪＡいわて平泉デイサービスセンターもちっこ【通所介護】岩手県一関市真柴字原下４番１", "url2": "https://www.kaigokensaku.mhlw.go.jp/03/index.php?action_kouhyou_detail_004_kani=true&JigyosyoCd=0370901548-00&ServiceCd=150&Type=search" }, "geometry": { "type": "Point", "coordinates": [ 141.130573008212309, 38.907394921497634 ] } },
{ "type": "Feature", "properties": { "内容": "孝養ハイツデイサービスセンター通所介護事業所【通所介護】岩手県一関市室根町折壁字八幡沖１１９", "url2": "https://www.kaigokensaku.mhlw.go.jp/03/index.php?action_kouhyou_detail_004_kani=true&JigyosyoCd=0372700278-00&ServiceCd=150&Type=search" }, "geometry": { "type": "Point", "coordinates": [ 141.440941599999974, 38.935289 ] } },
{ "type": "Feature", "properties": { "内容": "寿松苑デイサービスセンター【通所介護】岩手県一関市川崎町薄衣字久伝26番地", "url2": "https://www.kaigokensaku.mhlw.go.jp/03/index.php?action_kouhyou_detail_004_kani=true&JigyosyoCd=0372700377-00&ServiceCd=150&Type=search" }, "geometry": { "type": "Point", "coordinates": [ 141.274171499999966, 38.9003654 ] } },
{ "type": "Feature", "properties": { "内容": "千厩寿慶会指定通所介護事業所【通所介護】岩手県一関市千厩町千厩字脇谷28番地８", "url2": "https://www.kaigokensaku.mhlw.go.jp/03/index.php?action_kouhyou_detail_004_kani=true&JigyosyoCd=0372700740-00&ServiceCd=150&Type=search" }, "geometry": { "type": "Point", "coordinates": [ 141.325396500000011, 38.9175742 ] } },
{ "type": "Feature", "properties": { "内容": "関生園デイサービスセンター【通所介護】岩手県一関市真柴字はの木立43-124", "url2": "https://www.kaigokensaku.mhlw.go.jp/03/index.php?action_kouhyou_detail_004_kani=true&JigyosyoCd=0370900102-00&ServiceCd=150&Type=search" }, "geometry": { "type": "Point", "coordinates": [ 141.142575699999952, 38.8776864 ] } },
{ "type": "Feature", "properties": { "内容": "明生園デイサービスセンター【通所介護】岩手県一関市滝沢字寺下２番地１", "url2": "https://www.kaigokensaku.mhlw.go.jp/03/index.php?action_kouhyou_detail_004_kani=true&JigyosyoCd=0370900201-00&ServiceCd=150&Type=search" }, "geometry": { "type": "Point", "coordinates": [ 141.1798576, 38.906087 ] } },
{ "type": "Feature", "properties": { "内容": "ニチイケアセンター一関【通所介護】岩手県一関市青葉二丁目7-26", "url2": "https://www.kaigokensaku.mhlw.go.jp/03/index.php?action_kouhyou_detail_004_kani=true&JigyosyoCd=0370900375-00&ServiceCd=150&Type=search" }, "geometry": { "type": "Point", "coordinates": [ 141.128053200000068, 38.9324044 ] } },
{ "type": "Feature", "properties": { "内容": "ツクイ山目【通所介護】岩手県一関市赤荻字月町191番地2", "url2": "https://www.kaigokensaku.mhlw.go.jp/03/index.php?action_kouhyou_detail_004_kani=true&JigyosyoCd=0370901985-00&ServiceCd=150&Type=search" }, "geometry": { "type": "Point", "coordinates": [ 141.104991994477444, 38.938989666280683 ] } },
{ "type": "Feature", "properties": { "内容": "ツクイ一関【通所介護】岩手県一関市東五代6番30号", "url2": "https://www.kaigokensaku.mhlw.go.jp/03/index.php?action_kouhyou_detail_004_kani=true&JigyosyoCd=0370901993-00&ServiceCd=150&Type=search" }, "geometry": { "type": "Point", "coordinates": [ 141.130752, 38.9407697 ] } },
{ "type": "Feature", "properties": { "内容": "デイサービスセンターソエル花泉【通所介護】岩手県一関市花泉町涌津字一ノ町７６番地", "url2": "https://www.kaigokensaku.mhlw.go.jp/03/index.php?action_kouhyou_detail_004_kani=true&JigyosyoCd=0372600114-00&ServiceCd=150&Type=search" }, "geometry": { "type": "Point", "coordinates": [ 141.1853271, 38.8308767 ] } },
{ "type": "Feature", "properties": { "内容": "にこにこプラザひがしやまデイサービスセンター【通所介護】一関市東山町長坂字北磐井里１８７－３", "url2": "https://www.kaigokensaku.mhlw.go.jp/03/index.php?action_kouhyou_detail_004_kani=true&JigyosyoCd=0370901118-00&ServiceCd=150&Type=search" }, "geometry": { "type": "Point", "coordinates": [ 141.261657199999945, 39.0106112 ] } },
{ "type": "Feature", "properties": { "内容": "デイサービスセンター興田【通所介護】岩手県一関市大東町鳥海字細田３４番地１", "url2": "https://www.kaigokensaku.mhlw.go.jp/03/index.php?action_kouhyou_detail_004_kani=true&JigyosyoCd=0372700138-00&ServiceCd=150&Type=search" }, "geometry": { "type": "Point", "coordinates": [ 141.3679651, 39.0505957 ] } },
{ "type": "Feature", "properties": { "内容": "デイサービスセンター大東【通所介護】岩手県一関市大東町大原字川内５番地２", "url2": "https://www.kaigokensaku.mhlw.go.jp/03/index.php?action_kouhyou_detail_004_kani=true&JigyosyoCd=0372700146-00&ServiceCd=150&Type=search" }, "geometry": { "type": "Point", "coordinates": [ 141.399222, 39.0174861 ] } },
{ "type": "Feature", "properties": { "内容": "デイサービスセンター東山【通所介護】岩手県一関市東山町長坂字西本町139番地1", "url2": "https://www.kaigokensaku.mhlw.go.jp/03/index.php?action_kouhyou_detail_004_kani=true&JigyosyoCd=0372700245-00&ServiceCd=150&Type=search" }, "geometry": { "type": "Point", "coordinates": [ 141.252153, 38.9955071 ] } },
{ "type": "Feature", "properties": { "内容": "にこにこプラザだいとうデイサービスセンター【通所介護】岩手県一関市大東町猿沢字板倉６０－１", "url2": "https://www.kaigokensaku.mhlw.go.jp/03/index.php?action_kouhyou_detail_004_kani=true&JigyosyoCd=0372700633-00&ServiceCd=150&Type=search" }, "geometry": { "type": "Point", "coordinates": [ 141.294608899999957, 39.034001 ] } },
{ "type": "Feature", "properties": { "内容": "あづま野デイサービス【通所介護】岩手県一関市大東町大原字立町113番地2", "url2": "https://www.kaigokensaku.mhlw.go.jp/03/index.php?action_kouhyou_detail_004_kani=true&JigyosyoCd=0370900672-00&ServiceCd=150&Type=search" }, "geometry": { "type": "Point", "coordinates": [ 141.396885514208179, 39.016132649577472 ] } },
{ "type": "Feature", "properties": { "内容": "デイサービスセンターひまわり【通所介護】岩手県一関市赤荻字月町17", "url2": "https://www.kaigokensaku.mhlw.go.jp/03/index.php?action_kouhyou_detail_004_kani=true&JigyosyoCd=0370900581-00&ServiceCd=150&Type=search" }, "geometry": { "type": "Point", "coordinates": [ 141.105613299999959, 38.9399612 ] } },
{ "type": "Feature", "properties": { "内容": "デイサービスセンターペルシモン一関【通所介護】岩手県一関市石畑6番10号", "url2": "https://www.kaigokensaku.mhlw.go.jp/03/index.php?action_kouhyou_detail_004_kani=true&JigyosyoCd=0370901027-00&ServiceCd=150&Type=search" }, "geometry": { "type": "Point", "coordinates": [ 141.133595834402627, 38.938430489593358 ] } },
{ "type": "Feature", "properties": { "内容": "ふじさわデイサービスセンター【通所介護】岩手県一関市藤沢町藤沢字町裏55番地", "url2": "https://www.kaigokensaku.mhlw.go.jp/03/index.php?action_kouhyou_detail_004_kani=true&JigyosyoCd=0370901233-00&ServiceCd=150&Type=search" }, "geometry": { "type": "Point", "coordinates": [ 141.349858499999982, 38.859251 ] } },
{ "type": "Feature", "properties": { "内容": "デイサービスセンター白藤【通所介護】岩手県一関市藤沢町藤沢字八沢262番地1", "url2": "https://www.kaigokensaku.mhlw.go.jp/03/index.php?action_kouhyou_detail_004_kani=true&JigyosyoCd=0370901563-00&ServiceCd=150&Type=search" }, "geometry": { "type": "Point", "coordinates": [ 141.349064399999946, 38.8501602 ] } },
{ "type": "Feature", "properties": { "内容": "デイサービスあゆみ【通所介護】岩手県一関市中里字荒谷8番1", "url2": "https://www.kaigokensaku.mhlw.go.jp/03/index.php?action_kouhyou_detail_004_kani=true&JigyosyoCd=0370901712-00&ServiceCd=150&Type=search" }, "geometry": { "type": "Point", "coordinates": [ 141.150850816687921, 38.937402633147855 ] } },
{ "type": "Feature", "properties": { "内容": "デイサービス晴れるや【通所介護】岩手県一関市中里字雲南３０", "url2": "https://www.kaigokensaku.mhlw.go.jp/03/index.php?action_kouhyou_detail_004_kani=true&JigyosyoCd=0370902066-00&ServiceCd=150&Type=search" }, "geometry": { "type": "Point", "coordinates": [ 141.1461248, 38.9387875 ] } },
{ "type": "Feature", "properties": { "内容": "デイサービスセンターさくら館【通所介護】岩手県一関市花泉町涌津字下原134-1", "url2": "https://www.kaigokensaku.mhlw.go.jp/03/index.php?action_kouhyou_detail_004_kani=true&JigyosyoCd=0370900953-00&ServiceCd=150&Type=search" }, "geometry": { "type": "Point", "coordinates": [ 141.1897854, 38.8228253 ] } },
{ "type": "Feature", "properties": { "内容": "高寿園デイサービスセンター指定通所介護事業所【通所介護】岩手県陸前高田市高田町字東和野67番地", "url2": "https://www.kaigokensaku.mhlw.go.jp/03/index.php?action_kouhyou_detail_004_kani=true&JigyosyoCd=0371000043-00&ServiceCd=150&Type=search" }, "geometry": { "type": "Point", "coordinates": [ 141.639076899999964, 39.0221729 ] } },
{ "type": "Feature", "properties": { "内容": "東部デイサービスセンター指定通所介護事業所【通所介護】岩手県陸前高田市小友町字財当98番地", "url2": "https://www.kaigokensaku.mhlw.go.jp/03/index.php?action_kouhyou_detail_004_kani=true&JigyosyoCd=0371000050-00&ServiceCd=150&Type=search" }, "geometry": { "type": "Point", "coordinates": [ 141.703027499999962, 38.9937418 ] } },
{ "type": "Feature", "properties": { "内容": "ReBornリボーン【通所介護】岩手県陸前高田市高田町字館の沖303番地1アバッセタカタ専門店街", "url2": "https://www.kaigokensaku.mhlw.go.jp/03/index.php?action_kouhyou_detail_004_kani=true&JigyosyoCd=0371000415-00&ServiceCd=150&Type=search" }, "geometry": { "type": "Point", "coordinates": [ 141.629096990737906, 39.016992199703729 ] } },
{ "type": "Feature", "properties": { "内容": "五葉寮いきいきデイサービスセンター【通所介護】岩手県釜石市鵜住居町第2地割20番地1", "url2": "https://www.kaigokensaku.mhlw.go.jp/03/index.php?action_kouhyou_detail_004_kani=true&JigyosyoCd=0371100314-00&ServiceCd=150&Type=search" }, "geometry": { "type": "Point", "coordinates": [ 141.847780935142964, 39.34460403577593 ] } },
{ "type": "Feature", "properties": { "内容": "やまざき機能訓練デイサービスホーム【通所介護】岩手県釜石市鵜住居町25-10-9", "url2": "https://www.kaigokensaku.mhlw.go.jp/03/index.php?action_kouhyou_detail_004_kani=true&JigyosyoCd=0371100462-00&ServiceCd=150&Type=search" }, "geometry": { "type": "Point", "coordinates": [ 141.8852154, 39.3205324 ] } },
{ "type": "Feature", "properties": { "内容": "あいぜんの里デイサービスセンター【通所介護】岩手県釜石市大字平田第2地割51番地7", "url2": "https://www.kaigokensaku.mhlw.go.jp/03/index.php?action_kouhyou_detail_004_kani=true&JigyosyoCd=0371100132-00&ServiceCd=150&Type=search" }, "geometry": { "type": "Point", "coordinates": [ 141.871835799999985, 39.2429889 ] } },
{ "type": "Feature", "properties": { "内容": "ニチイケアセンター釜石【通所介護】岩手県釜石市中妻町1-12-2", "url2": "https://www.kaigokensaku.mhlw.go.jp/03/index.php?action_kouhyou_detail_004_kani=true&JigyosyoCd=0371100298-00&ServiceCd=150&Type=search" }, "geometry": { "type": "Point", "coordinates": [ 141.860040799999979, 39.2718438 ] } },
{ "type": "Feature", "properties": { "内容": "アミーガはまゆりデイサービスセンター【通所介護】岩手県釜石市小佐野町三丁目９番５０号", "url2": "https://www.kaigokensaku.mhlw.go.jp/03/index.php?action_kouhyou_detail_004_kani=true&JigyosyoCd=0371100397-00&ServiceCd=150&Type=search" }, "geometry": { "type": "Point", "coordinates": [ 141.837807099999964, 39.2630666 ] } },
{ "type": "Feature", "properties": { "内容": "医療法人晃生会釜石リハビリセンター【通所介護】岩手県釜石市八雲町2-12", "url2": "https://www.kaigokensaku.mhlw.go.jp/03/index.php?action_kouhyou_detail_004_kani=true&JigyosyoCd=0371100876-00&ServiceCd=150&Type=search" }, "geometry": { "type": "Point", "coordinates": [ 141.8555887, 39.2715609 ] } },
{ "type": "Feature", "properties": { "内容": "仙人の里指定通所介護事業所【通所介護】岩手県釜石市甲子町第7地割144番地4", "url2": "https://www.kaigokensaku.mhlw.go.jp/03/index.php?action_kouhyou_detail_004_kani=true&JigyosyoCd=0371100058-00&ServiceCd=150&Type=search" }, "geometry": { "type": "Point", "coordinates": [ 141.782285209570546, 39.254756384837854 ] } },
{ "type": "Feature", "properties": { "内容": "デイサービスセンターさくら【通所介護】岩手県釜石市甲子町第10地割311番地2", "url2": "https://www.kaigokensaku.mhlw.go.jp/03/index.php?action_kouhyou_detail_004_kani=true&JigyosyoCd=0371100728-00&ServiceCd=150&Type=search" }, "geometry": { "type": "Point", "coordinates": [ 141.801819799999947, 39.2536861 ] } },
{ "type": "Feature", "properties": { "内容": "二戸市社会福祉協議会通所介護事業所【通所介護】岩手県二戸市仁左平字横手２番地３", "url2": "https://www.kaigokensaku.mhlw.go.jp/03/index.php?action_kouhyou_detail_004_kani=true&JigyosyoCd=0371300047-00&ServiceCd=150&Type=search" }, "geometry": { "type": "Point", "coordinates": [ 141.30874289999997, 40.3035225 ] } },
{ "type": "Feature", "properties": { "内容": "湯の里にのへ【通所介護】岩手県二戸市金田一字湯田24番地", "url2": "https://www.kaigokensaku.mhlw.go.jp/03/index.php?action_kouhyou_detail_004_kani=true&JigyosyoCd=0371300096-00&ServiceCd=150&Type=search" }, "geometry": { "type": "Point", "coordinates": [ 141.320321, 40.3205541 ] } },
{ "type": "Feature", "properties": { "内容": "サントピア指定通所介護事業所【通所介護】岩手県二戸市似鳥字上平15番地1", "url2": "https://www.kaigokensaku.mhlw.go.jp/03/index.php?action_kouhyou_detail_004_kani=true&JigyosyoCd=0371300112-00&ServiceCd=150&Type=search" }, "geometry": { "type": "Point", "coordinates": [ 141.2431679, 40.2401287 ] } },
{ "type": "Feature", "properties": { "内容": "いつつ星会デイサービスセンターおからぎ【通所介護】岩手県二戸市堀野字大川原毛89-6", "url2": "https://www.kaigokensaku.mhlw.go.jp/03/index.php?action_kouhyou_detail_004_kani=true&JigyosyoCd=0371300351-00&ServiceCd=150&Type=search" }, "geometry": { "type": "Point", "coordinates": [ 141.304646300000059, 40.2993091 ] } },
{ "type": "Feature", "properties": { "内容": "サンパレス指定通所介護事業所【通所介護】岩手県二戸市石切所字森合９２－１", "url2": "https://www.kaigokensaku.mhlw.go.jp/03/index.php?action_kouhyou_detail_004_kani=true&JigyosyoCd=0371300419-00&ServiceCd=150&Type=search" }, "geometry": { "type": "Point", "coordinates": [ 141.286185599999953, 40.262686 ] } },
{ "type": "Feature", "properties": { "内容": "デイサービスセンターいずみ【通所介護】岩手県二戸市金田一字八ツ長40番地4", "url2": "https://www.kaigokensaku.mhlw.go.jp/03/index.php?action_kouhyou_detail_004_kani=true&JigyosyoCd=0371300518-00&ServiceCd=150&Type=search" }, "geometry": { "type": "Point", "coordinates": [ 141.306023500000038, 40.3091579 ] } },
{ "type": "Feature", "properties": { "内容": "わガーヤにのへ横丁【通所介護】岩手県二戸市福岡字横丁15-1", "url2": "https://www.kaigokensaku.mhlw.go.jp/03/index.php?action_kouhyou_detail_004_kani=true&JigyosyoCd=0371300641-00&ServiceCd=150&Type=search" }, "geometry": { "type": "Point", "coordinates": [ 141.2983155, 40.2739501 ] } },
{ "type": "Feature", "properties": { "内容": "浄法寺通所介護事業所【通所介護】岩手県二戸市浄法寺町小池３番地二戸市ほほえみセンター", "url2": "https://www.kaigokensaku.mhlw.go.jp/03/index.php?action_kouhyou_detail_004_kani=true&JigyosyoCd=0373200161-00&ServiceCd=150&Type=search" }, "geometry": { "type": "Point", "coordinates": [ 141.154750799999988, 40.1862469 ] } },
{ "type": "Feature", "properties": { "内容": "森のデイサービス【通所介護】岩手県八幡平市大更第25地割118番地9", "url2": "https://www.kaigokensaku.mhlw.go.jp/03/index.php?action_kouhyou_detail_004_kani=true&JigyosyoCd=0371400185-00&ServiceCd=150&Type=search" }, "geometry": { "type": "Point", "coordinates": [ 141.0971303, 39.9144851 ] } },
{ "type": "Feature", "properties": { "内容": "西根会指定通所介護事業所【通所介護】岩手県八幡平市田頭第２４地割３６番地", "url2": "https://www.kaigokensaku.mhlw.go.jp/03/index.php?action_kouhyou_detail_004_kani=true&JigyosyoCd=0372100461-00&ServiceCd=150&Type=search" }, "geometry": { "type": "Point", "coordinates": [ 141.086445, 39.9189703 ] } },
{ "type": "Feature", "properties": { "内容": "松尾デイサービスセンター【通所介護】岩手県八幡平市柏台２－９－２", "url2": "https://www.kaigokensaku.mhlw.go.jp/03/index.php?action_kouhyou_detail_004_kani=true&JigyosyoCd=0372100669-00&ServiceCd=150&Type=search" }, "geometry": { "type": "Point", "coordinates": [ 140.983749399999965, 39.9159347 ] } },
{ "type": "Feature", "properties": { "内容": "西根会北部指定通所介護事業所【通所介護】岩手県八幡平市堀切14-16-1", "url2": "https://www.kaigokensaku.mhlw.go.jp/03/index.php?action_kouhyou_detail_004_kani=true&JigyosyoCd=0372100768-00&ServiceCd=150&Type=search" }, "geometry": { "type": "Point", "coordinates": [ 141.098225599999978, 39.9539665 ] } },
{ "type": "Feature", "properties": { "内容": "八幡平ハイツ　デイサービスほかほかクラブ【通所介護】岩手県八幡平市松尾寄木1-590-4", "url2": "https://www.kaigokensaku.mhlw.go.jp/03/index.php?action_kouhyou_detail_004_kani=true&JigyosyoCd=0372101121-00&ServiceCd=150&Type=search" }, "geometry": { "type": "Point", "coordinates": [ 140.968532200000027, 39.902383200000017 ] } },
{ "type": "Feature", "properties": { "内容": "リハビリテーションデイサービスゆうゆうタウン水沢【通所介護】岩手県奥州市水沢区太日通り2丁目1-20さくらビル1階", "url2": "https://www.kaigokensaku.mhlw.go.jp/03/index.php?action_kouhyou_detail_004_kani=true&JigyosyoCd=0371500554-00&ServiceCd=150&Type=search" }, "geometry": { "type": "Point", "coordinates": [ 141.150368, 39.136502 ] } },
{ "type": "Feature", "properties": { "内容": "生活介護事業所ときわ寮【通所介護】岩手県奥州市水沢泉町9番1号", "url2": "https://www.kaigokensaku.mhlw.go.jp/03/index.php?action_kouhyou_detail_004_kani=true&JigyosyoCd=0371501149-00&ServiceCd=150&Type=search" }, "geometry": { "type": "Point", "coordinates": [ 141.1592943, 39.1297985 ] } },
{ "type": "Feature", "properties": { "内容": "デイサービスセンターペルシモン前沢【通所介護】岩手県奥州市前沢字南塔ヶ崎11番1", "url2": "https://www.kaigokensaku.mhlw.go.jp/03/index.php?action_kouhyou_detail_004_kani=true&JigyosyoCd=0371500380-00&ServiceCd=150&Type=search" }, "geometry": { "type": "Point", "coordinates": [ 141.119343165884402, 39.039072898185161 ] } },
{ "type": "Feature", "properties": { "内容": "ケアネット・アテルイ鶴田デイサービスセンター【通所介護】岩手県奥州市胆沢南都田字鶴田161番地1ケアネット・アテルイクレイン", "url2": "https://www.kaigokensaku.mhlw.go.jp/03/index.php?action_kouhyou_detail_004_kani=true&JigyosyoCd=0371500448-00&ServiceCd=150&Type=search" }, "geometry": { "type": "Point", "coordinates": [ 141.114649099999951, 39.135612200000033 ] } },
{ "type": "Feature", "properties": { "内容": "デイサービスセンターペルシモン前沢東【通所介護】岩手県奥州市前沢向田一丁目16番3", "url2": "https://www.kaigokensaku.mhlw.go.jp/03/index.php?action_kouhyou_detail_004_kani=true&JigyosyoCd=0371500471-00&ServiceCd=150&Type=search" }, "geometry": { "type": "Point", "coordinates": [ 141.129509399999961, 39.047263899999983 ] } },
{ "type": "Feature", "properties": { "内容": "デイサービスゆたかな家っこ【通所介護】岩手県奥州市胆沢若柳字下松原80", "url2": "https://www.kaigokensaku.mhlw.go.jp/03/index.php?action_kouhyou_detail_004_kani=true&JigyosyoCd=0371500810-00&ServiceCd=150&Type=search" }, "geometry": { "type": "Point", "coordinates": [ 141.064847358722091, 39.132527370274715 ] } },
{ "type": "Feature", "properties": { "内容": "デイサービスどんぐり【通所介護】岩手県奥州市胆沢小山字尼沼22番地4", "url2": "https://www.kaigokensaku.mhlw.go.jp/03/index.php?action_kouhyou_detail_004_kani=true&JigyosyoCd=0371500950-00&ServiceCd=150&Type=search" }, "geometry": { "type": "Point", "coordinates": [ 141.1391282980087, 39.120072389732996 ] } },
{ "type": "Feature", "properties": { "内容": "まえさわ苑デイサービスセンター【通所介護】岩手県奥州市前沢字塔ケ崎7番地", "url2": "https://www.kaigokensaku.mhlw.go.jp/03/index.php?action_kouhyou_detail_004_kani=true&JigyosyoCd=0372500132-00&ServiceCd=150&Type=search" }, "geometry": { "type": "Point", "coordinates": [ 141.12068, 39.0402645 ] } },
{ "type": "Feature", "properties": { "内容": "やまゆり荘デイサービスセンター【通所介護】岩手県奥州市胆沢南都田字加賀谷地416番地", "url2": "https://www.kaigokensaku.mhlw.go.jp/03/index.php?action_kouhyou_detail_004_kani=true&JigyosyoCd=0372500173-00&ServiceCd=150&Type=search" }, "geometry": { "type": "Point", "coordinates": [ 141.072278399999959, 39.1169715 ] } },
{ "type": "Feature", "properties": { "内容": "羽衣荘デイサービスセンター【通所介護】岩手県奥州市衣川古戸４５番地", "url2": "https://www.kaigokensaku.mhlw.go.jp/03/index.php?action_kouhyou_detail_004_kani=true&JigyosyoCd=0372500231-00&ServiceCd=150&Type=search" }, "geometry": { "type": "Point", "coordinates": [ 141.0645203, 39.0380208 ] } },
{ "type": "Feature", "properties": { "内容": "あっぷるホーム指定通所介護事業所【通所介護】岩手県奥州市江刺玉里字青篠２番地１", "url2": "https://www.kaigokensaku.mhlw.go.jp/03/index.php?action_kouhyou_detail_004_kani=true&JigyosyoCd=0371200296-00&ServiceCd=150&Type=search" }, "geometry": { "type": "Point", "coordinates": [ 141.251902400000063, 39.228494 ] } },
{ "type": "Feature", "properties": { "内容": "スマイル桜木デイサービスホーム【通所介護】岩手県奥州市江刺愛宕字前中野88番地1", "url2": "https://www.kaigokensaku.mhlw.go.jp/03/index.php?action_kouhyou_detail_004_kani=true&JigyosyoCd=0371200361-00&ServiceCd=150&Type=search" }, "geometry": { "type": "Point", "coordinates": [ 141.164310712076599, 39.167953695347883 ] } },
{ "type": "Feature", "properties": { "内容": "デイサービスセンター大日【通所介護】岩手県奥州市江刺田原字大日195番地１", "url2": "https://www.kaigokensaku.mhlw.go.jp/03/index.php?action_kouhyou_detail_004_kani=true&JigyosyoCd=0371200379-00&ServiceCd=150&Type=search" }, "geometry": { "type": "Point", "coordinates": [ 141.204012400000011, 39.16207 ] } },
{ "type": "Feature", "properties": { "内容": "ふれあいステーション「あじさい」【通所介護】岩手県奥州市江刺八日町一丁目８－８", "url2": "https://www.kaigokensaku.mhlw.go.jp/03/index.php?action_kouhyou_detail_004_kani=true&JigyosyoCd=0371500182-00&ServiceCd=150&Type=search" }, "geometry": { "type": "Point", "coordinates": [ 141.172470455433654, 39.186538731568191 ] } },
{ "type": "Feature", "properties": { "内容": "あすかの森デイサービス【通所介護】岩手県奥州市江刺広瀬字柿ノ木443-7", "url2": "https://www.kaigokensaku.mhlw.go.jp/03/index.php?action_kouhyou_detail_004_kani=true&JigyosyoCd=0371500562-00&ServiceCd=150&Type=search" }, "geometry": { "type": "Point", "coordinates": [ 141.210700332401984, 39.252196765958637 ] } },
{ "type": "Feature", "properties": { "内容": "デイサービスセンターはなみずき【通所介護】岩手県奥州市江刺西大通り１－１１複合型介護施設はなみずき", "url2": "https://www.kaigokensaku.mhlw.go.jp/03/index.php?action_kouhyou_detail_004_kani=true&JigyosyoCd=0371500653-00&ServiceCd=150&Type=search" }, "geometry": { "type": "Point", "coordinates": [ 141.174225912966875, 39.189403217736313 ] } },
{ "type": "Feature", "properties": { "内容": "福寿荘通所介護事業所【通所介護】岩手県奥州市水沢上姉体二丁目1番地22", "url2": "https://www.kaigokensaku.mhlw.go.jp/03/index.php?action_kouhyou_detail_004_kani=true&JigyosyoCd=0370400079-00&ServiceCd=150&Type=search" }, "geometry": { "type": "Point", "coordinates": [ 141.163995200000045, 39.1166269 ] } },
{ "type": "Feature", "properties": { "内容": "株式会社ケアネットデイサービス水沢【通所介護】岩手県奥州市水沢花園町一丁目１９番１６号", "url2": "https://www.kaigokensaku.mhlw.go.jp/03/index.php?action_kouhyou_detail_004_kani=true&JigyosyoCd=0370400558-00&ServiceCd=150&Type=search" }, "geometry": { "type": "Point", "coordinates": [ 141.147945899999968, 39.1414708 ] } },
{ "type": "Feature", "properties": { "内容": "ニチイケアセンター水沢【通所介護】岩手県奥州市水沢西町２－１０", "url2": "https://www.kaigokensaku.mhlw.go.jp/03/index.php?action_kouhyou_detail_004_kani=true&JigyosyoCd=0371500042-00&ServiceCd=150&Type=search" }, "geometry": { "type": "Point", "coordinates": [ 141.136383099999989, 39.1377876 ] } },
{ "type": "Feature", "properties": { "内容": "ニチイケアセンター江刺【通所介護】岩手県奥州市江刺八日町一丁目３番１号", "url2": "https://www.kaigokensaku.mhlw.go.jp/03/index.php?action_kouhyou_detail_004_kani=true&JigyosyoCd=0371500299-00&ServiceCd=150&Type=search" }, "geometry": { "type": "Point", "coordinates": [ 141.173853, 39.1882718 ] } },
{ "type": "Feature", "properties": { "内容": "あおぞらデイサービス【通所介護】岩手県奥州市水沢南大鐘一丁目60番地", "url2": "https://www.kaigokensaku.mhlw.go.jp/03/index.php?action_kouhyou_detail_004_kani=true&JigyosyoCd=0371501057-00&ServiceCd=150&Type=search" }, "geometry": { "type": "Point", "coordinates": [ 141.13755279999998, 39.1282943 ] } },
{ "type": "Feature", "properties": { "内容": "デイサービスセンター博水苑【通所介護】岩手県奥州市水沢佐倉河字九蔵田40番地1", "url2": "https://www.kaigokensaku.mhlw.go.jp/03/index.php?action_kouhyou_detail_004_kani=true&JigyosyoCd=0371501073-00&ServiceCd=150&Type=search" }, "geometry": { "type": "Point", "coordinates": [ 141.136929, 39.176653 ] } },
{ "type": "Feature", "properties": { "内容": "リハビリ特化型デイサービスあさがお【通所介護】岩手県奥州市水沢上姉体2丁目1番地7", "url2": "https://www.kaigokensaku.mhlw.go.jp/03/index.php?action_kouhyou_detail_004_kani=true&JigyosyoCd=0371501156-00&ServiceCd=150&Type=search" }, "geometry": { "type": "Point", "coordinates": [ 141.163965400000023, 39.1166677 ] } },
{ "type": "Feature", "properties": { "内容": "ぬくもりの家デイサービスセンター【通所介護】岩手県奥州市胆沢南都田字大持30番地", "url2": "https://www.kaigokensaku.mhlw.go.jp/03/index.php?action_kouhyou_detail_004_kani=true&JigyosyoCd=0372500488-00&ServiceCd=150&Type=search" }, "geometry": { "type": "Point", "coordinates": [ 141.06935610000005, 39.129350500000015 ] } },
{ "type": "Feature", "properties": { "内容": "チャレンジ・ゼット【通所介護】岩手県奥州市水沢字斉ノ神70-1奥州日高館", "url2": "https://www.kaigokensaku.mhlw.go.jp/03/index.php?action_kouhyou_detail_004_kani=true&JigyosyoCd=0370400442-00&ServiceCd=150&Type=search" }, "geometry": { "type": "Point", "coordinates": [ 141.131631483605929, 39.141399487712917 ] } },
{ "type": "Feature", "properties": { "内容": "デイサービスハーティーホーム【通所介護】岩手県奥州市水沢字内匠田31-1", "url2": "https://www.kaigokensaku.mhlw.go.jp/03/index.php?action_kouhyou_detail_004_kani=true&JigyosyoCd=0371500612-00&ServiceCd=150&Type=search" }, "geometry": { "type": "Point", "coordinates": [ 141.12569510000003, 39.1427341 ] } },
{ "type": "Feature", "properties": { "内容": "ツクイ奥州水沢【通所介護】岩手県奥州市水沢花園町二丁目6番21-2号", "url2": "https://www.kaigokensaku.mhlw.go.jp/03/index.php?action_kouhyou_detail_004_kani=true&JigyosyoCd=0371501164-00&ServiceCd=150&Type=search" }, "geometry": { "type": "Point", "coordinates": [ 141.154794121637025, 39.141919254401287 ] } },
{ "type": "Feature", "properties": { "内容": "デイサービスりはびり学校すご【通所介護】岩手県滝沢市巣子1153番地8", "url2": "https://www.kaigokensaku.mhlw.go.jp/03/index.php?action_kouhyou_detail_004_kani=true&JigyosyoCd=0371600347-00&ServiceCd=150&Type=search" }, "geometry": { "type": "Point", "coordinates": [ 141.128411699999987, 39.7760665 ] } },
{ "type": "Feature", "properties": { "内容": "デイサービスセンターこもれび【通所介護】岩手県滝沢市巣子1162番地34", "url2": "https://www.kaigokensaku.mhlw.go.jp/03/index.php?action_kouhyou_detail_004_kani=true&JigyosyoCd=0371600362-00&ServiceCd=150&Type=search" }, "geometry": { "type": "Point", "coordinates": [ 141.13096429999996, 39.7740391 ] } },
{ "type": "Feature", "properties": { "内容": "デイサービスりはびり学校いわて【通所介護】岩手県滝沢市巣子180番地3", "url2": "https://www.kaigokensaku.mhlw.go.jp/03/index.php?action_kouhyou_detail_004_kani=true&JigyosyoCd=0372101311-00&ServiceCd=150&Type=search" }, "geometry": { "type": "Point", "coordinates": [ 141.121092399999952, 39.7929393 ] } },
{ "type": "Feature", "properties": { "内容": "デイサービス芽吹【通所介護】岩手県滝沢市大釜竹鼻１６３番１１", "url2": "https://www.kaigokensaku.mhlw.go.jp/03/index.php?action_kouhyou_detail_004_kani=true&JigyosyoCd=0371600560-00&ServiceCd=150&Type=search" }, "geometry": { "type": "Point", "coordinates": [ 141.072783032015991, 39.703381133910746 ] } },
{ "type": "Feature", "properties": { "内容": "デイサービスひなたぼっこ【通所介護】岩手県滝沢市大釜風林４２番地２９２", "url2": "https://www.kaigokensaku.mhlw.go.jp/03/index.php?action_kouhyou_detail_004_kani=true&JigyosyoCd=0372101774-00&ServiceCd=150&Type=search" }, "geometry": { "type": "Point", "coordinates": [ 141.026560910070771, 39.708790531154818 ] } },
{ "type": "Feature", "properties": { "内容": "デイサービス・フォーユー【通所介護】岩手県滝沢市牧野林302-6", "url2": "https://www.kaigokensaku.mhlw.go.jp/03/index.php?action_kouhyou_detail_004_kani=true&JigyosyoCd=0371600073-00&ServiceCd=150&Type=search" }, "geometry": { "type": "Point", "coordinates": [ 141.104645299999987, 39.7453473 ] } },
{ "type": "Feature", "properties": { "内容": "にこにこリハビリデイサービス滝沢る～む【通所介護】岩手県滝沢市土沢528番地", "url2": "https://www.kaigokensaku.mhlw.go.jp/03/index.php?action_kouhyou_detail_004_kani=true&JigyosyoCd=0371600354-00&ServiceCd=150&Type=search" }, "geometry": { "type": "Point", "coordinates": [ 141.10428980000006, 39.7469443 ] } },
{ "type": "Feature", "properties": { "内容": "ナイスデイサービスセンター【通所介護】岩手県滝沢市穴口２７１番地８", "url2": "https://www.kaigokensaku.mhlw.go.jp/03/index.php?action_kouhyou_detail_004_kani=true&JigyosyoCd=0371600255-00&ServiceCd=150&Type=search" }, "geometry": { "type": "Point", "coordinates": [ 141.105354280395517, 39.737438527610735 ] } },
{ "type": "Feature", "properties": { "内容": "ツクイ滝沢ゆとりが丘【通所介護】岩手県滝沢市室小路378番地1ツクイ滝沢ゆとりが丘", "url2": "https://www.kaigokensaku.mhlw.go.jp/03/index.php?action_kouhyou_detail_004_kani=true&JigyosyoCd=0371600529-00&ServiceCd=150&Type=search" }, "geometry": { "type": "Point", "coordinates": [ 141.101743, 39.7428079 ] } },
{ "type": "Feature", "properties": { "内容": "デイサービスえにし【通所介護】岩手県滝沢市鵜飼狐洞１０９番地1", "url2": "https://www.kaigokensaku.mhlw.go.jp/03/index.php?action_kouhyou_detail_004_kani=true&JigyosyoCd=0371600081-00&ServiceCd=150&Type=search" }, "geometry": { "type": "Point", "coordinates": [ 141.086745373541277, 39.740340089053056 ] } },
{ "type": "Feature", "properties": { "内容": "巣郷の里まつなみきデイサービスセンター【通所介護】岩手県滝沢市巣子1197-72", "url2": "https://www.kaigokensaku.mhlw.go.jp/03/index.php?action_kouhyou_detail_004_kani=true&JigyosyoCd=0371600461-00&ServiceCd=150&Type=search" }, "geometry": { "type": "Point", "coordinates": [ 141.1315346, 39.7789346 ] } },
{ "type": "Feature", "properties": { "内容": "れいたく苑デイサービスセンター【通所介護】岩手県滝沢市鵜飼細谷地26番地5", "url2": "https://www.kaigokensaku.mhlw.go.jp/03/index.php?action_kouhyou_detail_004_kani=true&JigyosyoCd=0372100529-00&ServiceCd=150&Type=search" }, "geometry": { "type": "Point", "coordinates": [ 141.078432666875784, 39.747812501323025 ] } },
{ "type": "Feature", "properties": { "内容": "サン・ケアサービスセンター【通所介護】岩手県滝沢市鵜飼大緩47番地28", "url2": "https://www.kaigokensaku.mhlw.go.jp/03/index.php?action_kouhyou_detail_004_kani=true&JigyosyoCd=0372101204-00&ServiceCd=150&Type=search" }, "geometry": { "type": "Point", "coordinates": [ 141.094829900000036, 39.7341983 ] } },
{ "type": "Feature", "properties": { "内容": "リハビリの里たきざわ【通所介護】岩手県滝沢市鵜飼諸葛川16-19", "url2": "https://www.kaigokensaku.mhlw.go.jp/03/index.php?action_kouhyou_detail_004_kani=true&JigyosyoCd=0372101592-00&ServiceCd=150&Type=search" }, "geometry": { "type": "Point", "coordinates": [ 141.098473864417997, 39.731459905737054 ] } },
{ "type": "Feature", "properties": { "内容": "ディサービスみんなの家【通所介護】岩手県滝沢市葉の木沢山399-6", "url2": "https://www.kaigokensaku.mhlw.go.jp/03/index.php?action_kouhyou_detail_004_kani=true&JigyosyoCd=0372101428-00&ServiceCd=150&Type=search" }, "geometry": { "type": "Point", "coordinates": [ 141.143454799999972, 39.775892 ] } },
{ "type": "Feature", "properties": { "内容": "デイサービスセンターにこトピア雫石【通所介護】岩手県岩手郡雫石町八卦５０－1", "url2": "https://www.kaigokensaku.mhlw.go.jp/03/index.php?action_kouhyou_detail_004_kani=true&JigyosyoCd=0372101220-00&ServiceCd=150&Type=search" }, "geometry": { "type": "Point", "coordinates": [ 140.966696100000036, 39.6940182 ] } },
{ "type": "Feature", "properties": { "内容": "誠心会葛巻デイサービスセンター【通所介護】岩手県岩手郡葛巻町葛巻7地割104番地2", "url2": "https://www.kaigokensaku.mhlw.go.jp/03/index.php?action_kouhyou_detail_004_kani=true&JigyosyoCd=0372100453-00&ServiceCd=150&Type=search" }, "geometry": { "type": "Point", "coordinates": [ 141.454500199999984, 40.0403547 ] } },
{ "type": "Feature", "properties": { "内容": "岩手町デイサービスセンター【通所介護】岩手県岩手郡岩手町大字五日市第１１地割７１番地３", "url2": "https://www.kaigokensaku.mhlw.go.jp/03/index.php?action_kouhyou_detail_004_kani=true&JigyosyoCd=0372100388-00&ServiceCd=150&Type=search" }, "geometry": { "type": "Point", "coordinates": [ 141.208611499999961, 39.965474 ] } },
{ "type": "Feature", "properties": { "内容": "にいやま荘通所介護事業所【通所介護】岩手県紫波郡紫波町桜町字三本木46-1", "url2": "https://www.kaigokensaku.mhlw.go.jp/03/index.php?action_kouhyou_detail_004_kani=true&JigyosyoCd=0372200105-00&ServiceCd=150&Type=search" }, "geometry": { "type": "Point", "coordinates": [ 141.171604800000068, 39.5415171 ] } },
{ "type": "Feature", "properties": { "内容": "あづまね温泉通所介護事業所【通所介護】岩手県紫波郡紫波町上松本字内方９６番地", "url2": "https://www.kaigokensaku.mhlw.go.jp/03/index.php?action_kouhyou_detail_004_kani=true&JigyosyoCd=0372200121-00&ServiceCd=150&Type=search" }, "geometry": { "type": "Point", "coordinates": [ 141.082584900000029, 39.572004400000012 ] } },
{ "type": "Feature", "properties": { "内容": "百寿の郷しんせつ介護センター【通所介護】岩手県紫波郡紫波町土舘字関沢２４番地１", "url2": "https://www.kaigokensaku.mhlw.go.jp/03/index.php?action_kouhyou_detail_004_kani=true&JigyosyoCd=0372200287-00&ServiceCd=150&Type=search" }, "geometry": { "type": "Point", "coordinates": [ 141.100695, 39.5477695 ] } },
{ "type": "Feature", "properties": { "内容": "さくらデイサービス【通所介護】岩手県紫波郡紫波町桜町字浦田12", "url2": "https://www.kaigokensaku.mhlw.go.jp/03/index.php?action_kouhyou_detail_004_kani=true&JigyosyoCd=0372200675-00&ServiceCd=150&Type=search" }, "geometry": { "type": "Point", "coordinates": [ 141.168568899999968, 39.542428 ] } },
{ "type": "Feature", "properties": { "内容": "デイサービスだいち【通所介護】岩手県紫波郡紫波町中島字下長根121－3", "url2": "https://www.kaigokensaku.mhlw.go.jp/03/index.php?action_kouhyou_detail_004_kani=true&JigyosyoCd=0372200832-00&ServiceCd=150&Type=search" }, "geometry": { "type": "Point", "coordinates": [ 137.184104499999989, 34.9207347 ] } },
{ "type": "Feature", "properties": { "内容": "デイサービス虹のいえ【通所介護】岩手県紫波郡紫波町北日詰字大日堂2-1", "url2": "https://www.kaigokensaku.mhlw.go.jp/03/index.php?action_kouhyou_detail_004_kani=true&JigyosyoCd=0372200972-00&ServiceCd=150&Type=search" }, "geometry": { "type": "Point", "coordinates": [ 141.165524799999957, 39.5388173 ] } },
{ "type": "Feature", "properties": { "内容": "通所介護事業所ほたるの里【通所介護】岩手県紫波郡紫波町稲藤字牡丹野22番地4", "url2": "https://www.kaigokensaku.mhlw.go.jp/03/index.php?action_kouhyou_detail_004_kani=true&JigyosyoCd=0372201111-00&ServiceCd=150&Type=search" }, "geometry": { "type": "Point", "coordinates": [ 141.117035699999974, 39.550178300000013 ] } },
{ "type": "Feature", "properties": { "内容": "デイサービスとくたんの郷【通所介護】岩手県紫波郡矢巾町大字又兵ェ新田第７地割２１２番地１", "url2": "https://www.kaigokensaku.mhlw.go.jp/03/index.php?action_kouhyou_detail_004_kani=true&JigyosyoCd=0372200683-00&ServiceCd=150&Type=search" }, "geometry": { "type": "Point", "coordinates": [ 141.157412199999953, 39.6135411 ] } },
{ "type": "Feature", "properties": { "内容": "老人デイサービスセンター「百万石」【通所介護】岩手県紫波郡矢巾町大字和味2-106-5", "url2": "https://www.kaigokensaku.mhlw.go.jp/03/index.php?action_kouhyou_detail_004_kani=true&JigyosyoCd=0372200477-00&ServiceCd=150&Type=search" }, "geometry": { "type": "Point", "coordinates": [ 141.09043070000007, 39.5986792 ] } },
{ "type": "Feature", "properties": { "内容": "老人ディサービスセンター「百万石」矢幅駅西口【通所介護】岩手県紫波郡矢巾町大字南矢幅6-606", "url2": "https://www.kaigokensaku.mhlw.go.jp/03/index.php?action_kouhyou_detail_004_kani=true&JigyosyoCd=0372200758-00&ServiceCd=150&Type=search" }, "geometry": { "type": "Point", "coordinates": [ 141.147196500000064, 39.6116634 ] } },
{ "type": "Feature", "properties": { "内容": "ニチイケアセンター矢巾【通所介護】岩手県紫波郡矢巾町大字南矢幅12地割237番地1", "url2": "https://www.kaigokensaku.mhlw.go.jp/03/index.php?action_kouhyou_detail_004_kani=true&JigyosyoCd=0372200915-00&ServiceCd=150&Type=search" }, "geometry": { "type": "Point", "coordinates": [ 141.124440899999968, 39.5956341 ] } },
{ "type": "Feature", "properties": { "内容": "生活介護センター「いちご園」【通所介護】岩手県紫波郡矢巾町又兵エ新田5-339地域交流パレスいちご館", "url2": "https://www.kaigokensaku.mhlw.go.jp/03/index.php?action_kouhyou_detail_004_kani=true&JigyosyoCd=0372201087-00&ServiceCd=150&Type=search" }, "geometry": { "type": "Point", "coordinates": [ 141.146475934965565, 39.614016617344248 ] } },
{ "type": "Feature", "properties": { "内容": "デイサービスにしわが【通所介護】岩手県和賀郡西和賀町川尻40地割73番地82", "url2": "https://www.kaigokensaku.mhlw.go.jp/03/index.php?action_kouhyou_detail_004_kani=true&JigyosyoCd=0372400176-00&ServiceCd=150&Type=search" }, "geometry": { "type": "Point", "coordinates": [ 140.775447, 39.3140542 ] } },
{ "type": "Feature", "properties": { "内容": "金ケ崎町社会福祉協議会指定通所介護事業所【通所介護】岩手県胆沢郡金ケ崎町西根南羽沢４３番地", "url2": "https://www.kaigokensaku.mhlw.go.jp/03/index.php?action_kouhyou_detail_004_kani=true&JigyosyoCd=0372500223-00&ServiceCd=150&Type=search" }, "geometry": { "type": "Point", "coordinates": [ 141.109142786972029, 39.200497405351371 ] } },
{ "type": "Feature", "properties": { "内容": "友愛園デイサービスセンター【通所介護】岩手県胆沢郡金ケ崎町西根揚場後19番地2", "url2": "https://www.kaigokensaku.mhlw.go.jp/03/index.php?action_kouhyou_detail_004_kani=true&JigyosyoCd=0372500306-00&ServiceCd=150&Type=search" }, "geometry": { "type": "Point", "coordinates": [ 141.104700900000012, 39.1866568 ] } },
{ "type": "Feature", "properties": { "内容": "デイサービスセンターふるさと【通所介護】岩手県胆沢郡金ケ崎町西根北荒巻21番地19", "url2": "https://www.kaigokensaku.mhlw.go.jp/03/index.php?action_kouhyou_detail_004_kani=true&JigyosyoCd=0372500678-00&ServiceCd=150&Type=search" }, "geometry": { "type": "Point", "coordinates": [ 141.093006599999967, 39.2212217 ] } },
{ "type": "Feature", "properties": { "内容": "慶泉荘デイサービスセンター【通所介護】岩手県西磐井郡平泉町平泉字片岡69-7", "url2": "https://www.kaigokensaku.mhlw.go.jp/03/index.php?action_kouhyou_detail_004_kani=true&JigyosyoCd=0372600098-00&ServiceCd=150&Type=search" }, "geometry": { "type": "Point", "coordinates": [ 141.107681599999978, 38.9716747 ] } },
{ "type": "Feature", "properties": { "内容": "いこいデイサービスセンター・平泉【通所介護】岩手県西磐井郡平泉町平泉字鈴沢６４－１", "url2": "https://www.kaigokensaku.mhlw.go.jp/03/index.php?action_kouhyou_detail_004_kani=true&JigyosyoCd=0372600247-00&ServiceCd=150&Type=search" }, "geometry": { "type": "Point", "coordinates": [ 141.114613299999974, 38.9903369 ] } },
{ "type": "Feature", "properties": { "内容": "アンルス指定通所介護事業所【通所介護】岩手県気仙郡住田町上有住字和田野12-5", "url2": "https://www.kaigokensaku.mhlw.go.jp/03/index.php?action_kouhyou_detail_004_kani=true&JigyosyoCd=0372800078-00&ServiceCd=150&Type=search" }, "geometry": { "type": "Point", "coordinates": [ 141.599229700000024, 39.1946659 ] } },
{ "type": "Feature", "properties": { "内容": "すみた荘デイサービスセンター【通所介護】岩手県気仙郡住田町世田米字川向８番地２", "url2": "https://www.kaigokensaku.mhlw.go.jp/03/index.php?action_kouhyou_detail_004_kani=true&JigyosyoCd=0372800128-00&ServiceCd=150&Type=search" }, "geometry": { "type": "Point", "coordinates": [ 141.568103993670661, 39.146059946559276 ] } },
{ "type": "Feature", "properties": { "内容": "平安荘デイサービスセンター【通所介護】岩手県下閉伊郡山田町山田第16地割9番地10", "url2": "https://www.kaigokensaku.mhlw.go.jp/03/index.php?action_kouhyou_detail_004_kani=true&JigyosyoCd=0373000207-00&ServiceCd=150&Type=search" }, "geometry": { "type": "Point", "coordinates": [ 141.96809970000001, 39.4378658 ] } },
{ "type": "Feature", "properties": { "内容": "岩泉町社協岩泉指定通所介護事業所【通所介護】岩手県下閉伊郡岩泉町岩泉字中家38-1高齢者生活福祉センター　どんぐり苑", "url2": "https://www.kaigokensaku.mhlw.go.jp/03/index.php?action_kouhyou_detail_004_kani=true&JigyosyoCd=0373000439-00&ServiceCd=150&Type=search" }, "geometry": { "type": "Point", "coordinates": [ 141.796051299999988, 39.847675600000017 ] } },
{ "type": "Feature", "properties": { "内容": "岩泉町社協小川指定通所介護事業所【通所介護】岩手県下閉伊郡岩泉町門字町向32番地1", "url2": "https://www.kaigokensaku.mhlw.go.jp/03/index.php?action_kouhyou_detail_004_kani=true&JigyosyoCd=0373000454-00&ServiceCd=150&Type=search" }, "geometry": { "type": "Point", "coordinates": [ 141.652432, 39.8756459 ] } },
{ "type": "Feature", "properties": { "内容": "普代村デイサービスセンター通所介護事業所【通所介護】岩手県下閉伊郡普代村第24地割字鳥居5番地1", "url2": "https://www.kaigokensaku.mhlw.go.jp/03/index.php?action_kouhyou_detail_004_kani=true&JigyosyoCd=0373000165-00&ServiceCd=150&Type=search" }, "geometry": { "type": "Point", "coordinates": [ 141.8542857, 40.0136984 ] } },
{ "type": "Feature", "properties": { "内容": "くつろぎの家【通所介護】岩手県九戸郡軽米町大字山内第１２地割字太田向９６番地2", "url2": "https://www.kaigokensaku.mhlw.go.jp/03/index.php?action_kouhyou_detail_004_kani=true&JigyosyoCd=0373100379-00&ServiceCd=150&Type=search" }, "geometry": { "type": "Point", "coordinates": [ 141.460632700000019, 40.3267455 ] } },
{ "type": "Feature", "properties": { "内容": "デイサービスセンターせせらぎ【通所介護】岩手県九戸郡軽米町大字小軽米１２－３－１", "url2": "https://www.kaigokensaku.mhlw.go.jp/03/index.php?action_kouhyou_detail_004_kani=true&JigyosyoCd=0373100510-00&ServiceCd=150&Type=search" }, "geometry": { "type": "Point", "coordinates": [ 141.523639099999968, 40.2959844 ] } },
{ "type": "Feature", "properties": { "内容": "ことぶき荘デイサービスセンター指定通所介護事業所【通所介護】岩手県九戸郡野田村大字野田第22地割38番地7", "url2": "https://www.kaigokensaku.mhlw.go.jp/03/index.php?action_kouhyou_detail_004_kani=true&JigyosyoCd=0373100288-00&ServiceCd=150&Type=search" }, "geometry": { "type": "Point", "coordinates": [ 141.802159043763709, 40.108262353786429 ] } },
{ "type": "Feature", "properties": { "内容": "デイサービスセンターおりつめ【通所介護】岩手県九戸郡九戸村大字伊保内第9地割73番地", "url2": "https://www.kaigokensaku.mhlw.go.jp/03/index.php?action_kouhyou_detail_004_kani=true&JigyosyoCd=0373100312-00&ServiceCd=150&Type=search" }, "geometry": { "type": "Point", "coordinates": [ 141.421604500000058, 40.2142998 ] } },
{ "type": "Feature", "properties": { "内容": "社会福祉法人九戸村社会福祉協議会指定通所介護事業所【通所介護】岩手県九戸郡九戸村大字伊保内7-39-4", "url2": "https://www.kaigokensaku.mhlw.go.jp/03/index.php?action_kouhyou_detail_004_kani=true&JigyosyoCd=0373100411-00&ServiceCd=150&Type=search" }, "geometry": { "type": "Point", "coordinates": [ 141.420157499999959, 40.2115223 ] } },
{ "type": "Feature", "properties": { "内容": "通所介護かすみ【通所介護】岩手県九戸郡九戸村大字伊保内第２地割６１番地１", "url2": "https://www.kaigokensaku.mhlw.go.jp/03/index.php?action_kouhyou_detail_004_kani=true&JigyosyoCd=0373100593-00&ServiceCd=150&Type=search" }, "geometry": { "type": "Point", "coordinates": [ 141.426398799999987, 40.2036176 ] } },
{ "type": "Feature", "properties": { "内容": "久慈平荘デイサービスセンター指定通所介護事業所【通所介護】岩手県九戸郡洋野町大野60-41-8", "url2": "https://www.kaigokensaku.mhlw.go.jp/03/index.php?action_kouhyou_detail_004_kani=true&JigyosyoCd=0373100171-00&ServiceCd=150&Type=search" }, "geometry": { "type": "Point", "coordinates": [ 141.634626900000058, 40.2766863 ] } },
{ "type": "Feature", "properties": { "内容": "洋野町社会福祉協議会おおの通所介護事業所【通所介護】岩手県九戸郡洋野町大野第56地割78番地30洋野町大野福祉センター", "url2": "https://www.kaigokensaku.mhlw.go.jp/03/index.php?action_kouhyou_detail_004_kani=true&JigyosyoCd=0373100262-00&ServiceCd=150&Type=search" }, "geometry": { "type": "Point", "coordinates": [ 141.666299, 40.2795202 ] } },
{ "type": "Feature", "properties": { "内容": "こずやサンブルクデイサービス【通所介護】岩手県二戸郡一戸町小鳥谷字野中２１", "url2": "https://www.kaigokensaku.mhlw.go.jp/03/index.php?action_kouhyou_detail_004_kani=true&JigyosyoCd=0353280019-00&ServiceCd=150&Type=search" }, "geometry": { "type": "Point", "coordinates": [ 141.305057300000044, 40.1813898 ] } },
{ "type": "Feature", "properties": { "内容": "慶寿園デイサービスセンター【通所介護】岩手県二戸郡一戸町姉帯字下村24番地1", "url2": "https://www.kaigokensaku.mhlw.go.jp/03/index.php?action_kouhyou_detail_004_kani=true&JigyosyoCd=0373200120-00&ServiceCd=150&Type=search" }, "geometry": { "type": "Point", "coordinates": [ 141.336843764418035, 40.165961319396146 ] } },
{ "type": "Feature", "properties": { "内容": "株式会社結愛サービス公社指定通所介護事業所【通所介護】岩手県二戸郡一戸町一戸字砂森９３番地２", "url2": "https://www.kaigokensaku.mhlw.go.jp/03/index.php?action_kouhyou_detail_004_kani=true&JigyosyoCd=0373200245-00&ServiceCd=150&Type=search" }, "geometry": { "type": "Point", "coordinates": [ 141.3064928, 40.2084923 ] } },
{ "type": "Feature", "properties": { "内容": "デイサービスセンターにこトピア一戸【通所介護】岩手県二戸郡一戸町一戸字向町56番地1", "url2": "https://www.kaigokensaku.mhlw.go.jp/03/index.php?action_kouhyou_detail_004_kani=true&JigyosyoCd=0373200377-00&ServiceCd=150&Type=search" }, "geometry": { "type": "Point", "coordinates": [ 141.298605767388807, 40.215546602440071 ] } }
]
}
