{
"type": "FeatureCollection",
"name": "geo_03_通所リハビリテーション",
"crs": { "type": "name", "properties": { "name": "urn:ogc:def:crs:OGC:1.3:CRS84" } },
"features": [
{ "type": "Feature", "properties": { "内容": "臼井循環器呼吸器内科【通所リハビリテーション】岩手県盛岡市松園二丁目2番10号", "url2": "https://www.kaigokensaku.mhlw.go.jp/03/index.php?action_kouhyou_detail_004_kani=true&JigyosyoCd=0310113832-00&ServiceCd=160&Type=search" }, "geometry": { "type": "Point", "coordinates": [ 141.1652703, 39.7476875 ] } },
{ "type": "Feature", "properties": { "内容": "医療法人平野医院　通所リハビリテーション【通所リハビリテーション】岩手県盛岡市西青山2丁目18番60号", "url2": "https://www.kaigokensaku.mhlw.go.jp/03/index.php?action_kouhyou_detail_004_kani=true&JigyosyoCd=0310117254-00&ServiceCd=160&Type=search" }, "geometry": { "type": "Point", "coordinates": [ 141.109701, 39.7278854 ] } },
{ "type": "Feature", "properties": { "内容": "ゆうあいの街クリニック通所リハビリテーションゆうあいの街【通所リハビリテーション】岩手県盛岡市北飯岡一丁目2-25", "url2": "https://www.kaigokensaku.mhlw.go.jp/03/index.php?action_kouhyou_detail_004_kani=true&JigyosyoCd=0310117189-00&ServiceCd=160&Type=search" }, "geometry": { "type": "Point", "coordinates": [ 141.133169700000053, 39.6792745 ] } },
{ "type": "Feature", "properties": { "内容": "たぐち脳神経外科クリニック通所リハビリセンター【通所リハビリテーション】岩手県盛岡市本町通一丁目３－６", "url2": "https://www.kaigokensaku.mhlw.go.jp/03/index.php?action_kouhyou_detail_004_kani=true&JigyosyoCd=0310117379-00&ServiceCd=160&Type=search" }, "geometry": { "type": "Point", "coordinates": [ 141.156580599999984, 39.706708 ] } },
{ "type": "Feature", "properties": { "内容": "介護老人保健施設イーハトーブ【通所リハビリテーション】岩手県盛岡市本宮一丁目6番12号", "url2": "https://www.kaigokensaku.mhlw.go.jp/03/index.php?action_kouhyou_detail_004_kani=true&JigyosyoCd=0350180022-00&ServiceCd=160&Type=search" }, "geometry": { "type": "Point", "coordinates": [ 141.140838199999962, 39.6904567 ] } },
{ "type": "Feature", "properties": { "内容": "介護老人保健施設ケアホームやすみ【通所リハビリテーション】岩手県盛岡市好摩字夏間木70－190", "url2": "https://www.kaigokensaku.mhlw.go.jp/03/index.php?action_kouhyou_detail_004_kani=true&JigyosyoCd=0352180012-00&ServiceCd=160&Type=search" }, "geometry": { "type": "Point", "coordinates": [ 141.165860899999984, 39.8752557 ] } },
{ "type": "Feature", "properties": { "内容": "医療法人明心会原田内科脳神経機能クリニック通所リハビリテーション【通所リハビリテーション】岩手県盛岡市山岸三丁目2番1号", "url2": "https://www.kaigokensaku.mhlw.go.jp/03/index.php?action_kouhyou_detail_004_kani=true&JigyosyoCd=0310117643-00&ServiceCd=160&Type=search" }, "geometry": { "type": "Point", "coordinates": [ 141.1689561, 39.7160806 ] } },
{ "type": "Feature", "properties": { "内容": "盛岡医療生活協同組合川久保病院【通所リハビリテーション】岩手県盛岡市津志田26-30-1", "url2": "https://www.kaigokensaku.mhlw.go.jp/03/index.php?action_kouhyou_detail_004_kani=true&JigyosyoCd=0370100232-00&ServiceCd=160&Type=search" }, "geometry": { "type": "Point", "coordinates": [ 141.156487299999981, 39.6723621 ] } },
{ "type": "Feature", "properties": { "内容": "デイケアセンターまつぞの【通所リハビリテーション】岩手県盛岡市北松園四丁目36番75号", "url2": "https://www.kaigokensaku.mhlw.go.jp/03/index.php?action_kouhyou_detail_004_kani=true&JigyosyoCd=03B0100050-00&ServiceCd=160&Type=search" }, "geometry": { "type": "Point", "coordinates": [ 141.176978017721524, 39.762347291319045 ] } },
{ "type": "Feature", "properties": { "内容": "鎌田内科クリニック通所リハビリテーション【通所リハビリテーション】岩手県盛岡市本宮２－２０－１", "url2": "https://www.kaigokensaku.mhlw.go.jp/03/index.php?action_kouhyou_detail_004_kani=true&JigyosyoCd=0310115217-00&ServiceCd=160&Type=search" }, "geometry": { "type": "Point", "coordinates": [ 141.137733946032739, 39.688830813130949 ] } },
{ "type": "Feature", "properties": { "内容": "おはようクリニック通所リハビリ【通所リハビリテーション】岩手県盛岡市高松２丁目２７－６", "url2": "https://www.kaigokensaku.mhlw.go.jp/03/index.php?action_kouhyou_detail_004_kani=true&JigyosyoCd=0310116850-00&ServiceCd=160&Type=search" }, "geometry": { "type": "Point", "coordinates": [ 141.135955886508214, 39.724870928703687 ] } },
{ "type": "Feature", "properties": { "内容": "メディケアプラザ中央通りクリニック通所リハビリテーション【通所リハビリテーション】岩手県盛岡市中央通３丁目16-23メディケアプラザ中央通り", "url2": "https://www.kaigokensaku.mhlw.go.jp/03/index.php?action_kouhyou_detail_004_kani=true&JigyosyoCd=0310117247-00&ServiceCd=160&Type=search" }, "geometry": { "type": "Point", "coordinates": [ 141.141075420901529, 39.705791567778142 ] } },
{ "type": "Feature", "properties": { "内容": "医療法人天音会おいかわ内科クリニック【通所リハビリテーション】岩手県盛岡市上田１丁目18-38リハスペースおいかわ", "url2": "https://www.kaigokensaku.mhlw.go.jp/03/index.php?action_kouhyou_detail_004_kani=true&JigyosyoCd=0310117312-00&ServiceCd=160&Type=search" }, "geometry": { "type": "Point", "coordinates": [ 141.1399543, 39.7111071 ] } },
{ "type": "Feature", "properties": { "内容": "医療法人葵会もりおか往診ホームケアクリニックもりおかリハビリテーションセンター葵【通所リハビリテーション】岩手県盛岡市北飯岡３丁目20-3", "url2": "https://www.kaigokensaku.mhlw.go.jp/03/index.php?action_kouhyou_detail_004_kani=true&JigyosyoCd=0310117544-00&ServiceCd=160&Type=search" }, "geometry": { "type": "Point", "coordinates": [ 141.136070600000039, 39.6681372 ] } },
{ "type": "Feature", "properties": { "内容": "大澤クリニック　通所リハビリテーション【通所リハビリテーション】岩手県盛岡市茶畑二丁目８番３号", "url2": "https://www.kaigokensaku.mhlw.go.jp/03/index.php?action_kouhyou_detail_004_kani=true&JigyosyoCd=0310118039-00&ServiceCd=160&Type=search" }, "geometry": { "type": "Point", "coordinates": [ 141.1646016, 39.692777 ] } },
{ "type": "Feature", "properties": { "内容": "介護老人保健施設ハートフルもりおか通所リハビリテーション事業所【通所リハビリテーション】岩手県盛岡市永井14地割15番地1", "url2": "https://www.kaigokensaku.mhlw.go.jp/03/index.php?action_kouhyou_detail_004_kani=true&JigyosyoCd=0350180063-00&ServiceCd=160&Type=search" }, "geometry": { "type": "Point", "coordinates": [ 141.138817300000028, 39.6599046 ] } },
{ "type": "Feature", "properties": { "内容": "介護老人保健施設ケアコートもりおか【通所リハビリテーション】岩手県盛岡市青山1-25-25", "url2": "https://www.kaigokensaku.mhlw.go.jp/03/index.php?action_kouhyou_detail_004_kani=true&JigyosyoCd=0350180105-00&ServiceCd=160&Type=search" }, "geometry": { "type": "Point", "coordinates": [ 141.110172525794951, 39.723766780194978 ] } },
{ "type": "Feature", "properties": { "内容": "介護老人保健施設ヴィラ加賀野【通所リハビリテーション】岩手県盛岡市加賀野三丁目１番６号", "url2": "https://www.kaigokensaku.mhlw.go.jp/03/index.php?action_kouhyou_detail_004_kani=true&JigyosyoCd=0350180113-00&ServiceCd=160&Type=search" }, "geometry": { "type": "Point", "coordinates": [ 141.1666186, 39.7051417 ] } },
{ "type": "Feature", "properties": { "内容": "デイケアフォーユーみたけ【通所リハビリテーション】岩手県盛岡市みたけ３丁目11番36号", "url2": "https://www.kaigokensaku.mhlw.go.jp/03/index.php?action_kouhyou_detail_004_kani=true&JigyosyoCd=0370101248-00&ServiceCd=160&Type=search" }, "geometry": { "type": "Point", "coordinates": [ 141.1137086, 39.7381734 ] } },
{ "type": "Feature", "properties": { "内容": "通所リハビリテーション盛岡つなぎ温泉病院メディケアプラザ【通所リハビリテーション】岩手県盛岡市繋字尾入野64-9", "url2": "https://www.kaigokensaku.mhlw.go.jp/03/index.php?action_kouhyou_detail_004_kani=true&JigyosyoCd=0370102873-00&ServiceCd=160&Type=search" }, "geometry": { "type": "Point", "coordinates": [ 141.023567599999978, 39.6895172 ] } },
{ "type": "Feature", "properties": { "内容": "遠山病院通所リハビリテーション鷹匠小路【通所リハビリテーション】岩手県盛岡市下ノ橋町７－３１", "url2": "https://www.kaigokensaku.mhlw.go.jp/03/index.php?action_kouhyou_detail_004_kani=true&JigyosyoCd=0370104739-00&ServiceCd=160&Type=search" }, "geometry": { "type": "Point", "coordinates": [ 141.149128213491821, 39.696649193074691 ] } },
{ "type": "Feature", "properties": { "内容": "とちない脳神経外科クリニック【通所リハビリテーション】岩手県盛岡市津志田中央３丁目17-10栃内ビル１階", "url2": "https://www.kaigokensaku.mhlw.go.jp/03/index.php?action_kouhyou_detail_004_kani=true&JigyosyoCd=0310114533-00&ServiceCd=160&Type=search" }, "geometry": { "type": "Point", "coordinates": [ 141.153710906307879, 39.661618771101075 ] } },
{ "type": "Feature", "properties": { "内容": "わたなべ内科・脳神経内科クリニック　通所リハビリテーションセンター【通所リハビリテーション】岩手県盛岡市高松三丁目9-8", "url2": "https://www.kaigokensaku.mhlw.go.jp/03/index.php?action_kouhyou_detail_004_kani=true&JigyosyoCd=0310117320-00&ServiceCd=160&Type=search" }, "geometry": { "type": "Point", "coordinates": [ 141.139587200000051, 39.7278081 ] } },
{ "type": "Feature", "properties": { "内容": "介護老人保健施設康楽苑【通所リハビリテーション】岩手県盛岡市手代森9地割64番地2", "url2": "https://www.kaigokensaku.mhlw.go.jp/03/index.php?action_kouhyou_detail_004_kani=true&JigyosyoCd=0350180048-00&ServiceCd=160&Type=search" }, "geometry": { "type": "Point", "coordinates": [ 141.184607699999987, 39.6582721 ] } },
{ "type": "Feature", "properties": { "内容": "医療法人千藤了会通所リハビリテーションはるか【通所リハビリテーション】岩手県盛岡市大館町２６-７", "url2": "https://www.kaigokensaku.mhlw.go.jp/03/index.php?action_kouhyou_detail_004_kani=true&JigyosyoCd=0370102337-00&ServiceCd=160&Type=search" }, "geometry": { "type": "Point", "coordinates": [ 141.109748599999989, 39.71243960000001 ] } },
{ "type": "Feature", "properties": { "内容": "孝仁デイケアセンター【通所リハビリテーション】岩手県盛岡市中太田泉田２８番地", "url2": "https://www.kaigokensaku.mhlw.go.jp/03/index.php?action_kouhyou_detail_004_kani=true&JigyosyoCd=0370102949-00&ServiceCd=160&Type=search" }, "geometry": { "type": "Point", "coordinates": [ 141.110321200000044, 39.7004824 ] } },
{ "type": "Feature", "properties": { "内容": "介護老人保健施設ほほえみの里【通所リハビリテーション】岩手県宮古市崎鍬ヶ崎第９地割３９番地２７", "url2": "https://www.kaigokensaku.mhlw.go.jp/03/index.php?action_kouhyou_detail_004_kani=true&JigyosyoCd=0370200560-00&ServiceCd=160&Type=search" }, "geometry": { "type": "Point", "coordinates": [ 141.957528300000035, 39.6683752 ] } },
{ "type": "Feature", "properties": { "内容": "宮古介護老人保健施設桜ヶ丘通所リハビリテーション【通所リハビリテーション】岩手県宮古市山口五丁目５番１０号", "url2": "https://www.kaigokensaku.mhlw.go.jp/03/index.php?action_kouhyou_detail_004_kani=true&JigyosyoCd=0350280012-00&ServiceCd=160&Type=search" }, "geometry": { "type": "Point", "coordinates": [ 141.930778, 39.6576202 ] } },
{ "type": "Feature", "properties": { "内容": "ハートランド宮古通所リハビリテーション事業所【通所リハビリテーション】岩手県宮古市実田2丁目5-12", "url2": "https://www.kaigokensaku.mhlw.go.jp/03/index.php?action_kouhyou_detail_004_kani=true&JigyosyoCd=0370200891-00&ServiceCd=160&Type=search" }, "geometry": { "type": "Point", "coordinates": [ 141.952966886508193, 39.623359513479031 ] } },
{ "type": "Feature", "properties": { "内容": "介護老人保健施設気仙苑【通所リハビリテーション】岩手県大船渡市大船渡町山馬越188", "url2": "https://www.kaigokensaku.mhlw.go.jp/03/index.php?action_kouhyou_detail_004_kani=true&JigyosyoCd=0350380010-00&ServiceCd=160&Type=search" }, "geometry": { "type": "Point", "coordinates": [ 141.71006639999996, 39.0710219 ] } },
{ "type": "Feature", "properties": { "内容": "花巻市石鳥谷医療センター【通所リハビリテーション】岩手県花巻市石鳥谷町八幡5-47-2", "url2": "https://www.kaigokensaku.mhlw.go.jp/03/index.php?action_kouhyou_detail_004_kani=true&JigyosyoCd=0310511555-00&ServiceCd=160&Type=search" }, "geometry": { "type": "Point", "coordinates": [ 141.149227900000028, 39.4844206 ] } },
{ "type": "Feature", "properties": { "内容": "医療法人報恩会とみつか脳神経外科クリニック【通所リハビリテーション】岩手県花巻市御田屋町１－４１", "url2": "https://www.kaigokensaku.mhlw.go.jp/03/index.php?action_kouhyou_detail_004_kani=true&JigyosyoCd=0310511563-00&ServiceCd=160&Type=search" }, "geometry": { "type": "Point", "coordinates": [ 141.12415580000004, 39.3873204 ] } },
{ "type": "Feature", "properties": { "内容": "介護老人保健施設サンシャイン【通所リハビリテーション】岩手県花巻市本館189", "url2": "https://www.kaigokensaku.mhlw.go.jp/03/index.php?action_kouhyou_detail_004_kani=true&JigyosyoCd=0350580023-00&ServiceCd=160&Type=search" }, "geometry": { "type": "Point", "coordinates": [ 141.120105, 39.4101981 ] } },
{ "type": "Feature", "properties": { "内容": "介護老人保健施設ゆうゆうの里【通所リハビリテーション】岩手県花巻市石鳥谷町松林寺第3地割82番地1", "url2": "https://www.kaigokensaku.mhlw.go.jp/03/index.php?action_kouhyou_detail_004_kani=true&JigyosyoCd=0352380000-00&ServiceCd=160&Type=search" }, "geometry": { "type": "Point", "coordinates": [ 141.0956698, 39.4749144 ] } },
{ "type": "Feature", "properties": { "内容": "介護老人保健施設はやちねの里【通所リハビリテーション】岩手県花巻市大迫町大迫４－１９－１", "url2": "https://www.kaigokensaku.mhlw.go.jp/03/index.php?action_kouhyou_detail_004_kani=true&JigyosyoCd=0352380018-00&ServiceCd=160&Type=search" }, "geometry": { "type": "Point", "coordinates": [ 141.287047499999971, 39.4692866 ] } },
{ "type": "Feature", "properties": { "内容": "花巻市老人保健施設華の苑【通所リハビリテーション】岩手県花巻市東和町安俵6区75番地1", "url2": "https://www.kaigokensaku.mhlw.go.jp/03/index.php?action_kouhyou_detail_004_kani=true&JigyosyoCd=0370501397-00&ServiceCd=160&Type=search" }, "geometry": { "type": "Point", "coordinates": [ 141.224241799999959, 39.3844338 ] } },
{ "type": "Feature", "properties": { "内容": "総合花巻病院通所リハビリテーション【通所リハビリテーション】岩手県花巻市御田屋町4－56", "url2": "https://www.kaigokensaku.mhlw.go.jp/03/index.php?action_kouhyou_detail_004_kani=true&JigyosyoCd=0370502015-00&ServiceCd=160&Type=search" }, "geometry": { "type": "Point", "coordinates": [ 141.1233569, 39.3867913 ] } },
{ "type": "Feature", "properties": { "内容": "ゆかわ脳外科【通所リハビリテーション】岩手県花巻市西大通り2丁目2-10", "url2": "https://www.kaigokensaku.mhlw.go.jp/03/index.php?action_kouhyou_detail_004_kani=true&JigyosyoCd=0370500548-00&ServiceCd=160&Type=search" }, "geometry": { "type": "Point", "coordinates": [ 141.105724199999941, 39.3915806 ] } },
{ "type": "Feature", "properties": { "内容": "宝陽病院通所リハビリテーション事業所【通所リハビリテーション】岩手県花巻市石鳥谷町新堀第１５地割２３番地", "url2": "https://www.kaigokensaku.mhlw.go.jp/03/index.php?action_kouhyou_detail_004_kani=true&JigyosyoCd=0372300178-00&ServiceCd=160&Type=search" }, "geometry": { "type": "Point", "coordinates": [ 141.169003771827647, 39.496764595446898 ] } },
{ "type": "Feature", "properties": { "内容": "介護老人保健施設まつみ【通所リハビリテーション】岩手県北上市和賀町長沼5-350-1", "url2": "https://www.kaigokensaku.mhlw.go.jp/03/index.php?action_kouhyou_detail_004_kani=true&JigyosyoCd=0350680039-00&ServiceCd=160&Type=search" }, "geometry": { "type": "Point", "coordinates": [ 141.0282277, 39.299589 ] } },
{ "type": "Feature", "properties": { "内容": "日高見中央クリニック【通所リハビリテーション】岩手県北上市北鬼柳22-46", "url2": "https://www.kaigokensaku.mhlw.go.jp/03/index.php?action_kouhyou_detail_004_kani=true&JigyosyoCd=0310611157-00&ServiceCd=160&Type=search" }, "geometry": { "type": "Point", "coordinates": [ 141.095856199999957, 39.2913 ] } },
{ "type": "Feature", "properties": { "内容": "介護老人保健施設たいわ　通所リハビリテーション【通所リハビリテーション】岩手県北上市北鬼柳20-20", "url2": "https://www.kaigokensaku.mhlw.go.jp/03/index.php?action_kouhyou_detail_004_kani=true&JigyosyoCd=0350690010-00&ServiceCd=160&Type=search" }, "geometry": { "type": "Point", "coordinates": [ 141.089357506173229, 39.293472882774125 ] } },
{ "type": "Feature", "properties": { "内容": "リハビリタウンくじ通所リハビリテーション【通所リハビリテーション】岩手県久慈市旭町８－１００－２", "url2": "https://www.kaigokensaku.mhlw.go.jp/03/index.php?action_kouhyou_detail_004_kani=true&JigyosyoCd=0350780003-00&ServiceCd=160&Type=search" }, "geometry": { "type": "Point", "coordinates": [ 141.774629299999987, 40.2003286 ] } },
{ "type": "Feature", "properties": { "内容": "通所リハビリテーションけいあい【通所リハビリテーション】岩手県久慈市湊町第17地割100番地", "url2": "https://www.kaigokensaku.mhlw.go.jp/03/index.php?action_kouhyou_detail_004_kani=true&JigyosyoCd=0310710413-00&ServiceCd=160&Type=search" }, "geometry": { "type": "Point", "coordinates": [ 141.7903943, 40.2006813 ] } },
{ "type": "Feature", "properties": { "内容": "介護老人保健施設欅の里【通所リハビリテーション】岩手県久慈市小久慈町１６－１２－１", "url2": "https://www.kaigokensaku.mhlw.go.jp/03/index.php?action_kouhyou_detail_004_kani=true&JigyosyoCd=0350780011-00&ServiceCd=160&Type=search" }, "geometry": { "type": "Point", "coordinates": [ 141.74527399629514, 40.165679093957792 ] } },
{ "type": "Feature", "properties": { "内容": "介護老人保健施設やまゆりの里【通所リハビリテーション】岩手県遠野市宮守町達曽部27地割20番地11", "url2": "https://www.kaigokensaku.mhlw.go.jp/03/index.php?action_kouhyou_detail_004_kani=true&JigyosyoCd=0352980015-00&ServiceCd=160&Type=search" }, "geometry": { "type": "Point", "coordinates": [ 141.346711499999969, 39.3805009 ] } },
{ "type": "Feature", "properties": { "内容": "介護老人保健施設とおの【通所リハビリテーション】岩手県遠野市松崎町白岩１３－３０－２", "url2": "https://www.kaigokensaku.mhlw.go.jp/03/index.php?action_kouhyou_detail_004_kani=true&JigyosyoCd=0350880019-00&ServiceCd=160&Type=search" }, "geometry": { "type": "Point", "coordinates": [ 141.5410386, 39.3437294 ] } },
{ "type": "Feature", "properties": { "内容": "介護老人保健施設華松苑【通所リハビリテーション】岩手県一関市花泉町涌津字悪法師38-31", "url2": "https://www.kaigokensaku.mhlw.go.jp/03/index.php?action_kouhyou_detail_004_kani=true&JigyosyoCd=0352680011-00&ServiceCd=160&Type=search" }, "geometry": { "type": "Point", "coordinates": [ 141.1909968, 38.800511 ] } },
{ "type": "Feature", "properties": { "内容": "介護老人保健施設さいき【通所リハビリテーション】岩手県一関市東山町松川字卯入道121", "url2": "https://www.kaigokensaku.mhlw.go.jp/03/index.php?action_kouhyou_detail_004_kani=true&JigyosyoCd=0350910518-00&ServiceCd=160&Type=search" }, "geometry": { "type": "Point", "coordinates": [ 141.24936839999998, 38.9615806 ] } },
{ "type": "Feature", "properties": { "内容": "介護老人保健施設ほうらい【通所リハビリテーション】岩手県一関市大東町渋民字大洞地５５－１", "url2": "https://www.kaigokensaku.mhlw.go.jp/03/index.php?action_kouhyou_detail_004_kani=true&JigyosyoCd=0352780035-00&ServiceCd=160&Type=search" }, "geometry": { "type": "Point", "coordinates": [ 141.338896400000067, 39.0209708 ] } },
{ "type": "Feature", "properties": { "内容": "一関中央クリニック【通所リハビリテーション】岩手県一関市中央町二丁目４番２号", "url2": "https://www.kaigokensaku.mhlw.go.jp/03/index.php?action_kouhyou_detail_004_kani=true&JigyosyoCd=0370900086-00&ServiceCd=160&Type=search" }, "geometry": { "type": "Point", "coordinates": [ 141.129083499999979, 38.9373178 ] } },
{ "type": "Feature", "properties": { "内容": "介護老人保健施設やまゆり【通所リハビリテーション】岩手県一関市千厩町千厩字宮敷４５番地１", "url2": "https://www.kaigokensaku.mhlw.go.jp/03/index.php?action_kouhyou_detail_004_kani=true&JigyosyoCd=0372700658-00&ServiceCd=160&Type=search" }, "geometry": { "type": "Point", "coordinates": [ 141.339411599999949, 38.9230737 ] } },
{ "type": "Feature", "properties": { "内容": "介護老人保健施設シルバーヘルス一関【通所リハビリテーション】岩手県一関市字沢298番地2", "url2": "https://www.kaigokensaku.mhlw.go.jp/03/index.php?action_kouhyou_detail_004_kani=true&JigyosyoCd=0350980025-00&ServiceCd=160&Type=search" }, "geometry": { "type": "Point", "coordinates": [ 141.1517103, 38.902228200000025 ] } },
{ "type": "Feature", "properties": { "内容": "医療法人あけぼの会さくらリハビリテーション【通所リハビリテーション】岩手県一関市竹山町５番３４", "url2": "https://www.kaigokensaku.mhlw.go.jp/03/index.php?action_kouhyou_detail_004_kani=true&JigyosyoCd=0370901696-00&ServiceCd=160&Type=search" }, "geometry": { "type": "Point", "coordinates": [ 141.126044900000011, 38.9349541 ] } },
{ "type": "Feature", "properties": { "内容": "介護老人保健施設一関ナーシングホーム【通所リハビリテーション】岩手県一関市真柴字吉ケ沢20番地52", "url2": "https://www.kaigokensaku.mhlw.go.jp/03/index.php?action_kouhyou_detail_004_kani=true&JigyosyoCd=0350980017-00&ServiceCd=160&Type=search" }, "geometry": { "type": "Point", "coordinates": [ 141.138317700000016, 38.8812192 ] } },
{ "type": "Feature", "properties": { "内容": "介護老人保健施設松原苑　通所リハビリテーション【通所リハビリテーション】岩手県陸前高田市高田町字中田69－2", "url2": "https://www.kaigokensaku.mhlw.go.jp/03/index.php?action_kouhyou_detail_004_kani=true&JigyosyoCd=0351080007-00&ServiceCd=160&Type=search" }, "geometry": { "type": "Point", "coordinates": [ 141.648759499999983, 39.0147213 ] } },
{ "type": "Feature", "properties": { "内容": "介護老人保健施設はまゆりケアセンター【通所リハビリテーション】岩手県釜石市小佐野町4丁目3-7", "url2": "https://www.kaigokensaku.mhlw.go.jp/03/index.php?action_kouhyou_detail_004_kani=true&JigyosyoCd=0351180013-00&ServiceCd=160&Type=search" }, "geometry": { "type": "Point", "coordinates": [ 141.83584350000001, 39.2617334 ] } },
{ "type": "Feature", "properties": { "内容": "介護老人保健施設フレールはまゆり【通所リハビリテーション】岩手県釜石市小佐野町３丁目９番１号", "url2": "https://www.kaigokensaku.mhlw.go.jp/03/index.php?action_kouhyou_detail_004_kani=true&JigyosyoCd=0351180021-00&ServiceCd=160&Type=search" }, "geometry": { "type": "Point", "coordinates": [ 141.83779329999993, 39.2621 ] } },
{ "type": "Feature", "properties": { "内容": "湯の里にのへ【通所リハビリテーション】岩手県二戸市金田一字湯田２４番地", "url2": "https://www.kaigokensaku.mhlw.go.jp/03/index.php?action_kouhyou_detail_004_kani=true&JigyosyoCd=0351380019-00&ServiceCd=160&Type=search" }, "geometry": { "type": "Point", "coordinates": [ 141.320321, 40.3205541 ] } },
{ "type": "Feature", "properties": { "内容": "通所リハビリテーション希望（のぞみ）【通所リハビリテーション】岩手県八幡平市柏台二丁目8番3号", "url2": "https://www.kaigokensaku.mhlw.go.jp/03/index.php?action_kouhyou_detail_004_kani=true&JigyosyoCd=0351480017-00&ServiceCd=160&Type=search" }, "geometry": { "type": "Point", "coordinates": [ 140.9821581, 39.9152368 ] } },
{ "type": "Feature", "properties": { "内容": "介護老人保健施設岩鷲苑【通所リハビリテーション】岩手県八幡平市大更18地割88番地102", "url2": "https://www.kaigokensaku.mhlw.go.jp/03/index.php?action_kouhyou_detail_004_kani=true&JigyosyoCd=0352180079-00&ServiceCd=160&Type=search" }, "geometry": { "type": "Point", "coordinates": [ 141.092642699999942, 39.8981091 ] } },
{ "type": "Feature", "properties": { "内容": "介護老人保健施設あしろ苑【通所リハビリテーション】岩手県八幡平市川原１２９番", "url2": "https://www.kaigokensaku.mhlw.go.jp/03/index.php?action_kouhyou_detail_004_kani=true&JigyosyoCd=0353280001-00&ServiceCd=160&Type=search" }, "geometry": { "type": "Point", "coordinates": [ 141.058045, 40.1136471 ] } },
{ "type": "Feature", "properties": { "内容": "玉澤リハビリ整形外科【通所リハビリテーション】岩手県奥州市江刺岩谷堂字二本木７１－１", "url2": "https://www.kaigokensaku.mhlw.go.jp/03/index.php?action_kouhyou_detail_004_kani=true&JigyosyoCd=0311510770-00&ServiceCd=160&Type=search" }, "geometry": { "type": "Point", "coordinates": [ 141.16880059999994, 39.18927990000001 ] } },
{ "type": "Feature", "properties": { "内容": "介護老人保健施設清和苑【通所リハビリテーション】岩手県奥州市水沢東大通り1丁目5番30号", "url2": "https://www.kaigokensaku.mhlw.go.jp/03/index.php?action_kouhyou_detail_004_kani=true&JigyosyoCd=0350480018-00&ServiceCd=160&Type=search" }, "geometry": { "type": "Point", "coordinates": [ 141.147957, 39.1398099 ] } },
{ "type": "Feature", "properties": { "内容": "奥州病院指定通所リハビリテーション事業所【通所リハビリテーション】岩手県奥州市水沢東大通り１丁目５番３０号", "url2": "https://www.kaigokensaku.mhlw.go.jp/03/index.php?action_kouhyou_detail_004_kani=true&JigyosyoCd=0371500026-00&ServiceCd=160&Type=search" }, "geometry": { "type": "Point", "coordinates": [ 141.147957, 39.1398099 ] } },
{ "type": "Feature", "properties": { "内容": "美希病院デイ・ケアセンター【通所リハビリテーション】岩手県奥州市前沢古城字丑沢上野100番地", "url2": "https://www.kaigokensaku.mhlw.go.jp/03/index.php?action_kouhyou_detail_004_kani=true&JigyosyoCd=0311510796-00&ServiceCd=160&Type=search" }, "geometry": { "type": "Point", "coordinates": [ 141.12720539999998, 39.0707166 ] } },
{ "type": "Feature", "properties": { "内容": "興生園介護サービスセンター【通所リハビリテーション】岩手県奥州市水沢佐倉河字慶徳27番地１", "url2": "https://www.kaigokensaku.mhlw.go.jp/03/index.php?action_kouhyou_detail_004_kani=true&JigyosyoCd=0350410329-00&ServiceCd=160&Type=search" }, "geometry": { "type": "Point", "coordinates": [ 141.14876463754274, 39.143589700662254 ] } },
{ "type": "Feature", "properties": { "内容": "介護老人保健施設サンライフえさし【通所リハビリテーション】岩手県奥州市江刺岩谷堂字下惣田２９０番地の３", "url2": "https://www.kaigokensaku.mhlw.go.jp/03/index.php?action_kouhyou_detail_004_kani=true&JigyosyoCd=0351280003-00&ServiceCd=160&Type=search" }, "geometry": { "type": "Point", "coordinates": [ 141.182063800000037, 39.1813143 ] } },
{ "type": "Feature", "properties": { "内容": "老人保健施設ハイム・アザレア【通所リハビリテーション】岩手県奥州市前沢古城字丑沢上野１００番地", "url2": "https://www.kaigokensaku.mhlw.go.jp/03/index.php?action_kouhyou_detail_004_kani=true&JigyosyoCd=0352580005-00&ServiceCd=160&Type=search" }, "geometry": { "type": "Point", "coordinates": [ 141.12720539999998, 39.070716599999983 ] } },
{ "type": "Feature", "properties": { "内容": "美山病院デイ・ケアセンター【通所リハビリテーション】岩手県奥州市水沢羽田町字水無沢４９５番地２", "url2": "https://www.kaigokensaku.mhlw.go.jp/03/index.php?action_kouhyou_detail_004_kani=true&JigyosyoCd=0370400293-00&ServiceCd=160&Type=search" }, "geometry": { "type": "Point", "coordinates": [ 141.210935, 39.1294851 ] } },
{ "type": "Feature", "properties": { "内容": "滝沢老人保健施設カルモナ通所リハビリテーション事業部【通所リハビリテーション】岩手県滝沢市高屋敷平11-39", "url2": "https://www.kaigokensaku.mhlw.go.jp/03/index.php?action_kouhyou_detail_004_kani=true&JigyosyoCd=0352180038-00&ServiceCd=160&Type=search" }, "geometry": { "type": "Point", "coordinates": [ 141.091799199999969, 39.7481465 ] } },
{ "type": "Feature", "properties": { "内容": "栃内第二病院【通所リハビリテーション】岩手県滝沢市大釜吉水103番地1", "url2": "https://www.kaigokensaku.mhlw.go.jp/03/index.php?action_kouhyou_detail_004_kani=true&JigyosyoCd=0311610034-00&ServiceCd=160&Type=search" }, "geometry": { "type": "Point", "coordinates": [ 141.057675199999949, 39.6987893 ] } },
{ "type": "Feature", "properties": { "内容": "介護老人保健施設はーとぽーと雫石【通所リハビリテーション】岩手県岩手郡雫石町板橋3-7", "url2": "https://www.kaigokensaku.mhlw.go.jp/03/index.php?action_kouhyou_detail_004_kani=true&JigyosyoCd=0352180046-00&ServiceCd=160&Type=search" }, "geometry": { "type": "Point", "coordinates": [ 141.019636699999978, 39.7018823 ] } },
{ "type": "Feature", "properties": { "内容": "介護老人保健施設はーとぽーと雫石2号館【通所リハビリテーション】岩手県岩手郡雫石町板橋3番地7号", "url2": "https://www.kaigokensaku.mhlw.go.jp/03/index.php?action_kouhyou_detail_004_kani=true&JigyosyoCd=0372101907-00&ServiceCd=160&Type=search" }, "geometry": { "type": "Point", "coordinates": [ 141.019636699999978, 39.7018823 ] } },
{ "type": "Feature", "properties": { "内容": "いわてリハビリテーションセンター通所リハビリテーション【通所リハビリテーション】岩手県岩手郡雫石町七ツ森１６番地２４３", "url2": "https://www.kaigokensaku.mhlw.go.jp/03/index.php?action_kouhyou_detail_004_kani=true&JigyosyoCd=0372101980-00&ServiceCd=160&Type=search" }, "geometry": { "type": "Point", "coordinates": [ 141.012918, 39.7037568 ] } },
{ "type": "Feature", "properties": { "内容": "通所リハビリテーションデイケアくずまき【通所リハビリテーション】岩手県岩手郡葛巻町江刈5-155-7", "url2": "https://www.kaigokensaku.mhlw.go.jp/03/index.php?action_kouhyou_detail_004_kani=true&JigyosyoCd=0352180004-00&ServiceCd=160&Type=search" }, "geometry": { "type": "Point", "coordinates": [ 141.461494499999958, 40.0336446 ] } },
{ "type": "Feature", "properties": { "内容": "北上クリニックデイケアセンター【通所リハビリテーション】岩手県岩手郡岩手町大字五日市11-79-65", "url2": "https://www.kaigokensaku.mhlw.go.jp/03/index.php?action_kouhyou_detail_004_kani=true&JigyosyoCd=0372101931-00&ServiceCd=160&Type=search" }, "geometry": { "type": "Point", "coordinates": [ 141.212005399999953, 39.9665712 ] } },
{ "type": "Feature", "properties": { "内容": "介護老人保健施設ケアホーム川口【通所リハビリテーション】岩手県岩手郡岩手町大字川口第13地割26番地6", "url2": "https://www.kaigokensaku.mhlw.go.jp/03/index.php?action_kouhyou_detail_004_kani=true&JigyosyoCd=0352180061-00&ServiceCd=160&Type=search" }, "geometry": { "type": "Point", "coordinates": [ 141.203514199999972, 39.9135773 ] } },
{ "type": "Feature", "properties": { "内容": "盛岡医療生活協同組合さわやかクリニック【通所リハビリテーション】岩手県岩手郡岩手町大字江刈内第10地割47-2", "url2": "https://www.kaigokensaku.mhlw.go.jp/03/index.php?action_kouhyou_detail_004_kani=true&JigyosyoCd=0372101162-00&ServiceCd=160&Type=search" }, "geometry": { "type": "Point", "coordinates": [ 141.221704169975283, 39.966049060126792 ] } },
{ "type": "Feature", "properties": { "内容": "介護老人保健施設博愛荘デイケアセンター【通所リハビリテーション】岩手県紫波郡矢巾町又兵エ新田第５地割３３５番医療福祉多機能ビル　ケアセンター南昌", "url2": "https://www.kaigokensaku.mhlw.go.jp/03/index.php?action_kouhyou_detail_004_kani=true&JigyosyoCd=0372200816-00&ServiceCd=160&Type=search" }, "geometry": { "type": "Point", "coordinates": [ 141.148782399999959, 39.6131076 ] } },
{ "type": "Feature", "properties": { "内容": "介護老人保健施設シェーンハイムやはば【通所リハビリテーション】岩手県紫波郡矢巾町土橋第11地割35-1", "url2": "https://www.kaigokensaku.mhlw.go.jp/03/index.php?action_kouhyou_detail_004_kani=true&JigyosyoCd=0372201004-00&ServiceCd=160&Type=search" }, "geometry": { "type": "Point", "coordinates": [ 141.172142300000019, 39.5831119 ] } },
{ "type": "Feature", "properties": { "内容": "介護老人保健施設清水苑【通所リハビリテーション】岩手県和賀郡西和賀町清水ヶ野18地割167番地1", "url2": "https://www.kaigokensaku.mhlw.go.jp/03/index.php?action_kouhyou_detail_004_kani=true&JigyosyoCd=0352410040-00&ServiceCd=160&Type=search" }, "geometry": { "type": "Point", "coordinates": [ 140.762761100000034, 39.3591657 ] } },
{ "type": "Feature", "properties": { "内容": "町立西和賀さわうち病院【通所リハビリテーション】岩手県和賀郡西和賀町沢内字大野13-3-12", "url2": "https://www.kaigokensaku.mhlw.go.jp/03/index.php?action_kouhyou_detail_004_kani=true&JigyosyoCd=0312410475-00&ServiceCd=160&Type=search" }, "geometry": { "type": "Point", "coordinates": [ 140.761474799999974, 39.3724417 ] } },
{ "type": "Feature", "properties": { "内容": "介護老人保健施設快老苑金ヶ崎【通所リハビリテーション】岩手県胆沢郡金ヶ崎町西根鑓水１０３－１", "url2": "https://www.kaigokensaku.mhlw.go.jp/03/index.php?action_kouhyou_detail_004_kani=true&JigyosyoCd=0352580013-00&ServiceCd=160&Type=search" }, "geometry": { "type": "Point", "coordinates": [ 141.11116370000002, 39.1947671 ] } },
{ "type": "Feature", "properties": { "内容": "花憩庵デイケアセンター【通所リハビリテーション】岩手県胆沢郡金ケ崎町西根谷来浦46番地1", "url2": "https://www.kaigokensaku.mhlw.go.jp/03/index.php?action_kouhyou_detail_004_kani=true&JigyosyoCd=0312510522-00&ServiceCd=160&Type=search" }, "geometry": { "type": "Point", "coordinates": [ 141.1148962, 39.1995647 ] } },
{ "type": "Feature", "properties": { "内容": "介護老人保健施設さわなり苑【通所リハビリテーション】岩手県西磐井郡平泉町長島字砂子沢６番１", "url2": "https://www.kaigokensaku.mhlw.go.jp/03/index.php?action_kouhyou_detail_004_kani=true&JigyosyoCd=0352680003-00&ServiceCd=160&Type=search" }, "geometry": { "type": "Point", "coordinates": [ 141.145296700000017, 38.9960844 ] } },
{ "type": "Feature", "properties": { "内容": "介護老人保健施設ケアプラザおおつち【通所リハビリテーション】岩手県上閉伊郡大槌町小鎚第１４地割字蕨打直８２－１", "url2": "https://www.kaigokensaku.mhlw.go.jp/03/index.php?action_kouhyou_detail_004_kani=true&JigyosyoCd=0352980007-00&ServiceCd=160&Type=search" }, "geometry": { "type": "Point", "coordinates": [ 141.890800300000024, 39.3564115 ] } },
{ "type": "Feature", "properties": { "内容": "近藤医院リハビリデイケアセンター【通所リハビリテーション】岩手県下閉伊郡山田町飯岡9-23-1", "url2": "https://www.kaigokensaku.mhlw.go.jp/03/index.php?action_kouhyou_detail_004_kani=true&JigyosyoCd=0313010530-00&ServiceCd=160&Type=search" }, "geometry": { "type": "Point", "coordinates": [ 141.936827599999987, 39.4591862 ] } },
{ "type": "Feature", "properties": { "内容": "介護老人保健施設ふれんどりー岩泉【通所リハビリテーション】岩手県下閉伊郡岩泉町乙茂字上９－１２", "url2": "https://www.kaigokensaku.mhlw.go.jp/03/index.php?action_kouhyou_detail_004_kani=true&JigyosyoCd=0353080026-00&ServiceCd=160&Type=search" }, "geometry": { "type": "Point", "coordinates": [ 141.858892400000059, 39.8400444 ] } },
{ "type": "Feature", "properties": { "内容": "介護老人保健施設花の里かるまい【通所リハビリテーション】岩手県九戸郡軽米町大字軽米第６地割８９番地１", "url2": "https://www.kaigokensaku.mhlw.go.jp/03/index.php?action_kouhyou_detail_004_kani=true&JigyosyoCd=0353180011-00&ServiceCd=160&Type=search" }, "geometry": { "type": "Point", "coordinates": [ 141.458119399999987, 40.3150302 ] } },
{ "type": "Feature", "properties": { "内容": "介護老人保健施設ユートピア白滝【通所リハビリテーション】岩手県九戸郡洋野町中野第３地割３８－１８２", "url2": "https://www.kaigokensaku.mhlw.go.jp/03/index.php?action_kouhyou_detail_004_kani=true&JigyosyoCd=0353180003-00&ServiceCd=160&Type=search" }, "geometry": { "type": "Point", "coordinates": [ 141.78188190000003, 40.3065538 ] } }
]
}
