{
"type": "FeatureCollection",
"name": "geo_03_特別支援学校",
"crs": { "type": "name", "properties": { "name": "urn:ogc:def:crs:EPSG::6668" } },
"features": [
{ "type": "Feature", "properties": { "P29_001": "03201", "P29_002": "E103110000011", "P29_003": "16012", "P29_004": "岩手大学教育学部附属特別支援学校", "P29_005": "岩手県盛岡市東安庭3-4-20", "P29_006": "1", "P29_007": "0", "P29_008": "00", "P29_009": null }, "geometry": { "type": "Point", "coordinates": [ 141.167201921663832, 39.678523814152534 ] } },
{ "type": "Feature", "properties": { "P29_001": "03201", "P29_002": "E103220100017", "P29_003": "16012", "P29_004": "岩手県立盛岡視覚支援学校", "P29_005": "岩手県盛岡市北山1-10-1", "P29_006": "2", "P29_007": "0", "P29_008": "00", "P29_009": null }, "geometry": { "type": "Point", "coordinates": [ 141.149536998999764, 39.713090002066608 ] } },
{ "type": "Feature", "properties": { "P29_001": "03201", "P29_002": "E103220100026", "P29_003": "16012", "P29_004": "岩手県立盛岡聴覚支援学校", "P29_005": "岩手県盛岡市乙部4-78-2", "P29_006": "2", "P29_007": "0", "P29_008": "00", "P29_009": null }, "geometry": { "type": "Point", "coordinates": [ 141.191916752206481, 39.621494623964615 ] } },
{ "type": "Feature", "properties": { "P29_001": "03201", "P29_002": "E103220100035", "P29_003": "16012", "P29_004": "岩手県立盛岡峰南高等支援学校", "P29_005": "岩手県盛岡市下飯岡11-152", "P29_006": "2", "P29_007": "0", "P29_008": "00", "P29_009": null }, "geometry": { "type": "Point", "coordinates": [ 141.128354579415316, 39.670950321566011 ] } },
{ "type": "Feature", "properties": { "P29_001": "03201", "P29_002": "E103220100044", "P29_003": "16012", "P29_004": "岩手県立盛岡青松支援学校", "P29_005": "岩手県盛岡市上田字松屋敷11-25", "P29_006": "2", "P29_007": "0", "P29_008": "00", "P29_009": null }, "geometry": { "type": "Point", "coordinates": [ 141.155946917840112, 39.760232724948949 ] } },
{ "type": "Feature", "properties": { "P29_001": "03201", "P29_002": "E103220100053", "P29_003": "16012", "P29_004": "岩手県立盛岡ひがし支援学校", "P29_005": "岩手県盛岡市手代森6-10-14", "P29_006": "2", "P29_007": "0", "P29_008": "00", "P29_009": null }, "geometry": { "type": "Point", "coordinates": [ 141.179717924225457, 39.661265132118871 ] } },
{ "type": "Feature", "properties": { "P29_001": "03202", "P29_002": "E103220200016", "P29_003": "16012", "P29_004": "岩手県立宮古恵風支援学校", "P29_005": "岩手県宮古市崎山第5-88", "P29_006": "2", "P29_007": "0", "P29_008": "00", "P29_009": null }, "geometry": { "type": "Point", "coordinates": [ 141.949885779881413, 39.697065107395048 ] } },
{ "type": "Feature", "properties": { "P29_001": "03203", "P29_002": "E103220300015", "P29_003": "16012", "P29_004": "岩手県立気仙光陵支援学校", "P29_005": "岩手県大船渡市立根町字宮田33-3", "P29_006": "2", "P29_007": "0", "P29_008": "00", "P29_009": null }, "geometry": { "type": "Point", "coordinates": [ 141.715347375572208, 39.100557751184155 ] } },
{ "type": "Feature", "properties": { "P29_001": "03205", "P29_002": "E103220500013", "P29_003": "16012", "P29_004": "岩手県立花巻清風支援学校", "P29_005": "岩手県花巻市太田27-207-4", "P29_006": "2", "P29_007": "0", "P29_008": "00", "P29_009": null }, "geometry": { "type": "Point", "coordinates": [ 141.039998676636543, 39.380089000804183 ] } },
{ "type": "Feature", "properties": { "P29_001": "03207", "P29_002": "E103220700011", "P29_003": "16012", "P29_004": "岩手県立久慈拓陽支援学校", "P29_005": "岩手県久慈市侍浜町堀切10-56-46", "P29_006": "2", "P29_007": "0", "P29_008": "00", "P29_009": null }, "geometry": { "type": "Point", "coordinates": [ 141.768030902309675, 40.257135225040223 ] } },
{ "type": "Feature", "properties": { "P29_001": "03209", "P29_002": "E103220900019", "P29_003": "16012", "P29_004": "岩手県立一関清明支援学校", "P29_005": "岩手県一関市赤荻字上台96-5", "P29_006": "2", "P29_007": "0", "P29_008": "00", "P29_009": null }, "geometry": { "type": "Point", "coordinates": [ 141.090243133841454, 38.932761772638493 ] } },
{ "type": "Feature", "properties": { "P29_001": "03211", "P29_002": "E103221100015", "P29_003": "16012", "P29_004": "岩手県立釜石祥雲支援学校", "P29_005": "岩手県釜石市平田町3-1700", "P29_006": "2", "P29_007": "0", "P29_008": "00", "P29_009": null }, "geometry": { "type": "Point", "coordinates": [ 141.889998513941435, 39.23948309516728 ] } },
{ "type": "Feature", "properties": { "P29_001": "03215", "P29_002": "E103221500011", "P29_003": "16012", "P29_004": "岩手県立前沢明峰支援学校", "P29_005": "岩手県奥州市前沢字田畠18-1", "P29_006": "2", "P29_007": "0", "P29_008": "00", "P29_009": null }, "geometry": { "type": "Point", "coordinates": [ 141.126061789942554, 39.060613266793275 ] } },
{ "type": "Feature", "properties": { "P29_001": "03216", "P29_002": "E103221600010", "P29_003": "16012", "P29_004": "岩手県立盛岡みたけ支援学校", "P29_005": "岩手県滝沢市穴口218-4", "P29_006": "2", "P29_007": "0", "P29_008": "00", "P29_009": null }, "geometry": { "type": "Point", "coordinates": [ 141.103122654627839, 39.740627088726107 ] } },
{ "type": "Feature", "properties": { "P29_001": "03322", "P29_002": "E103232200011", "P29_003": "16012", "P29_004": "岩手県立盛岡となん支援学校", "P29_005": "岩手県紫波郡矢巾町医大通2-1-5", "P29_006": "2", "P29_007": "0", "P29_008": "00", "P29_009": null }, "geometry": { "type": "Point", "coordinates": [ 141.164229411969899, 39.618528837279754 ] } },
{ "type": "Feature", "properties": { "P29_001": "03524", "P29_002": "E103252400017", "P29_003": "16012", "P29_004": "岩手県立みたけ支援学校奥中山校", "P29_005": "岩手県二戸郡一戸町奥中山字西田子1054-1", "P29_006": "2", "P29_007": "0", "P29_008": "00", "P29_009": null }, "geometry": { "type": "Point", "coordinates": [ 141.225227570262518, 40.065814635229728 ] } },
{ "type": "Feature", "properties": { "P29_001": "03524", "P29_002": "E103352400015", "P29_003": "16012", "P29_004": "三愛学舎養護学校", "P29_005": "岩手県二戸郡一戸町中山字軽井沢49-33", "P29_006": "4", "P29_007": "0", "P29_008": "00", "P29_009": null }, "geometry": { "type": "Point", "coordinates": [ 141.234906841724467, 40.06932576261682 ] } }
]
}
