{
"type": "FeatureCollection",
"name": "geo_03_認知症対応型通所介護",
"crs": { "type": "name", "properties": { "name": "urn:ogc:def:crs:OGC:1.3:CRS84" } },
"features": [
{ "type": "Feature", "properties": { "内容": "サンパーク笑う門デイサービスセンター【認知症対応型通所介護】岩手県盛岡市門一丁目15－10", "url": "https://www.kaigokensaku.mhlw.go.jp/03/index.php?action_kouhyou_detail_004_kani=true&JigyosyoCd=0370102170-00&ServiceCd=720&Type=search", "url2": "https://www.sunme.co.jp/" }, "geometry": { "type": "Point", "coordinates": [ 141.171166330688465, 39.670406245306211 ] } },
{ "type": "Feature", "properties": { "内容": "デイサービスくるみの家【認知症対応型通所介護】岩手県盛岡市上堂1丁目3番40号", "url": "https://www.kaigokensaku.mhlw.go.jp/03/index.php?action_kouhyou_detail_004_kani=true&JigyosyoCd=0370102287-00&ServiceCd=720&Type=search", "url2": "https://www.kuruminoie.com" }, "geometry": { "type": "Point", "coordinates": [ 141.126813399999946, 39.7245861 ] } },
{ "type": "Feature", "properties": { "内容": "第二のわが家「黒石野」デイサービスセンター【認知症対応型通所介護】岩手県盛岡市黒石野一丁目3番38号", "url": "https://www.kaigokensaku.mhlw.go.jp/03/index.php?action_kouhyou_detail_004_kani=true&JigyosyoCd=0370102261-00&ServiceCd=720&Type=search", "url2": "https://www.wagaya2.com/" }, "geometry": { "type": "Point", "coordinates": [ 141.151842220237796, 39.741048299701397 ] } },
{ "type": "Feature", "properties": { "内容": "JAライフサポートグループホーム花＊花【認知症対応型通所介護】岩手県宮古市蟇目第3地割15番地1", "url": "https://www.kaigokensaku.mhlw.go.jp/03/index.php?action_kouhyou_detail_004_kani=true&JigyosyoCd=0390200327-00&ServiceCd=720&Type=search", "url2": null }, "geometry": { "type": "Point", "coordinates": [ 141.836636, 39.6274438 ] } },
{ "type": "Feature", "properties": { "内容": "グループホームたろう【認知症対応型通所介護】岩手県宮古市崎鍬ヶ崎９－３９－１グループホームたろう", "url": "https://www.kaigokensaku.mhlw.go.jp/03/index.php?action_kouhyou_detail_004_kani=true&JigyosyoCd=0390200269-00&ServiceCd=720&Type=search", "url2": "https://www.hohoeminosato.jp/group/" }, "geometry": { "type": "Point", "coordinates": [ 141.956922800000029, 39.668528 ] } },
{ "type": "Feature", "properties": { "内容": "グループホームおもつべ【認知症対応型通所介護】岩手県宮古市田老字重津部34番77", "url": "https://www.kaigokensaku.mhlw.go.jp/03/index.php?action_kouhyou_detail_004_kani=true&JigyosyoCd=0390200350-00&ServiceCd=720&Type=search", "url2": "http://www.hohoeminosato.jp/" }, "geometry": { "type": "Point", "coordinates": [ 141.964883710975641, 39.764181621570202 ] } },
{ "type": "Feature", "properties": { "内容": "JAいわて花巻グループホームとどろき【認知症対応型通所介護】岩手県花巻市北笹間13-71", "url": "https://www.kaigokensaku.mhlw.go.jp/03/index.php?action_kouhyou_detail_004_kani=true&JigyosyoCd=0390500296-00&ServiceCd=720&Type=search", "url2": "https://www.jahanamaki.or.jp/fukushi/index.html" }, "geometry": { "type": "Point", "coordinates": [ 141.04668205396726, 39.346760992004526 ] } },
{ "type": "Feature", "properties": { "内容": "認知症対応型通所介護銀河の里【認知症対応型通所介護】岩手県花巻市幸田４－１１６－１", "url": "https://www.kaigokensaku.mhlw.go.jp/03/index.php?action_kouhyou_detail_004_kani=true&JigyosyoCd=0370500431-00&ServiceCd=720&Type=search", "url2": "http://www.ginganosato.com" }, "geometry": { "type": "Point", "coordinates": [ 141.19670229999997, 39.3973654 ] } },
{ "type": "Feature", "properties": { "内容": "やちだもの家北上共用型デイサービス【認知症対応型通所介護】岩手県北上市立花17地割1-2ケアタウンやちだもの家Ａ棟", "url": "https://www.kaigokensaku.mhlw.go.jp/03/index.php?action_kouhyou_detail_004_kani=true&JigyosyoCd=0390600419-00&ServiceCd=720&Type=search", "url2": "https://yachidamonoie.dai-ichi.com/" }, "geometry": { "type": "Point", "coordinates": [ 141.140345200000013, 39.2799061 ] } },
{ "type": "Feature", "properties": { "内容": "安寿の里【認知症対応型通所介護】岩手県北上市中野町2丁目12番24号", "url": "https://www.kaigokensaku.mhlw.go.jp/03/index.php?action_kouhyou_detail_004_kani=true&JigyosyoCd=0390600427-00&ServiceCd=720&Type=search", "url2": "https://anju-nakano.com/" }, "geometry": { "type": "Point", "coordinates": [ 141.122951, 39.2939927 ] } },
{ "type": "Feature", "properties": { "内容": "認知症対応型デイサービスセンターきんぎょ【認知症対応型通所介護】岩手県久慈市小久慈町第18地割4番地11", "url": "https://www.kaigokensaku.mhlw.go.jp/03/index.php?action_kouhyou_detail_004_kani=true&JigyosyoCd=0390700136-00&ServiceCd=720&Type=search", "url2": "https://kohakukai.org/" }, "geometry": { "type": "Point", "coordinates": [ 141.737006865745542, 40.168530506229231 ] } },
{ "type": "Feature", "properties": { "内容": "デイサービス暖家【認知症対応型通所介護】岩手県久慈市田屋町1-30-40", "url": "https://www.kaigokensaku.mhlw.go.jp/03/index.php?action_kouhyou_detail_004_kani=true&JigyosyoCd=0390700094-00&ServiceCd=720&Type=search", "url2": null }, "geometry": { "type": "Point", "coordinates": [ 141.774460200000021, 40.1952848 ] } },
{ "type": "Feature", "properties": { "内容": "デイサービスセンターあったかいごひといち【認知症対応型通所介護】岩手県遠野市中央通り5-25", "url": "https://www.kaigokensaku.mhlw.go.jp/03/index.php?action_kouhyou_detail_004_kani=true&JigyosyoCd=0390800118-00&ServiceCd=720&Type=search", "url2": "http://sankyo-ika.jp/" }, "geometry": { "type": "Point", "coordinates": [ 141.5311017, 39.3294561 ] } },
{ "type": "Feature", "properties": { "内容": "グループホームにこにこだいとう【認知症対応型通所介護】岩手県一関市大東町猿沢字板倉60番地１", "url": "https://www.kaigokensaku.mhlw.go.jp/03/index.php?action_kouhyou_detail_004_kani=true&JigyosyoCd=0372700641-00&ServiceCd=720&Type=search", "url2": null }, "geometry": { "type": "Point", "coordinates": [ 141.2947642, 39.0336093 ] } },
{ "type": "Feature", "properties": { "内容": "ディサービスさくらコンフォート【認知症対応型通所介護】岩手県一関市三関字日照77-2", "url": "https://www.kaigokensaku.mhlw.go.jp/03/index.php?action_kouhyou_detail_004_kani=true&JigyosyoCd=0390900066-00&ServiceCd=720&Type=search", "url2": null }, "geometry": { "type": "Point", "coordinates": [ 141.1493372, 38.9289921 ] } },
{ "type": "Feature", "properties": { "内容": "高田デイサービスセンター指定通所介護事業所【認知症対応型通所介護】岩手県陸前高田市高田町字鳴石52番地31", "url": "https://www.kaigokensaku.mhlw.go.jp/03/index.php?action_kouhyou_detail_004_kani=true&JigyosyoCd=0371000068-00&ServiceCd=720&Type=search", "url2": "http://rikutaka-koujyukai.com/" }, "geometry": { "type": "Point", "coordinates": [ 141.6289501, 39.023989 ] } },
{ "type": "Feature", "properties": { "内容": "デイサービスやかた【認知症対応型通所介護】岩手県釜石市大町三丁目9－16", "url": "https://www.kaigokensaku.mhlw.go.jp/03/index.php?action_kouhyou_detail_004_kani=true&JigyosyoCd=0391100120-00&ServiceCd=720&Type=search", "url2": "http://yakata-home.com/" }, "geometry": { "type": "Point", "coordinates": [ 141.882110900000043, 39.2754573 ] } },
{ "type": "Feature", "properties": { "内容": "デイサービスセンター善【認知症対応型通所介護】岩手県釜石市大字平田第３地割２９番地１０", "url": "https://www.kaigokensaku.mhlw.go.jp/03/index.php?action_kouhyou_detail_004_kani=true&JigyosyoCd=0371100777-00&ServiceCd=720&Type=search", "url2": "https://zen-project.jimdoweb.com/" }, "geometry": { "type": "Point", "coordinates": [ 141.8856953, 39.2465751 ] } },
{ "type": "Feature", "properties": { "内容": "認知症対応型通所介護事業所里・つむぎ【認知症対応型通所介護】岩手県八幡平市田頭12-99-1", "url": "https://www.kaigokensaku.mhlw.go.jp/03/index.php?action_kouhyou_detail_004_kani=true&JigyosyoCd=0391400074-00&ServiceCd=720&Type=search", "url2": "http://www.s-tumugi.jp" }, "geometry": { "type": "Point", "coordinates": [ 141.063026468261683, 39.92819892740156 ] } },
{ "type": "Feature", "properties": { "内容": "ふじの里デイサービスルーム【認知症対応型通所介護】岩手県奥州市江刺藤里字平37番地２", "url": "https://www.kaigokensaku.mhlw.go.jp/03/index.php?action_kouhyou_detail_004_kani=true&JigyosyoCd=0391500162-00&ServiceCd=720&Type=search", "url2": "http://www.koyo-esashi.co.jp" }, "geometry": { "type": "Point", "coordinates": [ 141.234172299999955, 39.1874707 ] } },
{ "type": "Feature", "properties": { "内容": "ぬくもりの家デイサービスセンター【認知症対応型通所介護】岩手県奥州市胆沢南都田字大持30番地", "url": "https://www.kaigokensaku.mhlw.go.jp/03/index.php?action_kouhyou_detail_004_kani=true&JigyosyoCd=0372500488-00&ServiceCd=720&Type=search", "url2": "https://www.oshuisawakai.iwate.jp/" }, "geometry": { "type": "Point", "coordinates": [ 141.06935610000005, 39.129350500000015 ] } },
{ "type": "Feature", "properties": { "内容": "ケアホームまごのてお茶のみクラブ【認知症対応型通所介護】岩手県滝沢市野沢62-1041", "url": "https://www.kaigokensaku.mhlw.go.jp/03/index.php?action_kouhyou_detail_004_kani=true&JigyosyoCd=0391600046-00&ServiceCd=720&Type=search", "url2": "http://www.magonote.cc" }, "geometry": { "type": "Point", "coordinates": [ 141.150153100000011, 39.7971304 ] } },
{ "type": "Feature", "properties": { "内容": "デイサービスセンターおうしゅく【認知症対応型通所介護】岩手県岩手郡雫石町鶯宿第9地割67番地1特別養護老人ホームおうしゅく", "url": "https://www.kaigokensaku.mhlw.go.jp/03/index.php?action_kouhyou_detail_004_kani=true&JigyosyoCd=0392100186-00&ServiceCd=720&Type=search", "url2": "http://www.sg-miyagikai.jp/office/5723/" }, "geometry": { "type": "Point", "coordinates": [ 140.930896033853514, 39.641011488479975 ] } },
{ "type": "Feature", "properties": { "内容": "デイサービス和や家～なごやか～【認知症対応型通所介護】岩手県岩手郡岩手町大字沼宮内第18地割85番地4", "url": "https://www.kaigokensaku.mhlw.go.jp/03/index.php?action_kouhyou_detail_004_kani=true&JigyosyoCd=0392100020-00&ServiceCd=720&Type=search", "url2": "https://kaigoiwate.com" }, "geometry": { "type": "Point", "coordinates": [ 141.2370108, 39.999587400000017 ] } },
{ "type": "Feature", "properties": { "内容": "デイサービスつむぎ【認知症対応型通所介護】岩手県紫波郡矢巾町又兵エ新田第５地割335番地医療福祉多機能ビル　ケアセンター南昌", "url": "https://www.kaigokensaku.mhlw.go.jp/03/index.php?action_kouhyou_detail_004_kani=true&JigyosyoCd=0392200044-00&ServiceCd=720&Type=search", "url2": "http://www.ccnansyou.com/" }, "geometry": { "type": "Point", "coordinates": [ 141.142827399999987, 39.6137574 ] } },
{ "type": "Feature", "properties": { "内容": "医療法人社団真心会グループホーム笹の木【認知症対応型通所介護】岩手県和賀郡西和賀町湯本30地割74-8", "url": "https://www.kaigokensaku.mhlw.go.jp/03/index.php?action_kouhyou_detail_004_kani=true&JigyosyoCd=0392400040-00&ServiceCd=720&Type=search", "url2": null }, "geometry": { "type": "Point", "coordinates": [ 140.773349200000013, 39.3404355 ] } },
{ "type": "Feature", "properties": { "内容": "デイサービスセンターぶなの園【認知症対応型通所介護】岩手県和賀郡西和賀町沢内字太田２地割１３５番地", "url": "https://www.kaigokensaku.mhlw.go.jp/03/index.php?action_kouhyou_detail_004_kani=true&JigyosyoCd=0372400150-00&ServiceCd=720&Type=search", "url2": "http://yasuragikai.com/" }, "geometry": { "type": "Point", "coordinates": [ 140.749502099999972, 39.431738 ] } },
{ "type": "Feature", "properties": { "内容": "介護予防施設西光荘【認知症対応型通所介護】岩手県胆沢郡金ケ崎町西根和光５４４番地２", "url": "https://www.kaigokensaku.mhlw.go.jp/03/index.php?action_kouhyou_detail_004_kani=true&JigyosyoCd=0392500021-00&ServiceCd=720&Type=search", "url2": "https://kanegasaki.oshushi.com/seikoso.php" }, "geometry": { "type": "Point", "coordinates": [ 141.003750599999989, 39.1889111 ] } },
{ "type": "Feature", "properties": { "内容": "デイサービスセンターいこいの杜【認知症対応型通所介護】岩手県西磐井郡平泉町平泉字樋の沢25-1", "url": "https://www.kaigokensaku.mhlw.go.jp/03/index.php?action_kouhyou_detail_004_kani=true&JigyosyoCd=0392600037-00&ServiceCd=720&Type=search", "url2": "http://www.cc-ikoi.com/" }, "geometry": { "type": "Point", "coordinates": [ 141.1225844, 38.961565 ] } },
{ "type": "Feature", "properties": { "内容": "デイサービスつくえ【認知症対応型通所介護】岩手県下閉伊郡田野畑村机２９９番地", "url": "https://www.kaigokensaku.mhlw.go.jp/03/index.php?action_kouhyou_detail_004_kani=true&JigyosyoCd=0393000088-00&ServiceCd=720&Type=search", "url2": null }, "geometry": { "type": "Point", "coordinates": [ 141.934858800000029, 39.9636568 ] } },
{ "type": "Feature", "properties": { "内容": "デイサービスぬくもり【認知症対応型通所介護】岩手県九戸郡野田村大字玉川第５地割４５－２２", "url": "https://www.kaigokensaku.mhlw.go.jp/03/index.php?action_kouhyou_detail_004_kani=true&JigyosyoCd=0393100185-00&ServiceCd=720&Type=search", "url2": "https://kenjikai-officialhomepage.vercel.app/" }, "geometry": { "type": "Point", "coordinates": [ 141.828302200000053, 40.0830032 ] } },
{ "type": "Feature", "properties": { "内容": "グループホームにこトピア一戸【認知症対応型通所介護】岩手県二戸郡一戸町一戸字向町56番地1", "url": "https://www.kaigokensaku.mhlw.go.jp/03/index.php?action_kouhyou_detail_004_kani=true&JigyosyoCd=0391300019-00&ServiceCd=720&Type=search", "url2": null }, "geometry": { "type": "Point", "coordinates": [ 141.2997791, 40.2156701 ] } }
]
}
