{
"type": "FeatureCollection",
"name": "geo_03_地域密着型通所介護",
"crs": { "type": "name", "properties": { "name": "urn:ogc:def:crs:OGC:1.3:CRS84" } },
"features": [
{ "type": "Feature", "properties": { "内容": "デイサービスぐっとなる【地域密着型通所介護】岩手県盛岡市繋字湯ノ舘81-1", "url2": "https://www.kaigokensaku.mhlw.go.jp/03/index.php?action_kouhyou_detail_004_kani=true&JigyosyoCd=0390100881-00&ServiceCd=780&Type=search" }, "geometry": { "type": "Point", "coordinates": [ 141.023847, 39.6784875 ] } },
{ "type": "Feature", "properties": { "内容": "きさいや【地域密着型通所介護】岩手県盛岡市みたけ六丁目11番40号", "url2": "https://www.kaigokensaku.mhlw.go.jp/03/index.php?action_kouhyou_detail_004_kani=true&JigyosyoCd=0370105884-00&ServiceCd=780&Type=search" }, "geometry": { "type": "Point", "coordinates": [ 141.11677480000003, 39.7442311 ] } },
{ "type": "Feature", "properties": { "内容": "四葉デイサービスセンター【地域密着型通所介護】岩手県盛岡市高松３丁目６番１９号", "url2": "https://www.kaigokensaku.mhlw.go.jp/03/index.php?action_kouhyou_detail_004_kani=true&JigyosyoCd=0370104218-00&ServiceCd=780&Type=search" }, "geometry": { "type": "Point", "coordinates": [ 141.139210100000014, 39.7268447 ] } },
{ "type": "Feature", "properties": { "内容": "ディーサービスみずほの国【地域密着型通所介護】岩手県盛岡市茶畑一丁目1番5号グリーンビレッジ盛岡Ａ棟101号", "url2": "https://www.kaigokensaku.mhlw.go.jp/03/index.php?action_kouhyou_detail_004_kani=true&JigyosyoCd=0370101495-00&ServiceCd=780&Type=search" }, "geometry": { "type": "Point", "coordinates": [ 141.161225100000024, 39.6939346 ] } },
{ "type": "Feature", "properties": { "内容": "デイサービスプリンセス【地域密着型通所介護】岩手県盛岡市天昌寺町7番18号", "url2": "https://www.kaigokensaku.mhlw.go.jp/03/index.php?action_kouhyou_detail_004_kani=true&JigyosyoCd=0370105520-00&ServiceCd=780&Type=search" }, "geometry": { "type": "Point", "coordinates": [ 141.119536899999957, 39.7115408 ] } },
{ "type": "Feature", "properties": { "内容": "ななかまど通所介護事業所【地域密着型通所介護】岩手県盛岡市中央通2丁目5-5", "url2": "https://www.kaigokensaku.mhlw.go.jp/03/index.php?action_kouhyou_detail_004_kani=true&JigyosyoCd=0370105793-00&ServiceCd=780&Type=search" }, "geometry": { "type": "Point", "coordinates": [ 141.1457289, 39.706202200000014 ] } },
{ "type": "Feature", "properties": { "内容": "通所介護事業所ななかまど津志田【地域密着型通所介護】岩手県盛岡市津志田町３丁目６－１５", "url2": "https://www.kaigokensaku.mhlw.go.jp/03/index.php?action_kouhyou_detail_004_kani=true&JigyosyoCd=0390100584-00&ServiceCd=780&Type=search" }, "geometry": { "type": "Point", "coordinates": [ 141.152129, 39.6651393 ] } },
{ "type": "Feature", "properties": { "内容": "ケアセンター福寿の森【地域密着型通所介護】岩手県盛岡市本宮六丁目１番４７号", "url2": "https://www.kaigokensaku.mhlw.go.jp/03/index.php?action_kouhyou_detail_004_kani=true&JigyosyoCd=0370102501-00&ServiceCd=780&Type=search" }, "geometry": { "type": "Point", "coordinates": [ 141.125386766270481, 39.687958797374769 ] } },
{ "type": "Feature", "properties": { "内容": "デイサービスふきのとう小鳥沢【地域密着型通所介護】岩手県盛岡市小鳥沢一丁目31-20", "url2": "https://www.kaigokensaku.mhlw.go.jp/03/index.php?action_kouhyou_detail_004_kani=true&JigyosyoCd=0390100717-00&ServiceCd=780&Type=search" }, "geometry": { "type": "Point", "coordinates": [ 141.164490199999989, 39.7631526 ] } },
{ "type": "Feature", "properties": { "内容": "デイサービス・オリオンきらら【地域密着型通所介護】岩手県盛岡市岩脇町１９番３１号", "url2": "https://www.kaigokensaku.mhlw.go.jp/03/index.php?action_kouhyou_detail_004_kani=true&JigyosyoCd=0390100915-00&ServiceCd=780&Type=search" }, "geometry": { "type": "Point", "coordinates": [ 141.144905599999987, 39.7439824 ] } },
{ "type": "Feature", "properties": { "内容": "あおぞらデイサービス【地域密着型通所介護】岩手県盛岡市津志田町一丁目15番37号", "url2": "https://www.kaigokensaku.mhlw.go.jp/03/index.php?action_kouhyou_detail_004_kani=true&JigyosyoCd=0370102030-00&ServiceCd=780&Type=search" }, "geometry": { "type": "Point", "coordinates": [ 141.15336, 39.6680375 ] } },
{ "type": "Feature", "properties": { "内容": "レッツ倶楽部盛岡【地域密着型通所介護】岩手県盛岡市前九年二丁目1番12号", "url2": "https://www.kaigokensaku.mhlw.go.jp/03/index.php?action_kouhyou_detail_004_kani=true&JigyosyoCd=0370105678-00&ServiceCd=780&Type=search" }, "geometry": { "type": "Point", "coordinates": [ 141.128788500000041, 39.71603420000001 ] } },
{ "type": "Feature", "properties": { "内容": "あったかいごデイサービス黒川【地域密着型通所介護】岩手県盛岡市黒川18-99", "url2": "https://www.kaigokensaku.mhlw.go.jp/03/index.php?action_kouhyou_detail_004_kani=true&JigyosyoCd=0390100816-00&ServiceCd=780&Type=search" }, "geometry": { "type": "Point", "coordinates": [ 141.186434748407436, 39.626864441680127 ] } },
{ "type": "Feature", "properties": { "内容": "ふらダンスのデイ「ふくろうの家」【地域密着型通所介護】岩手県盛岡市南青山町１９－２４", "url2": "https://www.kaigokensaku.mhlw.go.jp/03/index.php?action_kouhyou_detail_004_kani=true&JigyosyoCd=0370103301-00&ServiceCd=780&Type=search" }, "geometry": { "type": "Point", "coordinates": [ 141.109501200000068, 39.719425 ] } },
{ "type": "Feature", "properties": { "内容": "デイサービスみにとまと【地域密着型通所介護】岩手県盛岡市浅岸3丁目19-16", "url2": "https://www.kaigokensaku.mhlw.go.jp/03/index.php?action_kouhyou_detail_004_kani=true&JigyosyoCd=0370103871-00&ServiceCd=780&Type=search" }, "geometry": { "type": "Point", "coordinates": [ 141.1621298, 39.649053300000013 ] } },
{ "type": "Feature", "properties": { "内容": "デイサービスこずかたの家【地域密着型通所介護】岩手県盛岡市太田6丁目5番32号", "url2": "https://www.kaigokensaku.mhlw.go.jp/03/index.php?action_kouhyou_detail_004_kani=true&JigyosyoCd=0390100576-00&ServiceCd=780&Type=search" }, "geometry": { "type": "Point", "coordinates": [ 141.114176400000048, 39.6986077 ] } },
{ "type": "Feature", "properties": { "内容": "リハビリデイサービスうららか日和【地域密着型通所介護】岩手県盛岡市上田3丁目11番29号メゾンヒラノ102", "url2": "https://www.kaigokensaku.mhlw.go.jp/03/index.php?action_kouhyou_detail_004_kani=true&JigyosyoCd=0390100808-00&ServiceCd=780&Type=search" }, "geometry": { "type": "Point", "coordinates": [ 141.138359243053316, 39.717772889085403 ] } },
{ "type": "Feature", "properties": { "内容": "デイサービスこと【地域密着型通所介護】岩手県盛岡市山岸６丁目20番23号", "url2": "https://www.kaigokensaku.mhlw.go.jp/03/index.php?action_kouhyou_detail_004_kani=true&JigyosyoCd=0390100832-00&ServiceCd=780&Type=search" }, "geometry": { "type": "Point", "coordinates": [ 141.1707276, 39.7284269 ] } },
{ "type": "Feature", "properties": { "内容": "中央ケアサービス指定通所介護事業所【地域密着型通所介護】岩手県盛岡市松尾町２－３", "url2": "https://www.kaigokensaku.mhlw.go.jp/03/index.php?action_kouhyou_detail_004_kani=true&JigyosyoCd=0370101537-00&ServiceCd=780&Type=search" }, "geometry": { "type": "Point", "coordinates": [ 141.157336500000042, 39.6960843 ] } },
{ "type": "Feature", "properties": { "内容": "徳寿の森デイサービスセンター【地域密着型通所介護】岩手県盛岡市厨川５丁目１３番２５号徳寿の森", "url2": "https://www.kaigokensaku.mhlw.go.jp/03/index.php?action_kouhyou_detail_004_kani=true&JigyosyoCd=0370102014-00&ServiceCd=780&Type=search" }, "geometry": { "type": "Point", "coordinates": [ 141.128731900000048, 39.7514638 ] } },
{ "type": "Feature", "properties": { "内容": "デイサービス縄文の郷・ゆう【地域密着型通所介護】岩手県盛岡市上田字松屋敷33-3縄文の郷・ゆう", "url2": "https://www.kaigokensaku.mhlw.go.jp/03/index.php?action_kouhyou_detail_004_kani=true&JigyosyoCd=0370103988-00&ServiceCd=780&Type=search" }, "geometry": { "type": "Point", "coordinates": [ 141.155209157672061, 39.755001341323407 ] } },
{ "type": "Feature", "properties": { "内容": "デイサービス・きらら【地域密着型通所介護】岩手県盛岡市箱清水一丁目４番１４号", "url2": "https://www.kaigokensaku.mhlw.go.jp/03/index.php?action_kouhyou_detail_004_kani=true&JigyosyoCd=0370104150-00&ServiceCd=780&Type=search" }, "geometry": { "type": "Point", "coordinates": [ 141.133473699999968, 39.7319493 ] } },
{ "type": "Feature", "properties": { "内容": "GENKINEXT盛岡本宮【地域密着型通所介護】岩手県盛岡市本宮三丁目34番8号", "url2": "https://www.kaigokensaku.mhlw.go.jp/03/index.php?action_kouhyou_detail_004_kani=true&JigyosyoCd=0370104655-00&ServiceCd=780&Type=search" }, "geometry": { "type": "Point", "coordinates": [ 141.131089100000054, 39.6882122 ] } },
{ "type": "Feature", "properties": { "内容": "アースサポート盛岡【地域密着型通所介護】岩手県盛岡市厨川1丁目16番3号", "url2": "https://www.kaigokensaku.mhlw.go.jp/03/index.php?action_kouhyou_detail_004_kani=true&JigyosyoCd=0390100477-00&ServiceCd=780&Type=search" }, "geometry": { "type": "Point", "coordinates": [ 141.1303848, 39.7447535 ] } },
{ "type": "Feature", "properties": { "内容": "レコードブック盛岡神明【地域密着型通所介護】岩手県盛岡市神明町6－21グリーンヒル豊明Ⅱ1F", "url2": "https://www.kaigokensaku.mhlw.go.jp/03/index.php?action_kouhyou_detail_004_kani=true&JigyosyoCd=0390100543-00&ServiceCd=780&Type=search" }, "geometry": { "type": "Point", "coordinates": [ 141.158961200000022, 39.7009699 ] } },
{ "type": "Feature", "properties": { "内容": "ほっとデイサービス青山【地域密着型通所介護】岩手県盛岡市西青山2丁目1番18号", "url2": "https://www.kaigokensaku.mhlw.go.jp/03/index.php?action_kouhyou_detail_004_kani=true&JigyosyoCd=0390100857-00&ServiceCd=780&Type=search" }, "geometry": { "type": "Point", "coordinates": [ 141.1102562, 39.7259086 ] } },
{ "type": "Feature", "properties": { "内容": "デイサービスやまぼうし桜台【地域密着型通所介護】岩手県盛岡市桜台２－１８－４", "url2": "https://www.kaigokensaku.mhlw.go.jp/03/index.php?action_kouhyou_detail_004_kani=true&JigyosyoCd=0370104341-00&ServiceCd=780&Type=search" }, "geometry": { "type": "Point", "coordinates": [ 141.197184500524941, 39.749535715120992 ] } },
{ "type": "Feature", "properties": { "内容": "デイサービス悠々ロマン【地域密着型通所介護】岩手県盛岡市松尾町４番１０号", "url2": "https://www.kaigokensaku.mhlw.go.jp/03/index.php?action_kouhyou_detail_004_kani=true&JigyosyoCd=0390100865-00&ServiceCd=780&Type=search" }, "geometry": { "type": "Point", "coordinates": [ 141.158964200000014, 39.6962653 ] } },
{ "type": "Feature", "properties": { "内容": "デイサービス言葉のかけ橋【地域密着型通所介護】岩手県盛岡市中ノ橋通１丁目13－15", "url2": "https://www.kaigokensaku.mhlw.go.jp/03/index.php?action_kouhyou_detail_004_kani=true&JigyosyoCd=0370102436-00&ServiceCd=780&Type=search" }, "geometry": { "type": "Point", "coordinates": [ 141.1581225, 39.6993367 ] } },
{ "type": "Feature", "properties": { "内容": "あっとほーむだんらん【地域密着型通所介護】岩手県盛岡市三本柳13-39-4", "url2": "https://www.kaigokensaku.mhlw.go.jp/03/index.php?action_kouhyou_detail_004_kani=true&JigyosyoCd=0370102725-00&ServiceCd=780&Type=search" }, "geometry": { "type": "Point", "coordinates": [ 141.16820389999998, 39.6546806 ] } },
{ "type": "Feature", "properties": { "内容": "セカンドライフはるかぜ【地域密着型通所介護】岩手県盛岡市永井19-197-6", "url2": "https://www.kaigokensaku.mhlw.go.jp/03/index.php?action_kouhyou_detail_004_kani=true&JigyosyoCd=0370103905-00&ServiceCd=780&Type=search" }, "geometry": { "type": "Point", "coordinates": [ 141.144026536037444, 39.64891294223861 ] } },
{ "type": "Feature", "properties": { "内容": "デイサービスおてんとさん【地域密着型通所介護】岩手県盛岡市中ノ橋通2丁目11番4号岩井ビル1階", "url2": "https://www.kaigokensaku.mhlw.go.jp/03/index.php?action_kouhyou_detail_004_kani=true&JigyosyoCd=0370104085-00&ServiceCd=780&Type=search" }, "geometry": { "type": "Point", "coordinates": [ 141.162297099999932, 39.6976176 ] } },
{ "type": "Feature", "properties": { "内容": "デイサービスよろこび【地域密着型通所介護】岩手県盛岡市三本柳２地割３２－１ケアヴィレッジよろこび", "url2": "https://www.kaigokensaku.mhlw.go.jp/03/index.php?action_kouhyou_detail_004_kani=true&JigyosyoCd=0370104317-00&ServiceCd=780&Type=search" }, "geometry": { "type": "Point", "coordinates": [ 141.164810519049098, 39.666164211790026 ] } },
{ "type": "Feature", "properties": { "内容": "デイサービス心笑【地域密着型通所介護】岩手県盛岡市山岸4丁目10番45号サービス付き高齢者向け住宅十人十色", "url2": "https://www.kaigokensaku.mhlw.go.jp/03/index.php?action_kouhyou_detail_004_kani=true&JigyosyoCd=0370104721-00&ServiceCd=780&Type=search" }, "geometry": { "type": "Point", "coordinates": [ 141.171023500000047, 39.7195625 ] } },
{ "type": "Feature", "properties": { "内容": "通所介護事業所桜【地域密着型通所介護】岩手県盛岡市向中野五丁目１２番１０号住宅型有料老人ホーム桜", "url2": "https://www.kaigokensaku.mhlw.go.jp/03/index.php?action_kouhyou_detail_004_kani=true&JigyosyoCd=0370105199-00&ServiceCd=780&Type=search" }, "geometry": { "type": "Point", "coordinates": [ 141.136558400000013, 39.6780109 ] } },
{ "type": "Feature", "properties": { "内容": "デイサービス高原列車２両目【地域密着型通所介護】岩手県盛岡市本宮2丁目2-28", "url2": "https://www.kaigokensaku.mhlw.go.jp/03/index.php?action_kouhyou_detail_004_kani=true&JigyosyoCd=0390100600-00&ServiceCd=780&Type=search" }, "geometry": { "type": "Point", "coordinates": [ 141.137699699999985, 39.6915939 ] } },
{ "type": "Feature", "properties": { "内容": "デイサービスまったり【地域密着型通所介護】岩手県盛岡市西見前15地割95ー1", "url2": "https://www.kaigokensaku.mhlw.go.jp/03/index.php?action_kouhyou_detail_004_kani=true&JigyosyoCd=0390100840-00&ServiceCd=780&Type=search" }, "geometry": { "type": "Point", "coordinates": [ 141.1635312, 39.6449433 ] } },
{ "type": "Feature", "properties": { "内容": "盛岡地域福祉センター【地域密着型通所介護】岩手県盛岡市手代森14地割16番地89", "url2": "https://www.kaigokensaku.mhlw.go.jp/03/index.php?action_kouhyou_detail_004_kani=true&JigyosyoCd=0390100691-00&ServiceCd=780&Type=search" }, "geometry": { "type": "Point", "coordinates": [ 141.1851936, 39.6526787 ] } },
{ "type": "Feature", "properties": { "内容": "デイサービスはるかぜの笑【地域密着型通所介護】岩手県盛岡市上堂三丁目12-2", "url2": "https://www.kaigokensaku.mhlw.go.jp/03/index.php?action_kouhyou_detail_004_kani=true&JigyosyoCd=0370104101-00&ServiceCd=780&Type=search" }, "geometry": { "type": "Point", "coordinates": [ 141.127946599999973, 39.7263359 ] } },
{ "type": "Feature", "properties": { "内容": "デイサービスはるかぜの丘【地域密着型通所介護】岩手県盛岡市上堂４丁目2-78", "url2": "https://www.kaigokensaku.mhlw.go.jp/03/index.php?action_kouhyou_detail_004_kani=true&JigyosyoCd=0370104416-00&ServiceCd=780&Type=search" }, "geometry": { "type": "Point", "coordinates": [ 141.125516100000027, 39.7303133 ] } },
{ "type": "Feature", "properties": { "内容": "デイサービスはるかぜの詩【地域密着型通所介護】岩手県盛岡市上堂３丁目１６番１９号", "url2": "https://www.kaigokensaku.mhlw.go.jp/03/index.php?action_kouhyou_detail_004_kani=true&JigyosyoCd=0370103202-00&ServiceCd=780&Type=search" }, "geometry": { "type": "Point", "coordinates": [ 141.128935299999966, 39.7285385 ] } },
{ "type": "Feature", "properties": { "内容": "リハビリ特化型デイサービス向日葵【地域密着型通所介護】岩手県盛岡市厨川1丁目8番9号", "url2": "https://www.kaigokensaku.mhlw.go.jp/03/index.php?action_kouhyou_detail_004_kani=true&JigyosyoCd=0390100931-00&ServiceCd=780&Type=search" }, "geometry": { "type": "Point", "coordinates": [ 141.1296601, 39.7421931 ] } },
{ "type": "Feature", "properties": { "内容": "デイサービスしんぼくの家【地域密着型通所介護】岩手県盛岡市中太田泉田８－１", "url2": "https://www.kaigokensaku.mhlw.go.jp/03/index.php?action_kouhyou_detail_004_kani=true&JigyosyoCd=0370102139-00&ServiceCd=780&Type=search" }, "geometry": { "type": "Point", "coordinates": [ 141.1081742, 39.6969244 ] } },
{ "type": "Feature", "properties": { "内容": "ふれあいサロン茶愛【地域密着型通所介護】岩手県盛岡市三本柳23-9-79", "url2": "https://www.kaigokensaku.mhlw.go.jp/03/index.php?action_kouhyou_detail_004_kani=true&JigyosyoCd=0370102493-00&ServiceCd=780&Type=search" }, "geometry": { "type": "Point", "coordinates": [ 141.168832100000031, 39.6468592 ] } },
{ "type": "Feature", "properties": { "内容": "地域密着型通所介護となんの郷【地域密着型通所介護】岩手県盛岡市永井24地割49番6", "url2": "https://www.kaigokensaku.mhlw.go.jp/03/index.php?action_kouhyou_detail_004_kani=true&JigyosyoCd=0370104184-00&ServiceCd=780&Type=search" }, "geometry": { "type": "Point", "coordinates": [ 141.161078941000369, 39.649935933743805 ] } },
{ "type": "Feature", "properties": { "内容": "ゲッツリハビリデイサービス【地域密着型通所介護】岩手県盛岡市津志田中央三丁目13番16号", "url2": "https://www.kaigokensaku.mhlw.go.jp/03/index.php?action_kouhyou_detail_004_kani=true&JigyosyoCd=0370105041-00&ServiceCd=780&Type=search" }, "geometry": { "type": "Point", "coordinates": [ 141.151265257672065, 39.662488444537445 ] } },
{ "type": "Feature", "properties": { "内容": "デイサービスそら【地域密着型通所介護】岩手県盛岡市南仙北1-9-32", "url2": "https://www.kaigokensaku.mhlw.go.jp/03/index.php?action_kouhyou_detail_004_kani=true&JigyosyoCd=0370105066-00&ServiceCd=780&Type=search" }, "geometry": { "type": "Point", "coordinates": [ 141.150496100000026, 39.6762893 ] } },
{ "type": "Feature", "properties": { "内容": "幼老統合施設Cocoa（デイサービス）【地域密着型通所介護】岩手県盛岡市北飯岡四丁目8番45号", "url2": "https://www.kaigokensaku.mhlw.go.jp/03/index.php?action_kouhyou_detail_004_kani=true&JigyosyoCd=0370105942-00&ServiceCd=780&Type=search" }, "geometry": { "type": "Point", "coordinates": [ 141.13318670000001, 39.6700839 ] } },
{ "type": "Feature", "properties": { "内容": "めぐみデイサービス【地域密着型通所介護】岩手県盛岡市上田3丁目11-43", "url2": "https://www.kaigokensaku.mhlw.go.jp/03/index.php?action_kouhyou_detail_004_kani=true&JigyosyoCd=0390100485-00&ServiceCd=780&Type=search" }, "geometry": { "type": "Point", "coordinates": [ 141.139508, 39.7181238 ] } },
{ "type": "Feature", "properties": { "内容": "めぐみデイサービス高松【地域密着型通所介護】岩手県盛岡市高松4丁目7-93", "url2": "https://www.kaigokensaku.mhlw.go.jp/03/index.php?action_kouhyou_detail_004_kani=true&JigyosyoCd=0390100758-00&ServiceCd=780&Type=search" }, "geometry": { "type": "Point", "coordinates": [ 141.132380399999988, 39.7284166 ] } },
{ "type": "Feature", "properties": { "内容": "和音デイサービス手代森【地域密着型通所介護】岩手県盛岡市手代森14地割16-122", "url2": "https://www.kaigokensaku.mhlw.go.jp/03/index.php?action_kouhyou_detail_004_kani=true&JigyosyoCd=0370105801-00&ServiceCd=780&Type=search" }, "geometry": { "type": "Point", "coordinates": [ 141.1839828, 39.6522141 ] } },
{ "type": "Feature", "properties": { "内容": "デイサービスグランパもりおか【地域密着型通所介護】岩手県盛岡市上田堤2丁目14-33", "url2": "https://www.kaigokensaku.mhlw.go.jp/03/index.php?action_kouhyou_detail_004_kani=true&JigyosyoCd=0370103723-00&ServiceCd=780&Type=search" }, "geometry": { "type": "Point", "coordinates": [ 141.1518059, 39.7282507 ] } },
{ "type": "Feature", "properties": { "内容": "茶話本舗デイサービス山岸之家【地域密着型通所介護】岩手県盛岡市山岸5-9-37", "url2": "https://www.kaigokensaku.mhlw.go.jp/03/index.php?action_kouhyou_detail_004_kani=true&JigyosyoCd=0370103194-00&ServiceCd=780&Type=search" }, "geometry": { "type": "Point", "coordinates": [ 141.166442694442736, 39.719494506806889 ] } },
{ "type": "Feature", "properties": { "内容": "茶話本舗デイサービス西下台之家【地域密着型通所介護】岩手県盛岡市西下台町10-40", "url2": "https://www.kaigokensaku.mhlw.go.jp/03/index.php?action_kouhyou_detail_004_kani=true&JigyosyoCd=0370103855-00&ServiceCd=780&Type=search" }, "geometry": { "type": "Point", "coordinates": [ 141.134449728836074, 39.713459759459042 ] } },
{ "type": "Feature", "properties": { "内容": "デイサービス福寿草【地域密着型通所介護】岩手県宮古市松山8-71-5", "url2": "https://www.kaigokensaku.mhlw.go.jp/03/index.php?action_kouhyou_detail_004_kani=true&JigyosyoCd=0390200277-00&ServiceCd=780&Type=search" }, "geometry": { "type": "Point", "coordinates": [ 141.915991, 39.6221546 ] } },
{ "type": "Feature", "properties": { "内容": "デイサービスファミリー【地域密着型通所介護】岩手県宮古市山口２丁目3番13号", "url2": "https://www.kaigokensaku.mhlw.go.jp/03/index.php?action_kouhyou_detail_004_kani=true&JigyosyoCd=0370200826-00&ServiceCd=780&Type=search" }, "geometry": { "type": "Point", "coordinates": [ 141.934687410280958, 39.649431820177618 ] } },
{ "type": "Feature", "properties": { "内容": "デイサービスあたご【地域密着型通所介護】岩手県宮古市築地二丁目２-１７", "url2": "https://www.kaigokensaku.mhlw.go.jp/03/index.php?action_kouhyou_detail_004_kani=true&JigyosyoCd=0390200343-00&ServiceCd=780&Type=search" }, "geometry": { "type": "Point", "coordinates": [ 141.960644099999968, 39.6415323 ] } },
{ "type": "Feature", "properties": { "内容": "指定通所介護事業所サンホームみやこ絆【地域密着型通所介護】岩手県宮古市崎鍬ヶ崎第４地割１番地４３", "url2": "https://www.kaigokensaku.mhlw.go.jp/03/index.php?action_kouhyou_detail_004_kani=true&JigyosyoCd=0370200750-00&ServiceCd=780&Type=search" }, "geometry": { "type": "Point", "coordinates": [ 141.95173449999993, 39.6591929 ] } },
{ "type": "Feature", "properties": { "内容": "ゆうゆうデイサービスセンター【地域密着型通所介護】岩手県宮古市八木沢第5地割85番地1", "url2": "https://www.kaigokensaku.mhlw.go.jp/03/index.php?action_kouhyou_detail_004_kani=true&JigyosyoCd=0370200685-00&ServiceCd=780&Type=search" }, "geometry": { "type": "Point", "coordinates": [ 141.940777267368958, 39.616710194982048 ] } },
{ "type": "Feature", "properties": { "内容": "指定通所介護事業所ケアセンターみやこ【地域密着型通所介護】岩手県宮古市田鎖第３地割８番地", "url2": "https://www.kaigokensaku.mhlw.go.jp/03/index.php?action_kouhyou_detail_004_kani=true&JigyosyoCd=0370200776-00&ServiceCd=780&Type=search" }, "geometry": { "type": "Point", "coordinates": [ 141.902659399999948, 39.6206072 ] } },
{ "type": "Feature", "properties": { "内容": "昭和の家【地域密着型通所介護】岩手県宮古市根市2-35-9", "url2": "https://www.kaigokensaku.mhlw.go.jp/03/index.php?action_kouhyou_detail_004_kani=true&JigyosyoCd=0390200418-00&ServiceCd=780&Type=search" }, "geometry": { "type": "Point", "coordinates": [ 141.892893723278803, 39.631853522576051 ] } },
{ "type": "Feature", "properties": { "内容": "かのんデイサービスセンター【地域密着型通所介護】岩手県宮古市実田一丁目７番２８号", "url2": "https://www.kaigokensaku.mhlw.go.jp/03/index.php?action_kouhyou_detail_004_kani=true&JigyosyoCd=0370200404-00&ServiceCd=780&Type=search" }, "geometry": { "type": "Point", "coordinates": [ 141.954945599999974, 39.6251138 ] } },
{ "type": "Feature", "properties": { "内容": "愛福祉会指定通所介護事業所【地域密着型通所介護】岩手県宮古市刈屋第12地割3番地", "url2": "https://www.kaigokensaku.mhlw.go.jp/03/index.php?action_kouhyou_detail_004_kani=true&JigyosyoCd=0370200453-00&ServiceCd=780&Type=search" }, "geometry": { "type": "Point", "coordinates": [ 141.758768834518179, 39.646188697785121 ] } },
{ "type": "Feature", "properties": { "内容": "リハビリデイホームあすも【地域密着型通所介護】岩手県宮古市大通三丁目6-51", "url2": "https://www.kaigokensaku.mhlw.go.jp/03/index.php?action_kouhyou_detail_004_kani=true&JigyosyoCd=0370200859-00&ServiceCd=780&Type=search" }, "geometry": { "type": "Point", "coordinates": [ 141.94448239999997, 39.6420448 ] } },
{ "type": "Feature", "properties": { "内容": "デイサービスセンターとまり【地域密着型通所介護】岩手県大船渡市三陸町越喜来字井戸洞2-2", "url2": "https://www.kaigokensaku.mhlw.go.jp/03/index.php?action_kouhyou_detail_004_kani=true&JigyosyoCd=0370300535-00&ServiceCd=780&Type=search" }, "geometry": { "type": "Point", "coordinates": [ 141.8035509, 39.1090229 ] } },
{ "type": "Feature", "properties": { "内容": "デイサービスセンター「綾の里」【地域密着型通所介護】岩手県大船渡市三陸町字清水125番地2", "url2": "https://www.kaigokensaku.mhlw.go.jp/03/index.php?action_kouhyou_detail_004_kani=true&JigyosyoCd=0370300394-00&ServiceCd=780&Type=search" }, "geometry": { "type": "Point", "coordinates": [ 141.796976555899988, 39.054409548075157 ] } },
{ "type": "Feature", "properties": { "内容": "うえのケアサービスセンター【地域密着型通所介護】岩手県大船渡市立根町字桑原２３番地４", "url2": "https://www.kaigokensaku.mhlw.go.jp/03/index.php?action_kouhyou_detail_004_kani=true&JigyosyoCd=0370300345-00&ServiceCd=780&Type=search" }, "geometry": { "type": "Point", "coordinates": [ 141.711787100000038, 39.1067372 ] } },
{ "type": "Feature", "properties": { "内容": "地域密着型デイサービスセンターであいの樹【地域密着型通所介護】岩手県大船渡市立根町字中野２７番地８", "url2": "https://www.kaigokensaku.mhlw.go.jp/03/index.php?action_kouhyou_detail_004_kani=true&JigyosyoCd=0390300150-00&ServiceCd=780&Type=search" }, "geometry": { "type": "Point", "coordinates": [ 141.715503300000023, 39.1108731 ] } },
{ "type": "Feature", "properties": { "内容": "さんりくの園デイサービスセンター【地域密着型通所介護】岩手県大船渡市三陸町越喜来字所通91番地", "url2": "https://www.kaigokensaku.mhlw.go.jp/03/index.php?action_kouhyou_detail_004_kani=true&JigyosyoCd=0390300200-00&ServiceCd=780&Type=search" }, "geometry": { "type": "Point", "coordinates": [ 141.8053717, 39.1251104 ] } },
{ "type": "Feature", "properties": { "内容": "リハビリ型デイサービスふくろう機能訓練センター【地域密着型通所介護】岩手県大船渡市猪川町字下権現堂1-20", "url2": "https://www.kaigokensaku.mhlw.go.jp/03/index.php?action_kouhyou_detail_004_kani=true&JigyosyoCd=0370300485-00&ServiceCd=780&Type=search" }, "geometry": { "type": "Point", "coordinates": [ 141.709269142991644, 39.092678728783483 ] } },
{ "type": "Feature", "properties": { "内容": "末崎町デイサービスセンター「にぎわい」【地域密着型通所介護】岩手県大船渡市末崎町字平林48番地1", "url2": "https://www.kaigokensaku.mhlw.go.jp/03/index.php?action_kouhyou_detail_004_kani=true&JigyosyoCd=0390300168-00&ServiceCd=780&Type=search" }, "geometry": { "type": "Point", "coordinates": [ 141.7121419, 39.0057141 ] } },
{ "type": "Feature", "properties": { "内容": "リハビリ特化型デイサービスかがやき【地域密着型通所介護】岩手県花巻市高木16地割68-6銀河モール内", "url2": "https://www.kaigokensaku.mhlw.go.jp/03/index.php?action_kouhyou_detail_004_kani=true&JigyosyoCd=0390500312-00&ServiceCd=780&Type=search" }, "geometry": { "type": "Point", "coordinates": [ 141.1360716, 39.3863503 ] } },
{ "type": "Feature", "properties": { "内容": "おひさま【地域密着型通所介護】岩手県花巻市若葉町３－５－５", "url2": "https://www.kaigokensaku.mhlw.go.jp/03/index.php?action_kouhyou_detail_004_kani=true&JigyosyoCd=0370500944-00&ServiceCd=780&Type=search" }, "geometry": { "type": "Point", "coordinates": [ 141.106216099999983, 39.3854981 ] } },
{ "type": "Feature", "properties": { "内容": "きぬかわデイサービスセンター【地域密着型通所介護】岩手県花巻市東和町前田１区２５７番地", "url2": "https://www.kaigokensaku.mhlw.go.jp/03/index.php?action_kouhyou_detail_004_kani=true&JigyosyoCd=0370501108-00&ServiceCd=780&Type=search" }, "geometry": { "type": "Point", "coordinates": [ 141.213597, 39.4179463 ] } },
{ "type": "Feature", "properties": { "内容": "アイアックケアセンター【地域密着型通所介護】岩手県花巻市西宮野目第11地割115-2賛幸指定居宅介護事業所", "url2": "https://www.kaigokensaku.mhlw.go.jp/03/index.php?action_kouhyou_detail_004_kani=true&JigyosyoCd=0370500878-00&ServiceCd=780&Type=search" }, "geometry": { "type": "Point", "coordinates": [ 141.126581235153367, 39.415017913969486 ] } },
{ "type": "Feature", "properties": { "内容": "デイサービスこもれびはうす【地域密着型通所介護】岩手県花巻市南川原町333", "url2": "https://www.kaigokensaku.mhlw.go.jp/03/index.php?action_kouhyou_detail_004_kani=true&JigyosyoCd=0370501579-00&ServiceCd=780&Type=search" }, "geometry": { "type": "Point", "coordinates": [ 141.114054300000021, 39.382843 ] } },
{ "type": "Feature", "properties": { "内容": "イーハトーブぬくもりデイサービスセンター【地域密着型通所介護】岩手県花巻市石鳥谷町中寺林6-22-1", "url2": "https://www.kaigokensaku.mhlw.go.jp/03/index.php?action_kouhyou_detail_004_kani=true&JigyosyoCd=0390500270-00&ServiceCd=780&Type=search" }, "geometry": { "type": "Point", "coordinates": [ 141.138931700000057, 39.4823178 ] } },
{ "type": "Feature", "properties": { "内容": "さくらデイサービス花巻【地域密着型通所介護】岩手県花巻市石鳥谷町好地6-55-2", "url2": "https://www.kaigokensaku.mhlw.go.jp/03/index.php?action_kouhyou_detail_004_kani=true&JigyosyoCd=0370501306-00&ServiceCd=780&Type=search" }, "geometry": { "type": "Point", "coordinates": [ 141.148445687033103, 39.488556800440499 ] } },
{ "type": "Feature", "properties": { "内容": "サンガデイサービスセンター【地域密着型通所介護】岩手県花巻市十二丁目５６５番４", "url2": "https://www.kaigokensaku.mhlw.go.jp/03/index.php?action_kouhyou_detail_004_kani=true&JigyosyoCd=0390500429-00&ServiceCd=780&Type=search" }, "geometry": { "type": "Point", "coordinates": [ 141.1146875, 39.3550967 ] } },
{ "type": "Feature", "properties": { "内容": "自立機能訓練型さぽ～と【地域密着型通所介護】岩手県北上市諏訪町2丁目5-15", "url2": "https://www.kaigokensaku.mhlw.go.jp/03/index.php?action_kouhyou_detail_004_kani=true&JigyosyoCd=0390600393-00&ServiceCd=780&Type=search" }, "geometry": { "type": "Point", "coordinates": [ 141.11704180000001, 39.2873196 ] } },
{ "type": "Feature", "properties": { "内容": "つどいの場まるっと【地域密着型通所介護】岩手県北上市上野町4丁目8番27号", "url2": "https://www.kaigokensaku.mhlw.go.jp/03/index.php?action_kouhyou_detail_004_kani=true&JigyosyoCd=0390600450-00&ServiceCd=780&Type=search" }, "geometry": { "type": "Point", "coordinates": [ 141.127179147820158, 39.3017958 ] } },
{ "type": "Feature", "properties": { "内容": "安寿デイサービス中野町【地域密着型通所介護】岩手県北上市中野町２－１２－２４安寿デイサービス中野町", "url2": "https://www.kaigokensaku.mhlw.go.jp/03/index.php?action_kouhyou_detail_004_kani=true&JigyosyoCd=0370601460-00&ServiceCd=780&Type=search" }, "geometry": { "type": "Point", "coordinates": [ 141.122989800000028, 39.2940472 ] } },
{ "type": "Feature", "properties": { "内容": "デイ・サービスたおふじね【地域密着型通所介護】岩手県北上市和賀町藤根18地割39番地５", "url2": "https://www.kaigokensaku.mhlw.go.jp/03/index.php?action_kouhyou_detail_004_kani=true&JigyosyoCd=0390600369-00&ServiceCd=780&Type=search" }, "geometry": { "type": "Point", "coordinates": [ 141.034902399999964, 39.302733699999976 ] } },
{ "type": "Feature", "properties": { "内容": "地域密着型通所介護事業所しあわせの家【地域密着型通所介護】岩手県久慈市二十八日町1-13", "url2": "https://www.kaigokensaku.mhlw.go.jp/03/index.php?action_kouhyou_detail_004_kani=true&JigyosyoCd=0390700128-00&ServiceCd=780&Type=search" }, "geometry": { "type": "Point", "coordinates": [ 141.767402100000027, 40.1909726 ] } },
{ "type": "Feature", "properties": { "内容": "大川目地区デイサービスセンター【地域密着型通所介護】岩手県久慈市大川目町第23地割2番地4", "url2": "https://www.kaigokensaku.mhlw.go.jp/03/index.php?action_kouhyou_detail_004_kani=true&JigyosyoCd=0370700221-00&ServiceCd=780&Type=search" }, "geometry": { "type": "Point", "coordinates": [ 141.7082461, 40.1891065 ] } },
{ "type": "Feature", "properties": { "内容": "宇部地区デイサービスセンター【地域密着型通所介護】岩手県久慈市宇部町第5地割41番地", "url2": "https://www.kaigokensaku.mhlw.go.jp/03/index.php?action_kouhyou_detail_004_kani=true&JigyosyoCd=0370700361-00&ServiceCd=780&Type=search" }, "geometry": { "type": "Point", "coordinates": [ 141.787720700000023, 40.1305187 ] } },
{ "type": "Feature", "properties": { "内容": "デイサービスセンターさむらい【地域密着型通所介護】岩手県久慈市侍浜町外屋敷第6地割10番地4", "url2": "https://www.kaigokensaku.mhlw.go.jp/03/index.php?action_kouhyou_detail_004_kani=true&JigyosyoCd=0370700478-00&ServiceCd=780&Type=search" }, "geometry": { "type": "Point", "coordinates": [ 141.787306, 40.2706295 ] } },
{ "type": "Feature", "properties": { "内容": "優介護デイサービス【地域密着型通所介護】岩手県久慈市湊町第21地割48番地", "url2": "https://www.kaigokensaku.mhlw.go.jp/03/index.php?action_kouhyou_detail_004_kani=true&JigyosyoCd=0370700247-00&ServiceCd=780&Type=search" }, "geometry": { "type": "Point", "coordinates": [ 141.7941945, 40.2048061 ] } },
{ "type": "Feature", "properties": { "内容": "デイサービスセンターおらホーム【地域密着型通所介護】岩手県久慈市小久慈町第18地割3番地2", "url2": "https://www.kaigokensaku.mhlw.go.jp/03/index.php?action_kouhyou_detail_004_kani=true&JigyosyoCd=0370700395-00&ServiceCd=780&Type=search" }, "geometry": { "type": "Point", "coordinates": [ 141.7361998, 40.1686041 ] } },
{ "type": "Feature", "properties": { "内容": "デイサービスセンターなごみ【地域密着型通所介護】岩手県久慈市長内町21-2", "url2": "https://www.kaigokensaku.mhlw.go.jp/03/index.php?action_kouhyou_detail_004_kani=true&JigyosyoCd=0370700460-00&ServiceCd=780&Type=search" }, "geometry": { "type": "Point", "coordinates": [ 141.774524700000029, 40.1810476 ] } },
{ "type": "Feature", "properties": { "内容": "かあさんのいえ。【地域密着型通所介護】岩手県久慈市長内町16-20-2", "url2": "https://www.kaigokensaku.mhlw.go.jp/03/index.php?action_kouhyou_detail_004_kani=true&JigyosyoCd=0370700502-00&ServiceCd=780&Type=search" }, "geometry": { "type": "Point", "coordinates": [ 141.773400953046803, 40.180563316244971 ] } },
{ "type": "Feature", "properties": { "内容": "デイサービスセンターわが家【地域密着型通所介護】岩手県久慈市小久慈町19-103-3", "url2": "https://www.kaigokensaku.mhlw.go.jp/03/index.php?action_kouhyou_detail_004_kani=true&JigyosyoCd=0370700601-00&ServiceCd=780&Type=search" }, "geometry": { "type": "Point", "coordinates": [ 141.731571699999989, 40.1624463 ] } },
{ "type": "Feature", "properties": { "内容": "デイサービスCalore【地域密着型通所介護】岩手県久慈市田屋町1-30-8", "url2": "https://www.kaigokensaku.mhlw.go.jp/03/index.php?action_kouhyou_detail_004_kani=true&JigyosyoCd=0370700593-00&ServiceCd=780&Type=search" }, "geometry": { "type": "Point", "coordinates": [ 141.772707710173023, 40.195365159257314 ] } },
{ "type": "Feature", "properties": { "内容": "ふれあいホーム附馬牛【地域密着型通所介護】岩手県遠野市附馬牛町下附馬牛11地割160番地", "url2": "https://www.kaigokensaku.mhlw.go.jp/03/index.php?action_kouhyou_detail_004_kani=true&JigyosyoCd=0370800062-00&ServiceCd=780&Type=search" }, "geometry": { "type": "Point", "coordinates": [ 141.5288415, 39.4116426 ] } },
{ "type": "Feature", "properties": { "内容": "デイサービスシリウスつちぶち【地域密着型通所介護】岩手県遠野市土淵町土淵6-23-17", "url2": "https://www.kaigokensaku.mhlw.go.jp/03/index.php?action_kouhyou_detail_004_kani=true&JigyosyoCd=0370800435-00&ServiceCd=780&Type=search" }, "geometry": { "type": "Point", "coordinates": [ 141.57604, 39.3581493 ] } },
{ "type": "Feature", "properties": { "内容": "遠野デイサービスかわうち【地域密着型通所介護】岩手県遠野市中央通り11-1", "url2": "https://www.kaigokensaku.mhlw.go.jp/03/index.php?action_kouhyou_detail_004_kani=true&JigyosyoCd=0370800419-00&ServiceCd=780&Type=search" }, "geometry": { "type": "Point", "coordinates": [ 141.530030383853159, 39.330832732558839 ] } },
{ "type": "Feature", "properties": { "内容": "みやもり荘デイサービスセンター【地域密着型通所介護】岩手県遠野市宮守町下宮守２８地割１９番地1", "url2": "https://www.kaigokensaku.mhlw.go.jp/03/index.php?action_kouhyou_detail_004_kani=true&JigyosyoCd=0390800175-00&ServiceCd=780&Type=search" }, "geometry": { "type": "Point", "coordinates": [ 141.362619099999989, 39.3460188 ] } },
{ "type": "Feature", "properties": { "内容": "リハビリ特化型デイサービスにわとこの森【地域密着型通所介護】岩手県遠野市宮守町下宮守26地割210番地1", "url2": "https://www.kaigokensaku.mhlw.go.jp/03/index.php?action_kouhyou_detail_004_kani=true&JigyosyoCd=0390800167-00&ServiceCd=780&Type=search" }, "geometry": { "type": "Point", "coordinates": [ 141.3556773, 39.3501922 ] } },
{ "type": "Feature", "properties": { "内容": "デイサービスセンター・いこいの丘【地域密着型通所介護】岩手県一関市狐禅寺字大平131番地2", "url2": "https://www.kaigokensaku.mhlw.go.jp/03/index.php?action_kouhyou_detail_004_kani=true&JigyosyoCd=0390900496-00&ServiceCd=780&Type=search" }, "geometry": { "type": "Point", "coordinates": [ 141.1673267, 38.932433 ] } },
{ "type": "Feature", "properties": { "内容": "デイサービス金沢の丘【地域密着型通所介護】岩手県一関市花泉町金沢字上寺袋61-2", "url2": "https://www.kaigokensaku.mhlw.go.jp/03/index.php?action_kouhyou_detail_004_kani=true&JigyosyoCd=0390900504-00&ServiceCd=780&Type=search" }, "geometry": { "type": "Point", "coordinates": [ 141.175334600000014, 38.8531454 ] } },
{ "type": "Feature", "properties": { "内容": "高沢の家デイサービスセンター【地域密着型通所介護】岩手県一関市室根町矢越字高沢４２", "url2": "https://www.kaigokensaku.mhlw.go.jp/03/index.php?action_kouhyou_detail_004_kani=true&JigyosyoCd=0370900987-00&ServiceCd=780&Type=search" }, "geometry": { "type": "Point", "coordinates": [ 141.4246263, 38.9375322 ] } },
{ "type": "Feature", "properties": { "内容": "デイサービスセンターきたかた【地域密着型通所介護】岩手県一関市千厩町千厩字北方３７番地２", "url2": "https://www.kaigokensaku.mhlw.go.jp/03/index.php?action_kouhyou_detail_004_kani=true&JigyosyoCd=0390900389-00&ServiceCd=780&Type=search" }, "geometry": { "type": "Point", "coordinates": [ 141.3297972, 38.9180077 ] } },
{ "type": "Feature", "properties": { "内容": "デイサービスセンター室根【地域密着型通所介護】岩手県一関市室根町折壁字八幡沖116番地室根保健センター　１階", "url2": "https://www.kaigokensaku.mhlw.go.jp/03/index.php?action_kouhyou_detail_004_kani=true&JigyosyoCd=0370900839-00&ServiceCd=780&Type=search" }, "geometry": { "type": "Point", "coordinates": [ 141.442568400000027, 38.935138800000011 ] } },
{ "type": "Feature", "properties": { "内容": "リハビリステーション・ふっとアップ【地域密着型通所介護】岩手県一関市大東町摺沢字但馬崎15-1", "url2": "https://www.kaigokensaku.mhlw.go.jp/03/index.php?action_kouhyou_detail_004_kani=true&JigyosyoCd=0370901688-00&ServiceCd=780&Type=search" }, "geometry": { "type": "Point", "coordinates": [ 141.328493200000025, 38.993899100000014 ] } },
{ "type": "Feature", "properties": { "内容": "株式会社共生型デイサービスらくらく【地域密着型通所介護】岩手県一関市山目字才天２０番地１０", "url2": "https://www.kaigokensaku.mhlw.go.jp/03/index.php?action_kouhyou_detail_004_kani=true&JigyosyoCd=0390900421-00&ServiceCd=780&Type=search" }, "geometry": { "type": "Point", "coordinates": [ 141.112138391401686, 38.932918398274595 ] } },
{ "type": "Feature", "properties": { "内容": "リハニック一関【地域密着型通所介護】岩手県一関市東地主町２０−３", "url2": "https://www.kaigokensaku.mhlw.go.jp/03/index.php?action_kouhyou_detail_004_kani=true&JigyosyoCd=0390900512-00&ServiceCd=780&Type=search" }, "geometry": { "type": "Point", "coordinates": [ 141.138197, 38.9315468 ] } },
{ "type": "Feature", "properties": { "内容": "デイサービスシェスタ一関【地域密着型通所介護】岩手県一関市中里字新川原１９０番地１３", "url2": "https://www.kaigokensaku.mhlw.go.jp/03/index.php?action_kouhyou_detail_004_kani=true&JigyosyoCd=0370900664-00&ServiceCd=780&Type=search" }, "geometry": { "type": "Point", "coordinates": [ 141.15138467301631, 38.94076258969767 ] } },
{ "type": "Feature", "properties": { "内容": "デイサービスゆうゆう【地域密着型通所介護】岩手県一関市藤沢町黄海字町裏6番地ゆうゆう", "url2": "https://www.kaigokensaku.mhlw.go.jp/03/index.php?action_kouhyou_detail_004_kani=true&JigyosyoCd=0372700781-00&ServiceCd=780&Type=search" }, "geometry": { "type": "Point", "coordinates": [ 141.299229700000069, 38.8503805 ] } },
{ "type": "Feature", "properties": { "内容": "デイサービスきのみ【地域密着型通所介護】岩手県一関市藤沢町黄海字天堤139番地1", "url2": "https://www.kaigokensaku.mhlw.go.jp/03/index.php?action_kouhyou_detail_004_kani=true&JigyosyoCd=0390900439-00&ServiceCd=780&Type=search" }, "geometry": { "type": "Point", "coordinates": [ 141.294308099999967, 38.853403300000011 ] } },
{ "type": "Feature", "properties": { "内容": "一関地域福祉事業所ケアホームなごみ【地域密着型通所介護】岩手県一関市赤荻字荻野５２８番地１", "url2": "https://www.kaigokensaku.mhlw.go.jp/03/index.php?action_kouhyou_detail_004_kani=true&JigyosyoCd=0370900300-00&ServiceCd=780&Type=search" }, "geometry": { "type": "Point", "coordinates": [ 141.092300900000026, 38.93272 ] } },
{ "type": "Feature", "properties": { "内容": "宅朗所すりさわデイサービス【地域密着型通所介護】岩手県一関市大東町摺沢字但馬崎25番地7", "url2": "https://www.kaigokensaku.mhlw.go.jp/03/index.php?action_kouhyou_detail_004_kani=true&JigyosyoCd=0372700708-00&ServiceCd=780&Type=search" }, "geometry": { "type": "Point", "coordinates": [ 141.3299819, 38.9946629 ] } },
{ "type": "Feature", "properties": { "内容": "機能訓練付きデイサービスゆずりは【地域密着型通所介護】岩手県一関市滝沢字宮田51-2", "url2": "https://www.kaigokensaku.mhlw.go.jp/03/index.php?action_kouhyou_detail_004_kani=true&JigyosyoCd=0390900454-00&ServiceCd=780&Type=search" }, "geometry": { "type": "Point", "coordinates": [ 141.171403425656138, 38.928849119164646 ] } },
{ "type": "Feature", "properties": { "内容": "機能訓練デイサービスふるさと【地域密着型通所介護】岩手県一関市花泉町油島上築道10-3", "url2": "https://www.kaigokensaku.mhlw.go.jp/03/index.php?action_kouhyou_detail_004_kani=true&JigyosyoCd=0390900470-00&ServiceCd=780&Type=search" }, "geometry": { "type": "Point", "coordinates": [ 141.178969099999989, 38.8123403 ] } },
{ "type": "Feature", "properties": { "内容": "宅老所せんまや2号館【地域密着型通所介護】岩手県一関市千厩町千厩字町浦181番地1丁目", "url2": "https://www.kaigokensaku.mhlw.go.jp/03/index.php?action_kouhyou_detail_004_kani=true&JigyosyoCd=0390900488-00&ServiceCd=780&Type=search" }, "geometry": { "type": "Point", "coordinates": [ 141.333543100000014, 38.9175851 ] } },
{ "type": "Feature", "properties": { "内容": "絆デイサービスセンター【地域密着型通所介護】岩手県陸前高田市広田町字久保13番地4", "url2": "https://www.kaigokensaku.mhlw.go.jp/03/index.php?action_kouhyou_detail_004_kani=true&JigyosyoCd=0371000290-00&ServiceCd=780&Type=search" }, "geometry": { "type": "Point", "coordinates": [ 141.691619, 38.9488066 ] } },
{ "type": "Feature", "properties": { "内容": "縁デイサービスセンター【地域密着型通所介護】岩手県陸前高田市小友町字獺沢53番地", "url2": "https://www.kaigokensaku.mhlw.go.jp/03/index.php?action_kouhyou_detail_004_kani=true&JigyosyoCd=0371000373-00&ServiceCd=780&Type=search" }, "geometry": { "type": "Point", "coordinates": [ 141.671767100000011, 38.9846278 ] } },
{ "type": "Feature", "properties": { "内容": "岩手高齢協すずらん　通所介護事業所【地域密着型通所介護】岩手県陸前高田市米崎町字和野66-4", "url2": "https://www.kaigokensaku.mhlw.go.jp/03/index.php?action_kouhyou_detail_004_kani=true&JigyosyoCd=0370300204-00&ServiceCd=780&Type=search" }, "geometry": { "type": "Point", "coordinates": [ 141.673960134257527, 39.01131211478819 ] } },
{ "type": "Feature", "properties": { "内容": "陸前高田事業所百笑【地域密着型通所介護】岩手県陸前高田市高田町字大隅93-12号", "url2": "https://www.kaigokensaku.mhlw.go.jp/03/index.php?action_kouhyou_detail_004_kani=true&JigyosyoCd=0392900056-00&ServiceCd=780&Type=search" }, "geometry": { "type": "Point", "coordinates": [ 141.633449639286795, 39.03026200276549 ] } },
{ "type": "Feature", "properties": { "内容": "デイサービスたんぽぽ【地域密着型通所介護】岩手県陸前高田市高田町字山苗代49", "url2": "https://www.kaigokensaku.mhlw.go.jp/03/index.php?action_kouhyou_detail_004_kani=true&JigyosyoCd=0371000183-00&ServiceCd=780&Type=search" }, "geometry": { "type": "Point", "coordinates": [ 141.647912099999985, 39.0230341 ] } },
{ "type": "Feature", "properties": { "内容": "リハビリデイサービスsqoo釜石【地域密着型通所介護】岩手県釜石市中妻町２丁目１４番１４号", "url2": "https://www.kaigokensaku.mhlw.go.jp/03/index.php?action_kouhyou_detail_004_kani=true&JigyosyoCd=0371100751-00&ServiceCd=780&Type=search" }, "geometry": { "type": "Point", "coordinates": [ 141.858903650262363, 39.269686907034327 ] } },
{ "type": "Feature", "properties": { "内容": "ございしょの里デイサービスセンター【地域密着型通所介護】岩手県釜石市鵜住居町第23地割21番地１", "url2": "https://www.kaigokensaku.mhlw.go.jp/03/index.php?action_kouhyou_detail_004_kani=true&JigyosyoCd=0371100421-00&ServiceCd=780&Type=search" }, "geometry": { "type": "Point", "coordinates": [ 141.887934099999939, 39.322330100000045 ] } },
{ "type": "Feature", "properties": { "内容": "デイサービスセンター善【地域密着型通所介護】岩手県釜石市大字平田第３地割２９番地１０", "url2": "https://www.kaigokensaku.mhlw.go.jp/03/index.php?action_kouhyou_detail_004_kani=true&JigyosyoCd=0371100777-00&ServiceCd=780&Type=search" }, "geometry": { "type": "Point", "coordinates": [ 141.885706064790639, 39.246581847122641 ] } },
{ "type": "Feature", "properties": { "内容": "りんどう苑デイサービスセンター【地域密着型通所介護】岩手県八幡平市丑山口27番地5", "url2": "https://www.kaigokensaku.mhlw.go.jp/03/index.php?action_kouhyou_detail_004_kani=true&JigyosyoCd=0373200104-00&ServiceCd=780&Type=search" }, "geometry": { "type": "Point", "coordinates": [ 140.9536826, 40.1358539 ] } },
{ "type": "Feature", "properties": { "内容": "ふれあいセンター安代デイサービスセンター【地域密着型通所介護】岩手県八幡平市小柳田210番地1", "url2": "https://www.kaigokensaku.mhlw.go.jp/03/index.php?action_kouhyou_detail_004_kani=true&JigyosyoCd=0373200096-00&ServiceCd=780&Type=search" }, "geometry": { "type": "Point", "coordinates": [ 141.0491438, 40.1085793 ] } },
{ "type": "Feature", "properties": { "内容": "松川の家【地域密着型通所介護】岩手県八幡平市大更第1地割13番地1", "url2": "https://www.kaigokensaku.mhlw.go.jp/03/index.php?action_kouhyou_detail_004_kani=true&JigyosyoCd=0371400136-00&ServiceCd=780&Type=search" }, "geometry": { "type": "Point", "coordinates": [ 141.0921486, 39.8835441 ] } },
{ "type": "Feature", "properties": { "内容": "ふれあいステーション「なのはな」【地域密着型通所介護】岩手県奥州市江刺西大通り9-8", "url2": "https://www.kaigokensaku.mhlw.go.jp/03/index.php?action_kouhyou_detail_004_kani=true&JigyosyoCd=0371200338-00&ServiceCd=780&Type=search" }, "geometry": { "type": "Point", "coordinates": [ 141.171106809245344, 39.196083499918963 ] } },
{ "type": "Feature", "properties": { "内容": "デイサービスセンターだいしの園【地域密着型通所介護】岩手県奥州市水沢黒石町字大久保70-1", "url2": "https://www.kaigokensaku.mhlw.go.jp/03/index.php?action_kouhyou_detail_004_kani=true&JigyosyoCd=0370400343-00&ServiceCd=780&Type=search" }, "geometry": { "type": "Point", "coordinates": [ 141.1980155, 39.0900747 ] } },
{ "type": "Feature", "properties": { "内容": "デイサービスセンタースマイル【地域密着型通所介護】岩手県奥州市水沢羽田町久保37番地", "url2": "https://www.kaigokensaku.mhlw.go.jp/03/index.php?action_kouhyou_detail_004_kani=true&JigyosyoCd=0370400392-00&ServiceCd=780&Type=search" }, "geometry": { "type": "Point", "coordinates": [ 141.1827538, 39.1434688 ] } },
{ "type": "Feature", "properties": { "内容": "デイサービスセンターもたい【地域密着型通所介護】岩手県奥州市前沢生母字中道３番地２", "url2": "https://www.kaigokensaku.mhlw.go.jp/03/index.php?action_kouhyou_detail_004_kani=true&JigyosyoCd=0371500166-00&ServiceCd=780&Type=search" }, "geometry": { "type": "Point", "coordinates": [ 141.173974499999986, 39.0586583 ] } },
{ "type": "Feature", "properties": { "内容": "江寿園指定通所介護事業所【地域密着型通所介護】岩手県奥州市江刺伊手字新田146番地4", "url2": "https://www.kaigokensaku.mhlw.go.jp/03/index.php?action_kouhyou_detail_004_kani=true&JigyosyoCd=0391500485-00&ServiceCd=780&Type=search" }, "geometry": { "type": "Point", "coordinates": [ 141.312384400000013, 39.1759446 ] } },
{ "type": "Feature", "properties": { "内容": "地域密着型立生苑デイサービスセンター【地域密着型通所介護】岩手県奥州市水沢字見分森16番地地域密着型立生苑デイサービスセンター", "url2": "https://www.kaigokensaku.mhlw.go.jp/03/index.php?action_kouhyou_detail_004_kani=true&JigyosyoCd=0391500477-00&ServiceCd=780&Type=search" }, "geometry": { "type": "Point", "coordinates": [ 141.1096056, 39.1209908 ] } },
{ "type": "Feature", "properties": { "内容": "サンライフえさし指定通所介護事業所【地域密着型通所介護】岩手県奥州市江刺愛宕字力石５５２番地の５", "url2": "https://www.kaigokensaku.mhlw.go.jp/03/index.php?action_kouhyou_detail_004_kani=true&JigyosyoCd=0371200346-00&ServiceCd=780&Type=search" }, "geometry": { "type": "Point", "coordinates": [ 141.180708900000013, 39.1650412 ] } },
{ "type": "Feature", "properties": { "内容": "デイサービスセンターはいらん家【地域密着型通所介護】岩手県奥州市水沢佐倉河字西関田５０番地", "url2": "https://www.kaigokensaku.mhlw.go.jp/03/index.php?action_kouhyou_detail_004_kani=true&JigyosyoCd=0371500125-00&ServiceCd=780&Type=search" }, "geometry": { "type": "Point", "coordinates": [ 141.13044960000002, 39.1618017 ] } },
{ "type": "Feature", "properties": { "内容": "宅幼老所結笑楽【地域密着型通所介護】岩手県奥州市水沢東大通り二丁目１－１３", "url2": "https://www.kaigokensaku.mhlw.go.jp/03/index.php?action_kouhyou_detail_004_kani=true&JigyosyoCd=0371500570-00&ServiceCd=780&Type=search" }, "geometry": { "type": "Point", "coordinates": [ 141.151095498811429, 39.137949043184442 ] } },
{ "type": "Feature", "properties": { "内容": "元気が出るデイサービスセンター【地域密着型通所介護】岩手県奥州市水沢字横町131番地1Ｆ渡部ビル1階", "url2": "https://www.kaigokensaku.mhlw.go.jp/03/index.php?action_kouhyou_detail_004_kani=true&JigyosyoCd=0371500588-00&ServiceCd=780&Type=search" }, "geometry": { "type": "Point", "coordinates": [ 141.1407216, 39.1397375 ] } },
{ "type": "Feature", "properties": { "内容": "デイサービスの家とみ【地域密着型通所介護】岩手県奥州市水沢字新小路２１－１", "url2": "https://www.kaigokensaku.mhlw.go.jp/03/index.php?action_kouhyou_detail_004_kani=true&JigyosyoCd=0371500877-00&ServiceCd=780&Type=search" }, "geometry": { "type": "Point", "coordinates": [ 141.1393199, 39.1417756 ] } },
{ "type": "Feature", "properties": { "内容": "にこにこリハビリデイサービス巣子る～む【地域密着型通所介護】岩手県滝沢市葉の木沢山505-7", "url2": "https://www.kaigokensaku.mhlw.go.jp/03/index.php?action_kouhyou_detail_004_kani=true&JigyosyoCd=0372101899-00&ServiceCd=780&Type=search" }, "geometry": { "type": "Point", "coordinates": [ 141.144327400000066, 39.7762837 ] } },
{ "type": "Feature", "properties": { "内容": "松実会指定通所介護事業所【地域密着型通所介護】岩手県滝沢市巣子732-2", "url2": "https://www.kaigokensaku.mhlw.go.jp/03/index.php?action_kouhyou_detail_004_kani=true&JigyosyoCd=0372101055-00&ServiceCd=780&Type=search" }, "geometry": { "type": "Point", "coordinates": [ 141.138914976782189, 39.782874711635372 ] } },
{ "type": "Feature", "properties": { "内容": "ディサービス今が一番館【地域密着型通所介護】岩手県滝沢市妻の神157番地3", "url2": "https://www.kaigokensaku.mhlw.go.jp/03/index.php?action_kouhyou_detail_004_kani=true&JigyosyoCd=0372100990-00&ServiceCd=780&Type=search" }, "geometry": { "type": "Point", "coordinates": [ 141.146215699999971, 39.7752588 ] } },
{ "type": "Feature", "properties": { "内容": "リハビリ型デイサービスセンターささこつ【地域密着型通所介護】岩手県岩手郡雫石町柿木5-4", "url2": "https://www.kaigokensaku.mhlw.go.jp/03/index.php?action_kouhyou_detail_004_kani=true&JigyosyoCd=0372101766-00&ServiceCd=780&Type=search" }, "geometry": { "type": "Point", "coordinates": [ 140.963659900000039, 39.7056003 ] } },
{ "type": "Feature", "properties": { "内容": "日赤鶯鳴荘デイサービスセンター【地域密着型通所介護】岩手県岩手郡雫石町南畑第32地割15-30", "url2": "https://www.kaigokensaku.mhlw.go.jp/03/index.php?action_kouhyou_detail_004_kani=true&JigyosyoCd=0392100160-00&ServiceCd=780&Type=search" }, "geometry": { "type": "Point", "coordinates": [ 140.943002799999931, 39.6443535 ] } },
{ "type": "Feature", "properties": { "内容": "松寿荘指定地域密着型通所介護事業所【地域密着型通所介護】岩手県岩手郡雫石町長山篠川原156-2", "url2": "https://www.kaigokensaku.mhlw.go.jp/03/index.php?action_kouhyou_detail_004_kani=true&JigyosyoCd=0392100137-00&ServiceCd=780&Type=search" }, "geometry": { "type": "Point", "coordinates": [ 140.95996260000004, 39.7704395 ] } },
{ "type": "Feature", "properties": { "内容": "うぐいすの郷通所介護センター【地域密着型通所介護】岩手県岩手郡雫石町西安庭第２６地割１３０番地１", "url2": "https://www.kaigokensaku.mhlw.go.jp/03/index.php?action_kouhyou_detail_004_kani=true&JigyosyoCd=0372101030-00&ServiceCd=780&Type=search" }, "geometry": { "type": "Point", "coordinates": [ 140.984507, 39.6584861 ] } },
{ "type": "Feature", "properties": { "内容": "誠心会江刈デイサービスセンター【地域密着型通所介護】岩手県岩手郡葛巻町江刈第24地割10番地", "url2": "https://www.kaigokensaku.mhlw.go.jp/03/index.php?action_kouhyou_detail_004_kani=true&JigyosyoCd=0392100202-00&ServiceCd=780&Type=search" }, "geometry": { "type": "Point", "coordinates": [ 141.5040079, 39.9749704 ] } },
{ "type": "Feature", "properties": { "内容": "パワフル紫波イースト【地域密着型通所介護】岩手県紫波郡紫波町犬吠森字境147番地1", "url2": "https://www.kaigokensaku.mhlw.go.jp/03/index.php?action_kouhyou_detail_004_kani=true&JigyosyoCd=0392200119-00&ServiceCd=780&Type=search" }, "geometry": { "type": "Point", "coordinates": [ 141.177284899999989, 39.5526484 ] } },
{ "type": "Feature", "properties": { "内容": "愛ケアセンターデイサービスなおしま【地域密着型通所介護】岩手県紫波郡紫波町上平沢字川崎82-2", "url2": "https://www.kaigokensaku.mhlw.go.jp/03/index.php?action_kouhyou_detail_004_kani=true&JigyosyoCd=0372200790-00&ServiceCd=780&Type=search" }, "geometry": { "type": "Point", "coordinates": [ 141.104408400000011, 39.5543908 ] } },
{ "type": "Feature", "properties": { "内容": "宅老所えんどり指定通所介護事業所【地域密着型通所介護】岩手県紫波郡紫波町犬吠森字間木沢124", "url2": "https://www.kaigokensaku.mhlw.go.jp/03/index.php?action_kouhyou_detail_004_kani=true&JigyosyoCd=0372200402-00&ServiceCd=780&Type=search" }, "geometry": { "type": "Point", "coordinates": [ 141.179959763376246, 39.557120304658433 ] } },
{ "type": "Feature", "properties": { "内容": "宅老所えんどり古舘指定通所介護事業所【地域密着型通所介護】岩手県紫波郡紫波町高水寺字田中９８番地2", "url2": "https://www.kaigokensaku.mhlw.go.jp/03/index.php?action_kouhyou_detail_004_kani=true&JigyosyoCd=0372200493-00&ServiceCd=780&Type=search" }, "geometry": { "type": "Point", "coordinates": [ 141.166023799999948, 39.5706215 ] } },
{ "type": "Feature", "properties": { "内容": "共生ホームぬくもり指定通所介護事業所【地域密着型通所介護】岩手県紫波郡紫波町稲藤字牡丹野１０－１", "url2": "https://www.kaigokensaku.mhlw.go.jp/03/index.php?action_kouhyou_detail_004_kani=true&JigyosyoCd=0372200733-00&ServiceCd=780&Type=search" }, "geometry": { "type": "Point", "coordinates": [ 141.115112899999986, 39.5509806 ] } },
{ "type": "Feature", "properties": { "内容": "通所介護事業所ぬぐだまり【地域密着型通所介護】岩手県紫波郡紫波町小屋敷字阿弥陀堂272-1", "url2": "https://www.kaigokensaku.mhlw.go.jp/03/index.php?action_kouhyou_detail_004_kani=true&JigyosyoCd=0372200774-00&ServiceCd=780&Type=search" }, "geometry": { "type": "Point", "coordinates": [ 141.094038800000021, 39.571986 ] } },
{ "type": "Feature", "properties": { "内容": "リハビリデイサービスシェーンハイムしわ【地域密着型通所介護】岩手県紫波郡紫波町日詰字東裏85番地1", "url2": "https://www.kaigokensaku.mhlw.go.jp/03/index.php?action_kouhyou_detail_004_kani=true&JigyosyoCd=0392200051-00&ServiceCd=780&Type=search" }, "geometry": { "type": "Point", "coordinates": [ 141.1721626, 39.555262500000019 ] } },
{ "type": "Feature", "properties": { "内容": "リハビリ特化型デイサービスパワフル紫波【地域密着型通所介護】岩手県紫波郡紫波町北日詰字外谷地913番地1", "url2": "https://www.kaigokensaku.mhlw.go.jp/03/index.php?action_kouhyou_detail_004_kani=true&JigyosyoCd=0392200093-00&ServiceCd=780&Type=search" }, "geometry": { "type": "Point", "coordinates": [ 141.149948200000011, 39.5417319 ] } },
{ "type": "Feature", "properties": { "内容": "城山デイサービス【地域密着型通所介護】岩手県紫波郡紫波町二日町字田中前５９", "url2": "https://www.kaigokensaku.mhlw.go.jp/03/index.php?action_kouhyou_detail_004_kani=true&JigyosyoCd=0392200101-00&ServiceCd=780&Type=search" }, "geometry": { "type": "Point", "coordinates": [ 141.1679294, 39.5710913 ] } },
{ "type": "Feature", "properties": { "内容": "通所介護事業所つりがねの郷【地域密着型通所介護】岩手県紫波郡矢巾町大字煙山１―４―２", "url2": "https://www.kaigokensaku.mhlw.go.jp/03/index.php?action_kouhyou_detail_004_kani=true&JigyosyoCd=0372200535-00&ServiceCd=780&Type=search" }, "geometry": { "type": "Point", "coordinates": [ 141.080352700000049, 39.6190878 ] } },
{ "type": "Feature", "properties": { "内容": "矢巾町南デイサービスセンター【地域密着型通所介護】岩手県紫波郡矢巾町太田17-13-1", "url2": "https://www.kaigokensaku.mhlw.go.jp/03/index.php?action_kouhyou_detail_004_kani=true&JigyosyoCd=0392200077-00&ServiceCd=780&Type=search" }, "geometry": { "type": "Point", "coordinates": [ 141.139932, 39.5739758 ] } },
{ "type": "Feature", "properties": { "内容": "デイサービス高原列車【地域密着型通所介護】岩手県紫波郡矢巾町流通センター南四丁目8番20号", "url2": "https://www.kaigokensaku.mhlw.go.jp/03/index.php?action_kouhyou_detail_004_kani=true&JigyosyoCd=0392200069-00&ServiceCd=780&Type=search" }, "geometry": { "type": "Point", "coordinates": [ 141.108623693254117, 39.634934949852322 ] } },
{ "type": "Feature", "properties": { "内容": "GENKI　NEXT岩手矢巾【地域密着型通所介護】岩手県紫波郡矢巾町西徳田大字西徳田第6地割153番2号", "url2": "https://www.kaigokensaku.mhlw.go.jp/03/index.php?action_kouhyou_detail_004_kani=true&JigyosyoCd=0372200881-00&ServiceCd=780&Type=search" }, "geometry": { "type": "Point", "coordinates": [ 141.172226082000748, 39.614934801750174 ] } },
{ "type": "Feature", "properties": { "内容": "リハトレしづか亭【地域密着型通所介護】岩手県西磐井郡平泉町平泉字長倉10-5", "url2": "https://www.kaigokensaku.mhlw.go.jp/03/index.php?action_kouhyou_detail_004_kani=true&JigyosyoCd=0392600052-00&ServiceCd=780&Type=search" }, "geometry": { "type": "Point", "coordinates": [ 141.05107914113924, 38.991933073015723 ] } },
{ "type": "Feature", "properties": { "内容": "デイサービスセンターかじや【地域密着型通所介護】岩手県気仙郡住田町世田米字天風６番地", "url2": "https://www.kaigokensaku.mhlw.go.jp/03/index.php?action_kouhyou_detail_004_kani=true&JigyosyoCd=0392800025-00&ServiceCd=780&Type=search" }, "geometry": { "type": "Point", "coordinates": [ 141.54335279999998, 39.1606451 ] } },
{ "type": "Feature", "properties": { "内容": "大槌町デイサービスセンターはまぎく【地域密着型通所介護】岩手県上閉伊郡大槌町小鎚23-86-4", "url2": "https://www.kaigokensaku.mhlw.go.jp/03/index.php?action_kouhyou_detail_004_kani=true&JigyosyoCd=0372900134-00&ServiceCd=780&Type=search" }, "geometry": { "type": "Point", "coordinates": [ 141.880343911439468, 39.357322355632043 ] } },
{ "type": "Feature", "properties": { "内容": "大槌地域福祉事業所地域共生ホームねまれや【地域密着型通所介護】岩手県上閉伊郡大槌町大ヶ口二丁目9-26", "url2": "https://www.kaigokensaku.mhlw.go.jp/03/index.php?action_kouhyou_detail_004_kani=true&JigyosyoCd=0372900258-00&ServiceCd=780&Type=search" }, "geometry": { "type": "Point", "coordinates": [ 141.885235820983866, 39.37473223529377 ] } },
{ "type": "Feature", "properties": { "内容": "大ケ口デイサービスセンター【地域密着型通所介護】岩手県上閉伊郡大槌町大ヶ口2丁目100-1", "url2": "https://www.kaigokensaku.mhlw.go.jp/03/index.php?action_kouhyou_detail_004_kani=true&JigyosyoCd=0392900049-00&ServiceCd=780&Type=search" }, "geometry": { "type": "Point", "coordinates": [ 141.885875204923423, 39.375387558730942 ] } },
{ "type": "Feature", "properties": { "内容": "ゆーらっぷデイサービスセンター【地域密着型通所介護】上閉伊郡大槌町吉里吉里第32地割18番25", "url2": "https://www.kaigokensaku.mhlw.go.jp/03/index.php?action_kouhyou_detail_004_kani=true&JigyosyoCd=0392900080-00&ServiceCd=780&Type=search" }, "geometry": { "type": "Point", "coordinates": [ 141.9429878, 39.3687493 ] } },
{ "type": "Feature", "properties": { "内容": "指定通所介護事業所石峠宅老所【地域密着型通所介護】岩手県下閉伊郡山田町石峠第2地割35番地", "url2": "https://www.kaigokensaku.mhlw.go.jp/03/index.php?action_kouhyou_detail_004_kani=true&JigyosyoCd=0373000850-00&ServiceCd=780&Type=search" }, "geometry": { "type": "Point", "coordinates": [ 141.9272814, 39.5450132 ] } },
{ "type": "Feature", "properties": { "内容": "岩泉町社協大川指定通所介護事業所【地域密着型通所介護】岩手県下閉伊郡岩泉町大川字下町65番地１", "url2": "https://www.kaigokensaku.mhlw.go.jp/03/index.php?action_kouhyou_detail_004_kani=true&JigyosyoCd=0373000447-00&ServiceCd=780&Type=search" }, "geometry": { "type": "Point", "coordinates": [ 141.658668, 39.8026967 ] } },
{ "type": "Feature", "properties": { "内容": "デイサービスセンターやすらぎ【地域密着型通所介護】岩手県下閉伊郡岩泉町岩泉字中家20番地の10", "url2": "https://www.kaigokensaku.mhlw.go.jp/03/index.php?action_kouhyou_detail_004_kani=true&JigyosyoCd=0373000777-00&ServiceCd=780&Type=search" }, "geometry": { "type": "Point", "coordinates": [ 141.794778299999962, 39.8462056 ] } },
{ "type": "Feature", "properties": { "内容": "田野畑村デイサービスセンター【地域密着型通所介護】岩手県下閉伊郡田野畑村田野畑120番地18", "url2": "https://www.kaigokensaku.mhlw.go.jp/03/index.php?action_kouhyou_detail_004_kani=true&JigyosyoCd=0373000249-00&ServiceCd=780&Type=search" }, "geometry": { "type": "Point", "coordinates": [ 141.893817600000034, 39.9320084 ] } },
{ "type": "Feature", "properties": { "内容": "のだ地域福祉事業所デイサービスセンターあづび【地域密着型通所介護】岩手県九戸郡野田村大字野田20-24-1", "url2": "https://www.kaigokensaku.mhlw.go.jp/03/index.php?action_kouhyou_detail_004_kani=true&JigyosyoCd=0373100650-00&ServiceCd=780&Type=search" }, "geometry": { "type": "Point", "coordinates": [ 141.817104400000062, 40.1107939 ] } },
{ "type": "Feature", "properties": { "内容": "デイサービスセンターふぁーすとシート【地域密着型通所介護】岩手県九戸郡九戸村伊保内第11地割52番地", "url2": "https://www.kaigokensaku.mhlw.go.jp/03/index.php?action_kouhyou_detail_004_kani=true&JigyosyoCd=0373100536-00&ServiceCd=780&Type=search" }, "geometry": { "type": "Point", "coordinates": [ 141.4224769, 40.2066172 ] } },
{ "type": "Feature", "properties": { "内容": "デイサービスきぼう【地域密着型通所介護】岩手県九戸郡洋野町種市第23地割81番地27", "url2": "https://www.kaigokensaku.mhlw.go.jp/03/index.php?action_kouhyou_detail_004_kani=true&JigyosyoCd=0393100227-00&ServiceCd=780&Type=search" }, "geometry": { "type": "Point", "coordinates": [ 141.714603358583076, 40.410958583651045 ] } },
{ "type": "Feature", "properties": { "内容": "慶寿園プラザぽかぽか【地域密着型通所介護】岩手県二戸郡一戸町一戸字砂森１２３番地1", "url2": "https://www.kaigokensaku.mhlw.go.jp/03/index.php?action_kouhyou_detail_004_kani=true&JigyosyoCd=0373200336-00&ServiceCd=780&Type=search" }, "geometry": { "type": "Point", "coordinates": [ 141.304921400000012, 40.2106752 ] } }
]
}
