{
"type": "FeatureCollection",
"name": "geo_03_幼稚園",
"crs": { "type": "name", "properties": { "name": "urn:ogc:def:crs:EPSG::6668" } },
"features": [
{ "type": "Feature", "properties": { "P29_001": "03201", "P29_002": "A103110000010", "P29_003": "16011", "P29_004": "岩手大学教育学部附属幼稚園", "P29_005": "岩手県盛岡市加賀野3-9-1", "P29_006": "1", "P29_007": "0", "P29_008": "00", "P29_009": null }, "geometry": { "type": "Point", "coordinates": [ 141.167674565248461, 39.705960170042935 ] } },
{ "type": "Feature", "properties": { "P29_001": "03201", "P29_002": "A103220100016", "P29_003": "16011", "P29_004": "盛岡市立米内幼稚園", "P29_005": "岩手県盛岡市上米内字米内沢89", "P29_006": "3", "P29_007": "0", "P29_008": "00", "P29_009": null }, "geometry": { "type": "Point", "coordinates": [ 141.20200382812169, 39.754705677152586 ] } },
{ "type": "Feature", "properties": { "P29_001": "03201", "P29_002": "A103220100025", "P29_003": "16011", "P29_004": "盛岡市立太田幼稚園", "P29_005": "岩手県盛岡市上太田字吉本9", "P29_006": "3", "P29_007": "0", "P29_008": "00", "P29_009": null }, "geometry": { "type": "Point", "coordinates": [ 141.081649002873206, 39.687605003899378 ] } },
{ "type": "Feature", "properties": { "P29_001": "03201", "P29_002": "A103220100034", "P29_003": "16011", "P29_004": "盛岡市立好摩幼稚園", "P29_005": "岩手県盛岡市好摩字上山13-1", "P29_006": "3", "P29_007": "0", "P29_008": "00", "P29_009": null }, "geometry": { "type": "Point", "coordinates": [ 141.175872995597729, 39.873710996630045 ] } },
{ "type": "Feature", "properties": { "P29_001": "03205", "P29_002": "A103220500012", "P29_003": "16011", "P29_004": "花巻市立花巻幼稚園", "P29_005": "岩手県花巻市城内10-5", "P29_006": "3", "P29_007": "0", "P29_008": "00", "P29_009": null }, "geometry": { "type": "Point", "coordinates": [ 141.119847994693231, 39.39002599909157 ] } },
{ "type": "Feature", "properties": { "P29_001": "03205", "P29_002": "A103220500021", "P29_003": "16011", "P29_004": "花巻市立土沢幼稚園", "P29_005": "岩手県花巻市東和町土沢5-132", "P29_006": "3", "P29_007": "0", "P29_008": "00", "P29_009": null }, "geometry": { "type": "Point", "coordinates": [ 141.231837509635454, 39.386981631471393 ] } },
{ "type": "Feature", "properties": { "P29_001": "03206", "P29_002": "A103220600011", "P29_003": "16011", "P29_004": "北上市立黒沢尻幼稚園", "P29_005": "岩手県北上市常盤台1-7-100", "P29_006": "3", "P29_007": "0", "P29_008": "00", "P29_009": null }, "geometry": { "type": "Point", "coordinates": [ 141.119969157393854, 39.301093471135033 ] } },
{ "type": "Feature", "properties": { "P29_001": "03206", "P29_002": "A103220600020", "P29_003": "16011", "P29_004": "北上市立更木幼稚園", "P29_005": "岩手県北上市更木12-61", "P29_006": "3", "P29_007": "0", "P29_008": "00", "P29_009": null }, "geometry": { "type": "Point", "coordinates": [ 141.148577998405443, 39.344166002650532 ] } },
{ "type": "Feature", "properties": { "P29_001": "03206", "P29_002": "A103220600039", "P29_003": "16011", "P29_004": "北上市立江釣子幼稚園", "P29_005": "岩手県北上市滑田15-57", "P29_006": "3", "P29_007": "0", "P29_008": "00", "P29_009": null }, "geometry": { "type": "Point", "coordinates": [ 141.068367005189629, 39.317161001640741 ] } },
{ "type": "Feature", "properties": { "P29_001": "03206", "P29_002": "A103220600057", "P29_003": "16011", "P29_004": "北上市立藤根幼稚園", "P29_005": "岩手県北上市和賀町長沼6-6-3", "P29_006": "3", "P29_007": "0", "P29_008": "00", "P29_009": null }, "geometry": { "type": "Point", "coordinates": [ 141.030119995626819, 39.299873997156077 ] } },
{ "type": "Feature", "properties": { "P29_001": "03209", "P29_002": "A103220900018", "P29_003": "16011", "P29_004": "一関市立舞川幼稚園", "P29_005": "岩手県一関市舞川字舘ノ越22-12", "P29_006": "3", "P29_007": "0", "P29_008": "00", "P29_009": null }, "geometry": { "type": "Point", "coordinates": [ 141.174777999300602, 38.969824002718909 ] } },
{ "type": "Feature", "properties": { "P29_001": "03209", "P29_002": "A103220900027", "P29_003": "16011", "P29_004": "一関市立摺沢幼稚園", "P29_005": "岩手県一関市大東町摺沢字観音堂82-2", "P29_006": "3", "P29_007": "0", "P29_008": "00", "P29_009": null }, "geometry": { "type": "Point", "coordinates": [ 141.327391066156792, 38.993091340147082 ] } },
{ "type": "Feature", "properties": { "P29_001": "03209", "P29_002": "A103220900045", "P29_003": "16011", "P29_004": "一関市立真滝幼稚園", "P29_005": "岩手県一関市滝沢字水口103-103", "P29_006": "3", "P29_007": "0", "P29_008": "00", "P29_009": null }, "geometry": { "type": "Point", "coordinates": [ 141.169552121167413, 38.910286827623644 ] } },
{ "type": "Feature", "properties": { "P29_001": "03209", "P29_002": "A103220900063", "P29_003": "16011", "P29_004": "一関市立赤荻幼稚園", "P29_005": "岩手県一関市赤荻字桜町237-2", "P29_006": "3", "P29_007": "0", "P29_008": "00", "P29_009": null }, "geometry": { "type": "Point", "coordinates": [ 141.095107999566892, 38.937539002310061 ] } },
{ "type": "Feature", "properties": { "P29_001": "03211", "P29_002": "A103221100014", "P29_003": "16011", "P29_004": "釜石市立鵜住居幼稚園", "P29_005": "岩手県釜石市鵜住居町13-103-1", "P29_006": "3", "P29_007": "0", "P29_008": "00", "P29_009": null }, "geometry": { "type": "Point", "coordinates": [ 141.884964985510237, 39.327047412089051 ] } },
{ "type": "Feature", "properties": { "P29_001": "03215", "P29_002": "A103221500010", "P29_003": "16011", "P29_004": "奥州市立佐倉河幼稚園", "P29_005": "岩手県奥州市水沢佐倉河字曽根15", "P29_006": "3", "P29_007": "0", "P29_008": "00", "P29_009": null }, "geometry": { "type": "Point", "coordinates": [ 141.129013289762412, 39.165532569188215 ] } },
{ "type": "Feature", "properties": { "P29_001": "03215", "P29_002": "A103221500029", "P29_003": "16011", "P29_004": "奥州市立羽田幼稚園", "P29_005": "岩手県奥州市水沢羽田町字並柳39", "P29_006": "3", "P29_007": "0", "P29_008": "00", "P29_009": null }, "geometry": { "type": "Point", "coordinates": [ 141.180551969123314, 39.138399845870651 ] } },
{ "type": "Feature", "properties": { "P29_001": "03215", "P29_002": "A103221500038", "P29_003": "16011", "P29_004": "奥州市立岩谷堂幼稚園", "P29_005": "岩手県奥州市江刺南町4-8", "P29_006": "3", "P29_007": "0", "P29_008": "00", "P29_009": null }, "geometry": { "type": "Point", "coordinates": [ 141.181958004241579, 39.190560000757671 ] } },
{ "type": "Feature", "properties": { "P29_001": "03215", "P29_002": "A103221500047", "P29_003": "16011", "P29_004": "奥州市立若柳幼稚園", "P29_005": "岩手県奥州市胆沢若柳字相馬檀28", "P29_006": "3", "P29_007": "0", "P29_008": "00", "P29_009": null }, "geometry": { "type": "Point", "coordinates": [ 141.060806000810146, 39.130452003159839 ] } },
{ "type": "Feature", "properties": { "P29_001": "03215", "P29_002": "A103221500056", "P29_003": "16011", "P29_004": "奥州市立南都田幼稚園", "P29_005": "岩手県奥州市胆沢南都田字塚田214-4", "P29_006": "3", "P29_007": "0", "P29_008": "00", "P29_009": null }, "geometry": { "type": "Point", "coordinates": [ 141.089637001048544, 39.138554999212943 ] } },
{ "type": "Feature", "properties": { "P29_001": "03215", "P29_002": "A103221500074", "P29_003": "16011", "P29_004": "奥州市立小山東幼稚園", "P29_005": "岩手県奥州市胆沢小山字後大畑116", "P29_006": "3", "P29_007": "0", "P29_008": "00", "P29_009": null }, "geometry": { "type": "Point", "coordinates": [ 141.089769002948174, 39.098656999096647 ] } },
{ "type": "Feature", "properties": { "P29_001": "03381", "P29_002": "A103238100027", "P29_003": "16011", "P29_004": "認定こども園南方幼稚園", "P29_005": "岩手県胆沢郡金ケ崎町西根杉ノ崎26", "P29_006": "3", "P29_007": "0", "P29_008": "00", "P29_009": null }, "geometry": { "type": "Point", "coordinates": [ 141.098576000362357, 39.19539099962374 ] } },
{ "type": "Feature", "properties": { "P29_001": "03381", "P29_002": "A103238100036", "P29_003": "16011", "P29_004": "金ケ崎町立六原幼稚園", "P29_005": "岩手県胆沢郡金ケ崎町六原赤石72", "P29_006": "3", "P29_007": "0", "P29_008": "00", "P29_009": null }, "geometry": { "type": "Point", "coordinates": [ 141.064877005077307, 39.232449996640945 ] } },
{ "type": "Feature", "properties": { "P29_001": "03381", "P29_002": "A103238100045", "P29_003": "16011", "P29_004": "金ケ崎町立三ケ尻幼稚園", "P29_005": "岩手県胆沢郡金ケ崎町三ヶ尻谷地中36-1", "P29_006": "3", "P29_007": "0", "P29_008": "00", "P29_009": null }, "geometry": { "type": "Point", "coordinates": [ 141.109576996820863, 39.215077997067404 ] } },
{ "type": "Feature", "properties": { "P29_001": "03402", "P29_002": "A103240200013", "P29_003": "16011", "P29_004": "平泉町立平泉幼稚園", "P29_005": "岩手県西磐井郡平泉町平泉字倉町152", "P29_006": "3", "P29_007": "0", "P29_008": "00", "P29_009": null }, "geometry": { "type": "Point", "coordinates": [ 141.10988920435571, 38.986006639959562 ] } },
{ "type": "Feature", "properties": { "P29_001": "03506", "P29_002": "A103250600018", "P29_003": "16011", "P29_004": "九戸村立幼稚園ひめほたるこども園", "P29_005": "岩手県九戸郡九戸村大字長興寺14-33-3", "P29_006": "3", "P29_007": "0", "P29_008": "00", "P29_009": null }, "geometry": { "type": "Point", "coordinates": [ 141.416226006242994, 40.240856000673844 ] } },
{ "type": "Feature", "properties": { "P29_001": "03201", "P29_002": "A103320100014", "P29_003": "16011", "P29_004": "盛岡白百合学園幼稚園", "P29_005": "岩手県盛岡市山岸4-29-16", "P29_006": "4", "P29_007": "0", "P29_008": "00", "P29_009": null }, "geometry": { "type": "Point", "coordinates": [ 141.166885517025491, 39.724517186172882 ] } },
{ "type": "Feature", "properties": { "P29_001": "03201", "P29_002": "A103320100023", "P29_003": "16011", "P29_004": "スコーレ幼稚園", "P29_005": "岩手県盛岡市向中野5-5-2", "P29_006": "4", "P29_007": "0", "P29_008": "00", "P29_009": null }, "geometry": { "type": "Point", "coordinates": [ 141.140689999668837, 39.679407021962177 ] } },
{ "type": "Feature", "properties": { "P29_001": "03201", "P29_002": "A103320100041", "P29_003": "16011", "P29_004": "学校法人盛岡キリスト教学園仙北町幼稚園", "P29_005": "岩手県盛岡市仙北3-7-14", "P29_006": "4", "P29_007": "0", "P29_008": "00", "P29_009": null }, "geometry": { "type": "Point", "coordinates": [ 141.150077273346852, 39.682552701669444 ] } },
{ "type": "Feature", "properties": { "P29_001": "03201", "P29_002": "A103320100050", "P29_003": "16011", "P29_004": "学校法人聖公会盛岡こひつじ学園仁王幼稚園", "P29_005": "岩手県盛岡市中央通3-14-14", "P29_006": "4", "P29_007": "0", "P29_008": "00", "P29_009": null }, "geometry": { "type": "Point", "coordinates": [ 141.141701003864341, 39.704951995576593 ] } },
{ "type": "Feature", "properties": { "P29_001": "03201", "P29_002": "A103320100069", "P29_003": "16011", "P29_004": "聖パウロ幼稚園", "P29_005": "岩手県盛岡市厨川1-14-6", "P29_006": "4", "P29_007": "0", "P29_008": "00", "P29_009": null }, "geometry": { "type": "Point", "coordinates": [ 141.131529004206214, 39.745850000324609 ] } },
{ "type": "Feature", "properties": { "P29_001": "03201", "P29_002": "A103320100078", "P29_003": "16011", "P29_004": "学校法人岩手キリスト教学園青山幼稚園", "P29_005": "岩手県盛岡市青山3-6-27", "P29_006": "4", "P29_007": "0", "P29_008": "00", "P29_009": null }, "geometry": { "type": "Point", "coordinates": [ 141.117276797480713, 39.728040773411379 ] } },
{ "type": "Feature", "properties": { "P29_001": "03201", "P29_002": "A103320100087", "P29_003": "16011", "P29_004": "桜幼稚園", "P29_005": "岩手県盛岡市若園町5-1", "P29_006": "4", "P29_007": "0", "P29_008": "00", "P29_009": null }, "geometry": { "type": "Point", "coordinates": [ 141.15928313742549, 39.703227932427794 ] } },
{ "type": "Feature", "properties": { "P29_001": "03201", "P29_002": "A103320100096", "P29_003": "16011", "P29_004": "水道橋くるみ幼稚園", "P29_005": "岩手県盛岡市浅岸字橋場9-1", "P29_006": "4", "P29_007": "0", "P29_008": "00", "P29_009": null }, "geometry": { "type": "Point", "coordinates": [ 141.183719998268657, 39.714075003155777 ] } },
{ "type": "Feature", "properties": { "P29_001": "03201", "P29_002": "A103320100121", "P29_003": "16011", "P29_004": "ふじみ幼稚園", "P29_005": "岩手県盛岡市下太田林崎24-4", "P29_006": "4", "P29_007": "0", "P29_008": "00", "P29_009": null }, "geometry": { "type": "Point", "coordinates": [ 141.112511726772851, 39.687831842724506 ] } },
{ "type": "Feature", "properties": { "P29_001": "03201", "P29_002": "A103320100130", "P29_003": "16011", "P29_004": "白梅幼稚園", "P29_005": "岩手県盛岡市上の橋町7-63", "P29_006": "4", "P29_007": "0", "P29_008": "00", "P29_009": null }, "geometry": { "type": "Point", "coordinates": [ 141.161234223395155, 39.704150739048004 ] } },
{ "type": "Feature", "properties": { "P29_001": "03201", "P29_002": "A103320100149", "P29_003": "16011", "P29_004": "認定こども園都南幼稚園", "P29_005": "岩手県盛岡市三本柳20-109", "P29_006": "4", "P29_007": "0", "P29_008": "00", "P29_009": null }, "geometry": { "type": "Point", "coordinates": [ 141.172781024725623, 39.648414653810427 ] } },
{ "type": "Feature", "properties": { "P29_001": "03201", "P29_002": "A103320100158", "P29_003": "16011", "P29_004": "学校法人盛岡学園みなみ幼稚園", "P29_005": "岩手県盛岡市流通センター北1-6-5", "P29_006": "4", "P29_007": "0", "P29_008": "00", "P29_009": null }, "geometry": { "type": "Point", "coordinates": [ 141.108278996485666, 39.63938900286135 ] } },
{ "type": "Feature", "properties": { "P29_001": "03202", "P29_002": "A103320200013", "P29_003": "16011", "P29_004": "認定こども園宮古泉幼稚園", "P29_005": "岩手県宮古市上鼻2-6-6", "P29_006": "4", "P29_007": "0", "P29_008": "00", "P29_009": null }, "geometry": { "type": "Point", "coordinates": [ 141.912353514834422, 39.631381210655526 ] } },
{ "type": "Feature", "properties": { "P29_001": "03202", "P29_002": "A103320200022", "P29_003": "16011", "P29_004": "学校法人東北カトリック学園小百合幼稚園", "P29_005": "岩手県宮古市宮町1-2-14", "P29_006": "4", "P29_007": "0", "P29_008": "00", "P29_009": null }, "geometry": { "type": "Point", "coordinates": [ 141.943987072598503, 39.640064824605972 ] } },
{ "type": "Feature", "properties": { "P29_001": "03202", "P29_002": "A103320200031", "P29_003": "16011", "P29_004": "認定こども園そけい幼稚園", "P29_005": "岩手県宮古市磯鶏沖4-20", "P29_006": "4", "P29_007": "0", "P29_008": "00", "P29_009": null }, "geometry": { "type": "Point", "coordinates": [ 141.962788998470188, 39.628885004624486 ] } },
{ "type": "Feature", "properties": { "P29_001": "03203", "P29_002": "A103320300012", "P29_003": "16011", "P29_004": "学校法人東北カトリック学園海の星幼稚園", "P29_005": "岩手県大船渡市大船渡町字地ノ森47-3", "P29_006": "4", "P29_007": "0", "P29_008": "00", "P29_009": null }, "geometry": { "type": "Point", "coordinates": [ 141.717293997850732, 39.072646999216438 ] } },
{ "type": "Feature", "properties": { "P29_001": "03205", "P29_002": "A103320500010", "P29_003": "16011", "P29_004": "ゆもと幼稚園", "P29_005": "岩手県花巻市湯本3-79-11", "P29_006": "4", "P29_007": "0", "P29_008": "00", "P29_009": null }, "geometry": { "type": "Point", "coordinates": [ 141.085432995147642, 39.445458995810888 ] } },
{ "type": "Feature", "properties": { "P29_001": "03205", "P29_002": "A103320500029", "P29_003": "16011", "P29_004": "湯口大谷幼稚園", "P29_005": "岩手県花巻市湯口字平林47-1", "P29_006": "4", "P29_007": "0", "P29_008": "00", "P29_009": null }, "geometry": { "type": "Point", "coordinates": [ 141.037844003829633, 39.400541003983605 ] } },
{ "type": "Feature", "properties": { "P29_001": "03205", "P29_002": "A103320500038", "P29_003": "16011", "P29_004": "大谷幼稚園", "P29_005": "岩手県花巻市愛宕町7-34", "P29_006": "4", "P29_007": "0", "P29_008": "00", "P29_009": null }, "geometry": { "type": "Point", "coordinates": [ 141.113532006006778, 39.395219003030313 ] } },
{ "type": "Feature", "properties": { "P29_001": "03205", "P29_002": "A103320500047", "P29_003": "16011", "P29_004": "学校法人花北みのり学園中央みのり幼稚園", "P29_005": "岩手県花巻市大谷地451-1", "P29_006": "4", "P29_007": "0", "P29_008": "00", "P29_009": null }, "geometry": { "type": "Point", "coordinates": [ 141.10151999832101, 39.366075003709305 ] } },
{ "type": "Feature", "properties": { "P29_001": "03205", "P29_002": "A103320500056", "P29_003": "16011", "P29_004": "花巻ささま幼稚園", "P29_005": "岩手県花巻市北笹間21-63", "P29_006": "4", "P29_007": "0", "P29_008": "00", "P29_009": null }, "geometry": { "type": "Point", "coordinates": [ 141.048521061120567, 39.349320272759762 ] } },
{ "type": "Feature", "properties": { "P29_001": "03206", "P29_002": "A103320600028", "P29_003": "16011", "P29_004": "やさか幼稚園", "P29_005": "岩手県北上市北鬼柳19-6-1", "P29_006": "4", "P29_007": "0", "P29_008": "00", "P29_009": null }, "geometry": { "type": "Point", "coordinates": [ 141.096956999347697, 39.292966003054268 ] } },
{ "type": "Feature", "properties": { "P29_001": "03206", "P29_002": "A103320600037", "P29_003": "16011", "P29_004": "学校法人尚恵学園むらさきの幼稚園", "P29_005": "岩手県北上市村崎野14-441-1", "P29_006": "4", "P29_007": "0", "P29_008": "00", "P29_009": null }, "geometry": { "type": "Point", "coordinates": [ 141.114592244168705, 39.319539228334783 ] } },
{ "type": "Feature", "properties": { "P29_001": "03206", "P29_002": "A103320600046", "P29_003": "16011", "P29_004": "学校法人東北カトリック学園暁の星幼稚園", "P29_005": "岩手県北上市中野町2-23-7", "P29_006": "4", "P29_007": "0", "P29_008": "00", "P29_009": null }, "geometry": { "type": "Point", "coordinates": [ 141.126513997672305, 39.29343100049627 ] } },
{ "type": "Feature", "properties": { "P29_001": "03206", "P29_002": "A103320600055", "P29_003": "16011", "P29_004": "大堤幼稚園", "P29_005": "岩手県北上市相去町高前檀6-13", "P29_006": "4", "P29_007": "0", "P29_008": "00", "P29_009": null }, "geometry": { "type": "Point", "coordinates": [ 141.083967299268267, 39.257679343861511 ] } },
{ "type": "Feature", "properties": { "P29_001": "03208", "P29_002": "A103320800017", "P29_003": "16011", "P29_004": "学校法人東北カトリック学園光の園幼稚園", "P29_005": "岩手県遠野市東穀町14-7", "P29_006": "4", "P29_007": "0", "P29_008": "00", "P29_009": null }, "geometry": { "type": "Point", "coordinates": [ 141.538930583366209, 39.329815405837813 ] } },
{ "type": "Feature", "properties": { "P29_001": "03209", "P29_002": "A103320900016", "P29_003": "16011", "P29_004": "学校法人東北カトリック学園愛心幼稚園", "P29_005": "岩手県一関市大手町7-5", "P29_006": "4", "P29_007": "0", "P29_008": "00", "P29_009": null }, "geometry": { "type": "Point", "coordinates": [ 141.135108074576976, 38.930453268015071 ] } },
{ "type": "Feature", "properties": { "P29_001": "03209", "P29_002": "A103320900025", "P29_003": "16011", "P29_004": "カトリック清心幼稚園", "P29_005": "岩手県一関市千厩町千厩字町浦47-1", "P29_006": "4", "P29_007": "0", "P29_008": "00", "P29_009": null }, "geometry": { "type": "Point", "coordinates": [ 141.332682314933265, 38.916894583585901 ] } },
{ "type": "Feature", "properties": { "P29_001": "03210", "P29_002": "A103321000013", "P29_003": "16011", "P29_004": "高田幼稚園", "P29_005": "岩手県陸前高田市高田町字洞の沢28", "P29_006": "4", "P29_007": "0", "P29_008": "00", "P29_009": null }, "geometry": { "type": "Point", "coordinates": [ 141.631617148947072, 39.019274564899682 ] } },
{ "type": "Feature", "properties": { "P29_001": "03211", "P29_002": "A103321100012", "P29_003": "16011", "P29_004": "学校法人釜石学園正福寺幼稚園", "P29_005": "岩手県釜石市甲子町10-8-4", "P29_006": "4", "P29_007": "0", "P29_008": "00", "P29_009": null }, "geometry": { "type": "Point", "coordinates": [ 141.799454518160758, 39.255607911047875 ] } },
{ "type": "Feature", "properties": { "P29_001": "03213", "P29_002": "A103321300010", "P29_003": "16011", "P29_004": "岩手保健医療大学附属幼稚園", "P29_005": "岩手県二戸市堀野字馬場40-1", "P29_006": "4", "P29_007": "0", "P29_008": "00", "P29_009": null }, "geometry": { "type": "Point", "coordinates": [ 141.297780856137109, 40.295859137719226 ] } },
{ "type": "Feature", "properties": { "P29_001": "03214", "P29_002": "A103321400019", "P29_003": "16011", "P29_004": "ひなぎく幼稚園", "P29_005": "岩手県八幡平市大更18-88-7", "P29_006": "4", "P29_007": "0", "P29_008": "00", "P29_009": null }, "geometry": { "type": "Point", "coordinates": [ 141.092587409145949, 39.899351354470092 ] } },
{ "type": "Feature", "properties": { "P29_001": "03215", "P29_002": "A103321500027", "P29_003": "16011", "P29_004": "ひがし幼稚園", "P29_005": "岩手県奥州市水沢太日通り3-6-15", "P29_006": "4", "P29_007": "0", "P29_008": "00", "P29_009": null }, "geometry": { "type": "Point", "coordinates": [ 141.154380505370995, 39.136454443603682 ] } },
{ "type": "Feature", "properties": { "P29_001": "03215", "P29_002": "A103321500045", "P29_003": "16011", "P29_004": "こじか幼稚園", "P29_005": "岩手県奥州市水沢字小石田135-1", "P29_006": "4", "P29_007": "0", "P29_008": "00", "P29_009": null }, "geometry": { "type": "Point", "coordinates": [ 141.135009476999187, 39.149528190917351 ] } },
{ "type": "Feature", "properties": { "P29_001": "03216", "P29_002": "A103321600026", "P29_003": "16011", "P29_004": "あさひ幼稚園", "P29_005": "岩手県滝沢市巣子850", "P29_006": "4", "P29_007": "0", "P29_008": "00", "P29_009": null }, "geometry": { "type": "Point", "coordinates": [ 141.142638008998091, 39.785423156223239 ] } },
{ "type": "Feature", "properties": { "P29_001": "03321", "P29_002": "A103332100019", "P29_003": "16011", "P29_004": "学校法人吾妻学園認定こども園あづま幼稚園", "P29_005": "岩手県紫波郡紫波町上平沢字川原田84-2", "P29_006": "4", "P29_007": "0", "P29_008": "00", "P29_009": null }, "geometry": { "type": "Point", "coordinates": [ 141.10817948475588, 39.552613736113443 ] } },
{ "type": "Feature", "properties": { "P29_001": "03461", "P29_002": "A103346100019", "P29_003": "16011", "P29_004": "おさなご幼稚園", "P29_005": "岩手県上閉伊郡大槌町桜木町2-24", "P29_006": "4", "P29_007": "0", "P29_008": "00", "P29_009": null }, "geometry": { "type": "Point", "coordinates": [ 141.890638516624705, 39.35842119307322 ] } },
{ "type": "Feature", "properties": { "P29_001": "03482", "P29_002": "A103348200014", "P29_003": "16011", "P29_004": "山田幼稚園", "P29_005": "岩手県下閉伊郡山田町八幡町12-21", "P29_006": "4", "P29_007": "0", "P29_008": "00", "P29_009": null }, "geometry": { "type": "Point", "coordinates": [ 141.947792969436023, 39.467248717891778 ] } }
]
}
